{
 "type": "FeatureCollection",
 "features": [
  {
   "type": "Feature",
   "geometry": {
    "type": "Point",
    "coordinates": [
     20.21888745609365,
     67.86060547028313
    ]
   },
   "properties": {
    "kommun": "Kiruna",
    "namnd": "Miljö- och byggnämnden",
    "date": "2024-02-01",
    "paragraph": 5,
    "title": "PAKSUNIEMI 2:32, Strandskyddsdispens nybyggnad",
    "fastighet": "PAKSUNIEMI 2:32",
    "pdf_url": "https://kiruna.se/download/18.49af114218d8762ff97b041/1708594082641/PROTOKOLL%20MOB%202024-02-01%20.docx.pdf",
    "filename": "PROTOKOLL MOB 2024-02-01 .docx.pdf"
   }
  },
  {
   "type": "Feature",
   "geometry": {
    "type": "Point",
    "coordinates": [
     20.192634690539016,
     67.84505739929553
    ]
   },
   "properties": {
    "kommun": "Kiruna",
    "namnd": "Miljö- och byggnämnden",
    "date": "2024-02-01",
    "paragraph": 6,
    "title": "PUOLTSA 1:31, Strandskyddsdispens nybyggnad",
    "fastighet": "PUOLTSA 1:31",
    "pdf_url": "https://kiruna.se/download/18.49af114218d8762ff97b041/1708594082641/PROTOKOLL%20MOB%202024-02-01%20.docx.pdf",
    "filename": "PROTOKOLL MOB 2024-02-01 .docx.pdf"
   }
  },
  {
   "type": "Feature",
   "geometry": {
    "type": "Point",
    "coordinates": [
     20.2132655988811,
     67.8565415457793
    ]
   },
   "properties": {
    "kommun": "Kiruna",
    "namnd": "Miljö- och byggnämnden",
    "date": "2024-02-01",
    "paragraph": 7,
    "title": "KUTTAINEN 39:5, Förhandsbesked nybyggnad",
    "fastighet": "KUTTAINEN 39:5",
    "pdf_url": "https://kiruna.se/download/18.49af114218d8762ff97b041/1708594082641/PROTOKOLL%20MOB%202024-02-01%20.docx.pdf",
    "filename": "PROTOKOLL MOB 2024-02-01 .docx.pdf"
   }
  },
  {
   "type": "Feature",
   "geometry": {
    "type": "Point",
    "coordinates": [
     20.216713623416805,
     67.85432313086396
    ]
   },
   "properties": {
    "kommun": "Kiruna",
    "namnd": "Miljö- och byggnämnden",
    "date": "2024-02-01",
    "paragraph": 8,
    "title": "KIRUNA 1:1, Förhandsbesked nybyggnad- Träning- och tävlingsarena inom cykel, skidor och snowboard",
    "fastighet": "KIRUNA 1:1",
    "pdf_url": "https://kiruna.se/download/18.49af114218d8762ff97b041/1708594082641/PROTOKOLL%20MOB%202024-02-01%20.docx.pdf",
    "filename": "PROTOKOLL MOB 2024-02-01 .docx.pdf"
   }
  },
  {
   "type": "Feature",
   "geometry": {
    "type": "Point",
    "coordinates": [
     20.214469152132413,
     67.83491674284706
    ]
   },
   "properties": {
    "kommun": "Kiruna",
    "namnd": "Miljö- och byggnämnden",
    "date": "2024-02-01",
    "paragraph": 9,
    "title": "KURRAVAARA 3:2, Tidsbegränsat bygglov- Turistanläggning",
    "fastighet": "KURRAVAARA 3:2",
    "pdf_url": "https://kiruna.se/download/18.49af114218d8762ff97b041/1708594082641/PROTOKOLL%20MOB%202024-02-01%20.docx.pdf",
    "filename": "PROTOKOLL MOB 2024-02-01 .docx.pdf"
   }
  },
  {
   "type": "Feature",
   "geometry": {
    "type": "Point",
    "coordinates": [
     20.225990147271514,
     67.83840214125226
    ]
   },
   "properties": {
    "kommun": "Kiruna",
    "namnd": "Miljö- och byggnämnden",
    "date": "2024-02-01",
    "paragraph": 10,
    "title": "VALEN 12, Bygglov nybyggnad- nätstation",
    "fastighet": "VALEN 12",
    "pdf_url": "https://kiruna.se/download/18.49af114218d8762ff97b041/1708594082641/PROTOKOLL%20MOB%202024-02-01%20.docx.pdf",
    "filename": "PROTOKOLL MOB 2024-02-01 .docx.pdf"
   }
  },
  {
   "type": "Feature",
   "geometry": {
    "type": "Point",
    "coordinates": [
     20.207352501298192,
     67.85730069658891
    ]
   },
   "properties": {
    "kommun": "Kiruna",
    "namnd": "Miljö- och byggnämnden",
    "date": "2024-02-01",
    "paragraph": 12,
    "title": "KIRUNA PIILIJÄRVI 1:2, Strandskyddsdispens nybyggnad- Fritidshus",
    "fastighet": "KIRUNA PIILIJÄRVI 1:2",
    "pdf_url": "https://kiruna.se/download/18.49af114218d8762ff97b041/1708594082641/PROTOKOLL%20MOB%202024-02-01%20.docx.pdf",
    "filename": "PROTOKOLL MOB 2024-02-01 .docx.pdf"
   }
  },
  {
   "type": "Feature",
   "geometry": {
    "type": "Point",
    "coordinates": [
     20.206866072847802,
     67.84672034684424
    ]
   },
   "properties": {
    "kommun": "Kiruna",
    "namnd": "Miljö- och byggnämnden",
    "date": "2024-02-01",
    "paragraph": 13,
    "title": "JUKKASJÄRVI S:23, Strandskyddsdispens nybyggnad- Nätbod",
    "fastighet": null,
    "pdf_url": "https://kiruna.se/download/18.49af114218d8762ff97b041/1708594082641/PROTOKOLL%20MOB%202024-02-01%20.docx.pdf",
    "filename": "PROTOKOLL MOB 2024-02-01 .docx.pdf"
   }
  },
  {
   "type": "Feature",
   "geometry": {
    "type": "Point",
    "coordinates": [
     20.23108735487985,
     67.83408541393669
    ]
   },
   "properties": {
    "kommun": "Kiruna",
    "namnd": "Miljö- och byggnämnden",
    "date": "2024-02-01",
    "paragraph": 15,
    "title": "SEVOJOKI 1:1, Bygglov nybyggnad- Renvaktarstuga",
    "fastighet": "SEVOJOKI 1:1",
    "pdf_url": "https://kiruna.se/download/18.49af114218d8762ff97b041/1708594082641/PROTOKOLL%20MOB%202024-02-01%20.docx.pdf",
    "filename": "PROTOKOLL MOB 2024-02-01 .docx.pdf"
   }
  },
  {
   "type": "Feature",
   "geometry": {
    "type": "Point",
    "coordinates": [
     20.197376350865877,
     67.85316974307011
    ]
   },
   "properties": {
    "kommun": "Kiruna",
    "namnd": "Miljö- och byggnämnden",
    "date": "2024-02-01",
    "paragraph": 16,
    "title": "JUKKASJÄRVI 1:4, Bygglov nybyggnad en- och tvåbostadshus",
    "fastighet": "JUKKASJÄRVI 1:4",
    "pdf_url": "https://kiruna.se/download/18.49af114218d8762ff97b041/1708594082641/PROTOKOLL%20MOB%202024-02-01%20.docx.pdf",
    "filename": "PROTOKOLL MOB 2024-02-01 .docx.pdf"
   }
  },
  {
   "type": "Feature",
   "geometry": {
    "type": "Point",
    "coordinates": [
     20.199615644755262,
     67.84810434640923
    ]
   },
   "properties": {
    "kommun": "Kiruna",
    "namnd": "Miljö- och byggnämnden",
    "date": "2024-03-14",
    "paragraph": 34,
    "title": "Kiruna Mertajärvi 2:5, Strandskyddsdispens nybyggnad- Luftledning för elnät samt transformatorstation och kabelskåp",
    "fastighet": "Kiruna Mertajärvi 2:5",
    "pdf_url": "https://kiruna.se/download/18.3c87e69218e5f7069694fd2/1711544045968/Milj%C3%B6-%20och%20byggn%C3%A4mndens%20protokoll%202024-03-14%20signerat%20med%20pnr.pdf",
    "filename": "Miljö- och byggnämndens protokoll 2024-03-14 signerat med pnr.pdf"
   }
  },
  {
   "type": "Feature",
   "geometry": {
    "type": "Point",
    "coordinates": [
     20.225869475307917,
     67.83999311141288
    ]
   },
   "properties": {
    "kommun": "Kiruna",
    "namnd": "Miljö- och byggnämnden",
    "date": "2024-03-14",
    "paragraph": 35,
    "title": "IDIVUOMA 16:1, Bygglov - Ansökan om strandskyddsdispens",
    "fastighet": "IDIVUOMA 16:1",
    "pdf_url": "https://kiruna.se/download/18.3c87e69218e5f7069694fd2/1711544045968/Milj%C3%B6-%20och%20byggn%C3%A4mndens%20protokoll%202024-03-14%20signerat%20med%20pnr.pdf",
    "filename": "Miljö- och byggnämndens protokoll 2024-03-14 signerat med pnr.pdf"
   }
  },
  {
   "type": "Feature",
   "geometry": {
    "type": "Point",
    "coordinates": [
     20.20848144802876,
     67.83707337934746
    ]
   },
   "properties": {
    "kommun": "Kiruna",
    "namnd": "Miljö- och byggnämnden",
    "date": "2024-03-14",
    "paragraph": 36,
    "title": "DEPÅN 1, Bygglov nybyggnad- Kontorsbyggnad",
    "fastighet": "DEPÅN 1",
    "pdf_url": "https://kiruna.se/download/18.3c87e69218e5f7069694fd2/1711544045968/Milj%C3%B6-%20och%20byggn%C3%A4mndens%20protokoll%202024-03-14%20signerat%20med%20pnr.pdf",
    "filename": "Miljö- och byggnämndens protokoll 2024-03-14 signerat med pnr.pdf"
   }
  },
  {
   "type": "Feature",
   "geometry": {
    "type": "Point",
    "coordinates": [
     20.185667193337444,
     67.86204383180686
    ]
   },
   "properties": {
    "kommun": "Kiruna",
    "namnd": "Miljö- och byggnämnden",
    "date": "2024-03-14",
    "paragraph": 37,
    "title": "PAKSUNIEMI 2:80, Strandskyddsdispens nybyggnad",
    "fastighet": "PAKSUNIEMI 2:80",
    "pdf_url": "https://kiruna.se/download/18.3c87e69218e5f7069694fd2/1711544045968/Milj%C3%B6-%20och%20byggn%C3%A4mndens%20protokoll%202024-03-14%20signerat%20med%20pnr.pdf",
    "filename": "Miljö- och byggnämndens protokoll 2024-03-14 signerat med pnr.pdf"
   }
  },
  {
   "type": "Feature",
   "geometry": {
    "type": "Point",
    "coordinates": [
     20.190068866817736,
     67.83449338420982
    ]
   },
   "properties": {
    "kommun": "Kiruna",
    "namnd": "Miljö- och byggnämnden",
    "date": "2024-03-14",
    "paragraph": 38,
    "title": "JUKKASJÄRVI 17:10, Strandskyddsdispens nybyggnad",
    "fastighet": "JUKKASJÄRVI 17:10",
    "pdf_url": "https://kiruna.se/download/18.3c87e69218e5f7069694fd2/1711544045968/Milj%C3%B6-%20och%20byggn%C3%A4mndens%20protokoll%202024-03-14%20signerat%20med%20pnr.pdf",
    "filename": "Miljö- och byggnämndens protokoll 2024-03-14 signerat med pnr.pdf"
   }
  },
  {
   "type": "Feature",
   "geometry": {
    "type": "Point",
    "coordinates": [
     20.185802774761967,
     67.83563404525883
    ]
   },
   "properties": {
    "kommun": "Kiruna",
    "namnd": "Miljö- och byggnämnden",
    "date": "2024-03-14",
    "paragraph": 39,
    "title": "TUOLLUVAARA 1:1, Bygglov nybyggnad- Kontorsbyggnad Pekinghuset",
    "fastighet": "TUOLLUVAARA 1:1",
    "pdf_url": "https://kiruna.se/download/18.3c87e69218e5f7069694fd2/1711544045968/Milj%C3%B6-%20och%20byggn%C3%A4mndens%20protokoll%202024-03-14%20signerat%20med%20pnr.pdf",
    "filename": "Miljö- och byggnämndens protokoll 2024-03-14 signerat med pnr.pdf"
   }
  },
  {
   "type": "Feature",
   "geometry": {
    "type": "Point",
    "coordinates": [
     20.186961662309333,
     67.83413780614116
    ]
   },
   "properties": {
    "kommun": "Kiruna",
    "namnd": "Miljö- och byggnämnden",
    "date": "2024-03-14",
    "paragraph": 40,
    "title": "TVÄTTSTUGAN 1, Bygglov nybyggnad- Torn med tillhörande teknikskåp",
    "fastighet": "TVÄTTSTUGAN 1",
    "pdf_url": "https://kiruna.se/download/18.3c87e69218e5f7069694fd2/1711544045968/Milj%C3%B6-%20och%20byggn%C3%A4mndens%20protokoll%202024-03-14%20signerat%20med%20pnr.pdf",
    "filename": "Miljö- och byggnämndens protokoll 2024-03-14 signerat med pnr.pdf"
   }
  },
  {
   "type": "Feature",
   "geometry": {
    "type": "Point",
    "coordinates": [
     20.244265342800748,
     67.84592397402947
    ]
   },
   "properties": {
    "kommun": "Kiruna",
    "namnd": "Miljö- och byggnämnden",
    "date": "2024-03-14",
    "paragraph": 49,
    "title": "GOLVET 7 Bygglov nybyggnad- Bodar",
    "fastighet": "GOLVET 7",
    "pdf_url": "https://kiruna.se/download/18.3c87e69218e5f7069694fd2/1711544045968/Milj%C3%B6-%20och%20byggn%C3%A4mndens%20protokoll%202024-03-14%20signerat%20med%20pnr.pdf",
    "filename": "Miljö- och byggnämndens protokoll 2024-03-14 signerat med pnr.pdf"
   }
  },
  {
   "type": "Feature",
   "geometry": {
    "type": "Point",
    "coordinates": [
     20.18379735838677,
     67.85209419064489
    ]
   },
   "properties": {
    "kommun": "Kiruna",
    "namnd": "Miljö- och byggnämnden",
    "date": "2024-04-18",
    "paragraph": 62,
    "title": "JUKKASJÄRVI 16:16, Strandskyddsdispens tillbyggnad- Fritidshus",
    "fastighet": "JUKKASJÄRVI 16:16",
    "pdf_url": "https://kiruna.se/download/18.4ab294e218fa42466b293a7/1717415335282/Milj%C3%B6-%20och%20byggn%C3%A4mndens%20protokoll%202024-04-18%20signerat%20med%20pnr.pdf",
    "filename": "Miljö- och byggnämndens protokoll 2024-04-18 signerat med pnr.pdf"
   }
  },
  {
   "type": "Feature",
   "geometry": {
    "type": "Point",
    "coordinates": [
     20.199683968971854,
     67.84611218749629
    ]
   },
   "properties": {
    "kommun": "Kiruna",
    "namnd": "Miljö- och byggnämnden",
    "date": "2024-04-18",
    "paragraph": 63,
    "title": "LUOSSAVAARA 1:2, Förhandsbesked nybyggnad- Industribyggnad och kontorsbyggnad UTGÅR! B-2024-107 15. IDIVUOMA 24:1, Strandskyddsdispens nybyggnad- Pumpstation",
    "fastighet": "LUOSSAVAARA 1:2",
    "pdf_url": "https://kiruna.se/download/18.4ab294e218fa42466b293a7/1717415335282/Milj%C3%B6-%20och%20byggn%C3%A4mndens%20protokoll%202024-04-18%20signerat%20med%20pnr.pdf",
    "filename": "Miljö- och byggnämndens protokoll 2024-04-18 signerat med pnr.pdf"
   }
  },
  {
   "type": "Feature",
   "geometry": {
    "type": "Point",
    "coordinates": [
     20.221989388022827,
     67.84345807129712
    ]
   },
   "properties": {
    "kommun": "Kiruna",
    "namnd": "Miljö- och byggnämnden",
    "date": "2024-04-18",
    "paragraph": 64,
    "title": "PIILIJÄRVI 1:2, Strandskyddsdispens nybyggnad- Fritidshus",
    "fastighet": "PIILIJÄRVI 1:2",
    "pdf_url": "https://kiruna.se/download/18.4ab294e218fa42466b293a7/1717415335282/Milj%C3%B6-%20och%20byggn%C3%A4mndens%20protokoll%202024-04-18%20signerat%20med%20pnr.pdf",
    "filename": "Miljö- och byggnämndens protokoll 2024-04-18 signerat med pnr.pdf"
   }
  },
  {
   "type": "Feature",
   "geometry": {
    "type": "Point",
    "coordinates": [
     20.20272172784076,
     67.84858483575857
    ]
   },
   "properties": {
    "kommun": "Kiruna",
    "namnd": "Miljö- och byggnämnden",
    "date": "2024-04-18",
    "paragraph": 65,
    "title": "BAKLASTAREN 4, Tidsbegränsat bygglov nybyggnad- Barackbostäder",
    "fastighet": "BAKLASTAREN 4",
    "pdf_url": "https://kiruna.se/download/18.4ab294e218fa42466b293a7/1717415335282/Milj%C3%B6-%20och%20byggn%C3%A4mndens%20protokoll%202024-04-18%20signerat%20med%20pnr.pdf",
    "filename": "Miljö- och byggnämndens protokoll 2024-04-18 signerat med pnr.pdf"
   }
  },
  {
   "type": "Feature",
   "geometry": {
    "type": "Point",
    "coordinates": [
     20.2339010269485,
     67.8551977777245
    ]
   },
   "properties": {
    "kommun": "Kiruna",
    "namnd": "Miljö- och byggnämnden",
    "date": "2024-04-18",
    "paragraph": 66,
    "title": "INDUSTRIN 9:10, Förhandsbesked nybyggnad- Kapell",
    "fastighet": "INDUSTRIN 9:10",
    "pdf_url": "https://kiruna.se/download/18.4ab294e218fa42466b293a7/1717415335282/Milj%C3%B6-%20och%20byggn%C3%A4mndens%20protokoll%202024-04-18%20signerat%20med%20pnr.pdf",
    "filename": "Miljö- och byggnämndens protokoll 2024-04-18 signerat med pnr.pdf"
   }
  },
  {
   "type": "Feature",
   "geometry": {
    "type": "Point",
    "coordinates": [
     20.182408952329137,
     67.84833623503741
    ]
   },
   "properties": {
    "kommun": "Kiruna",
    "namnd": "Miljö- och byggnämnden",
    "date": "2024-04-18",
    "paragraph": 67,
    "title": "JUKKASJÄRVI KRONOÖVERLOPPSMARK 1:1, Strandskyddsdispens nybyggnad",
    "fastighet": "JUKKASJÄRVI KRONOÖVERLOPPSMARK 1:1",
    "pdf_url": "https://kiruna.se/download/18.4ab294e218fa42466b293a7/1717415335282/Milj%C3%B6-%20och%20byggn%C3%A4mndens%20protokoll%202024-04-18%20signerat%20med%20pnr.pdf",
    "filename": "Miljö- och byggnämndens protokoll 2024-04-18 signerat med pnr.pdf"
   }
  },
  {
   "type": "Feature",
   "geometry": {
    "type": "Point",
    "coordinates": [
     20.232103175176356,
     67.8344936825916
    ]
   },
   "properties": {
    "kommun": "Kiruna",
    "namnd": "Miljö- och byggnämnden",
    "date": "2024-04-18",
    "paragraph": 68,
    "title": "PAKSUNIEMI 2:32, Strandskyddsdispens nybyggnad",
    "fastighet": "PAKSUNIEMI 2:32",
    "pdf_url": "https://kiruna.se/download/18.4ab294e218fa42466b293a7/1717415335282/Milj%C3%B6-%20och%20byggn%C3%A4mndens%20protokoll%202024-04-18%20signerat%20med%20pnr.pdf",
    "filename": "Miljö- och byggnämndens protokoll 2024-04-18 signerat med pnr.pdf"
   }
  },
  {
   "type": "Feature",
   "geometry": {
    "type": "Point",
    "coordinates": [
     20.246752149210202,
     67.85136206428427
    ]
   },
   "properties": {
    "kommun": "Kiruna",
    "namnd": "Miljö- och byggnämnden",
    "date": "2024-04-18",
    "paragraph": 69,
    "title": "PUOLTSA 1:31, Strandskyddsdispens nybyggnad",
    "fastighet": "PUOLTSA 1:31",
    "pdf_url": "https://kiruna.se/download/18.4ab294e218fa42466b293a7/1717415335282/Milj%C3%B6-%20och%20byggn%C3%A4mndens%20protokoll%202024-04-18%20signerat%20med%20pnr.pdf",
    "filename": "Miljö- och byggnämndens protokoll 2024-04-18 signerat med pnr.pdf"
   }
  },
  {
   "type": "Feature",
   "geometry": {
    "type": "Point",
    "coordinates": [
     20.219359012677028,
     67.85476233430228
    ]
   },
   "properties": {
    "kommun": "Kiruna",
    "namnd": "Miljö- och byggnämnden",
    "date": "2024-05-16",
    "paragraph": 93,
    "title": "Taxa för prövning och tillsyn enligt Miljöbalken 2025",
    "fastighet": "Miljöbalken 2025",
    "pdf_url": "https://kiruna.se/download/18.3845d47018fa409e19f9d3f/1717415627143/Milj%C3%B6-%20och%20byggn%C3%A4mndens%20protokoll%202024-05-16%20signerat%20med%20pnr.pdf",
    "filename": "Miljö- och byggnämndens protokoll 2024-05-16 signerat med pnr.pdf"
   }
  },
  {
   "type": "Feature",
   "geometry": {
    "type": "Point",
    "coordinates": [
     20.2281369926142,
     67.85096292676747
    ]
   },
   "properties": {
    "kommun": "Kiruna",
    "namnd": "Miljö- och byggnämnden",
    "date": "2024-05-16",
    "paragraph": 100,
    "title": "JÄGARSKOLAN 8:15, Bygglov nybyggnad- En- och tvåbostadshus",
    "fastighet": "JÄGARSKOLAN 8:15",
    "pdf_url": "https://kiruna.se/download/18.3845d47018fa409e19f9d3f/1717415627143/Milj%C3%B6-%20och%20byggn%C3%A4mndens%20protokoll%202024-05-16%20signerat%20med%20pnr.pdf",
    "filename": "Miljö- och byggnämndens protokoll 2024-05-16 signerat med pnr.pdf"
   }
  },
  {
   "type": "Feature",
   "geometry": {
    "type": "Point",
    "coordinates": [
     20.211797350194054,
     67.85242782258251
    ]
   },
   "properties": {
    "kommun": "Kiruna",
    "namnd": "Miljö- och byggnämnden",
    "date": "2024-05-16",
    "paragraph": 101,
    "title": "VALEN 12, Bygglov nybyggnad- nätstation",
    "fastighet": "VALEN 12",
    "pdf_url": "https://kiruna.se/download/18.3845d47018fa409e19f9d3f/1717415627143/Milj%C3%B6-%20och%20byggn%C3%A4mndens%20protokoll%202024-05-16%20signerat%20med%20pnr.pdf",
    "filename": "Miljö- och byggnämndens protokoll 2024-05-16 signerat med pnr.pdf"
   }
  },
  {
   "type": "Feature",
   "geometry": {
    "type": "Point",
    "coordinates": [
     20.181663944300507,
     67.86193873224313
    ]
   },
   "properties": {
    "kommun": "Kiruna",
    "namnd": "Miljö- och byggnämnden",
    "date": "2024-05-16",
    "paragraph": 102,
    "title": "Tillsynsplan bygglov 2024-2025",
    "fastighet": "Tillsynsplan bygglov 2024",
    "pdf_url": "https://kiruna.se/download/18.3845d47018fa409e19f9d3f/1717415627143/Milj%C3%B6-%20och%20byggn%C3%A4mndens%20protokoll%202024-05-16%20signerat%20med%20pnr.pdf",
    "filename": "Miljö- och byggnämndens protokoll 2024-05-16 signerat med pnr.pdf"
   }
  },
  {
   "type": "Feature",
   "geometry": {
    "type": "Point",
    "coordinates": [
     20.19154271816396,
     67.86403393642638
    ]
   },
   "properties": {
    "kommun": "Kiruna",
    "namnd": "Miljö- och byggnämnden",
    "date": "2023-02-02",
    "paragraph": 11,
    "title": "SVAPPAVAARA 14:3>5 strandskyddsdispens nybyggnad-Tälthall",
    "fastighet": "SVAPPAVAARA 14:3",
    "pdf_url": "https://kiruna.se/download/18.2074e628186a1c0c2ec73c0/1678283915110/PROTOKOLL%20MOB%202023-02-02.pdf",
    "filename": "PROTOKOLL MOB 2023-02-02.pdf"
   }
  },
  {
   "type": "Feature",
   "geometry": {
    "type": "Point",
    "coordinates": [
     20.22547900195739,
     67.8354889476953
    ]
   },
   "properties": {
    "kommun": "Kiruna",
    "namnd": "Miljö- och byggnämnden",
    "date": "2023-02-02",
    "paragraph": 13,
    "title": "FÄLTSPATEN 14, Tillsyn - olovlig utschaktning samt olovligt byggande av stenmur MoB-2019-432",
    "fastighet": "FÄLTSPATEN 14",
    "pdf_url": "https://kiruna.se/download/18.2074e628186a1c0c2ec73c0/1678283915110/PROTOKOLL%20MOB%202023-02-02.pdf",
    "filename": "PROTOKOLL MOB 2023-02-02.pdf"
   }
  },
  {
   "type": "Feature",
   "geometry": {
    "type": "Point",
    "coordinates": [
     20.203864044569105,
     67.85105335423599
    ]
   },
   "properties": {
    "kommun": "Kiruna",
    "namnd": "Miljö- och byggnämnden",
    "date": "2023-03-02",
    "paragraph": 25,
    "title": "TUOLLUVAARA 1:13, Bygglov nybyggnad- Enbostadshus",
    "fastighet": "TUOLLUVAARA 1:13",
    "pdf_url": "https://kiruna.se/download/18.2074e628186a1c0c2ec73c1/1678283926313/PROTOKOLL%20MOB%202023-03-02.pdf",
    "filename": "PROTOKOLL MOB 2023-03-02.pdf"
   }
  },
  {
   "type": "Feature",
   "geometry": {
    "type": "Point",
    "coordinates": [
     20.251650194635314,
     67.83792871659273
    ]
   },
   "properties": {
    "kommun": "Kiruna",
    "namnd": "Miljö- och byggnämnden",
    "date": "2023-03-02",
    "paragraph": 26,
    "title": "SVAPPAVAARA 26:10, Förhandsbesked nybyggnad av fritidshus",
    "fastighet": "SVAPPAVAARA 26:10",
    "pdf_url": "https://kiruna.se/download/18.2074e628186a1c0c2ec73c1/1678283926313/PROTOKOLL%20MOB%202023-03-02.pdf",
    "filename": "PROTOKOLL MOB 2023-03-02.pdf"
   }
  },
  {
   "type": "Feature",
   "geometry": {
    "type": "Point",
    "coordinates": [
     20.187466214523777,
     67.83773408862203
    ]
   },
   "properties": {
    "kommun": "Kiruna",
    "namnd": "Miljö- och byggnämnden",
    "date": "2023-03-02",
    "paragraph": 27,
    "title": "KÄLLAREN 2, Bygglov nybyggnad",
    "fastighet": "KÄLLAREN 2",
    "pdf_url": "https://kiruna.se/download/18.2074e628186a1c0c2ec73c1/1678283926313/PROTOKOLL%20MOB%202023-03-02.pdf",
    "filename": "PROTOKOLL MOB 2023-03-02.pdf"
   }
  },
  {
   "type": "Feature",
   "geometry": {
    "type": "Point",
    "coordinates": [
     20.254299004443325,
     67.85978673460222
    ]
   },
   "properties": {
    "kommun": "Kiruna",
    "namnd": "Miljö- och byggnämnden",
    "date": "2023-04-05",
    "paragraph": 40,
    "title": "Uppföljning av Tillsyn enligt Miljöbalken 2022",
    "fastighet": "Miljöbalken 2022",
    "pdf_url": "https://kiruna.se/download/18.6a0e1acc18779705a23757a/1681978293715/PROTOKOLL%20MOB%202023-04-05.pdf",
    "filename": "PROTOKOLL MOB 2023-04-05.pdf"
   }
  },
  {
   "type": "Feature",
   "geometry": {
    "type": "Point",
    "coordinates": [
     20.231420064071457,
     67.85580535265078
    ]
   },
   "properties": {
    "kommun": "Kiruna",
    "namnd": "Miljö- och byggnämnden",
    "date": "2023-04-05",
    "paragraph": 44,
    "title": "SIKEN 10, Bygglov tillbyggnad/ändrad användning- garage till boyta",
    "fastighet": "SIKEN 10",
    "pdf_url": "https://kiruna.se/download/18.6a0e1acc18779705a23757a/1681978293715/PROTOKOLL%20MOB%202023-04-05.pdf",
    "filename": "PROTOKOLL MOB 2023-04-05.pdf"
   }
  },
  {
   "type": "Feature",
   "geometry": {
    "type": "Point",
    "coordinates": [
     20.193799842637873,
     67.86508836811136
    ]
   },
   "properties": {
    "kommun": "Kiruna",
    "namnd": "Miljö- och byggnämnden",
    "date": "2023-04-05",
    "paragraph": 45,
    "title": "SYRSAN 2, Bygglov nybyggnad, garage",
    "fastighet": "SYRSAN 2",
    "pdf_url": "https://kiruna.se/download/18.6a0e1acc18779705a23757a/1681978293715/PROTOKOLL%20MOB%202023-04-05.pdf",
    "filename": "PROTOKOLL MOB 2023-04-05.pdf"
   }
  },
  {
   "type": "Feature",
   "geometry": {
    "type": "Point",
    "coordinates": [
     20.2080680676309,
     67.84760817319922
    ]
   },
   "properties": {
    "kommun": "Kiruna",
    "namnd": "Miljö- och byggnämnden",
    "date": "2023-04-05",
    "paragraph": 46,
    "title": "ABISKO 1:2, Bygglov nybyggnad, UTGÅR! Förrådsbyggnad B-2022-699 Miljö- och byggnämnden tillika räddnings- och trafiknämnd Sida 2(3) 11. PAKSUNIEMI 4:10, Strandskyddsdispens nybyggnad",
    "fastighet": "ABISKO 1:2",
    "pdf_url": "https://kiruna.se/download/18.6a0e1acc18779705a23757a/1681978293715/PROTOKOLL%20MOB%202023-04-05.pdf",
    "filename": "PROTOKOLL MOB 2023-04-05.pdf"
   }
  },
  {
   "type": "Feature",
   "geometry": {
    "type": "Point",
    "coordinates": [
     20.21460176177004,
     67.84102501487358
    ]
   },
   "properties": {
    "kommun": "Kiruna",
    "namnd": "Miljö- och byggnämnden",
    "date": "2023-04-05",
    "paragraph": 47,
    "title": "PAKSUNIEMI 2:71, Bygglov nybyggnad- komplementbyggnad garage, Byggsanktionsavgift",
    "fastighet": "PAKSUNIEMI 2:71",
    "pdf_url": "https://kiruna.se/download/18.6a0e1acc18779705a23757a/1681978293715/PROTOKOLL%20MOB%202023-04-05.pdf",
    "filename": "PROTOKOLL MOB 2023-04-05.pdf"
   }
  },
  {
   "type": "Feature",
   "geometry": {
    "type": "Point",
    "coordinates": [
     20.194724509906266,
     67.86373491486336
    ]
   },
   "properties": {
    "kommun": "Kiruna",
    "namnd": "Miljö- och byggnämnden",
    "date": "2023-05-12",
    "paragraph": 69,
    "title": "Taxa för prövning och tillsyn enligt Miljöbalken 2024",
    "fastighet": "Miljöbalken 2024",
    "pdf_url": "https://kiruna.se/download/18.2d60a2d018851a415d158c2/1685611275991/PROTOKOLL%20MOB%202023-05-12.pdf",
    "filename": "PROTOKOLL MOB 2023-05-12.pdf"
   }
  },
  {
   "type": "Feature",
   "geometry": {
    "type": "Point",
    "coordinates": [
     20.22561877026504,
     67.84400037917203
    ]
   },
   "properties": {
    "kommun": "Kiruna",
    "namnd": "Miljö- och byggnämnden",
    "date": "2023-05-12",
    "paragraph": 74,
    "title": "KUTTAINEN 39:5, Förhandsbesked nybyggnad- Fritidshus",
    "fastighet": "KUTTAINEN 39:5",
    "pdf_url": "https://kiruna.se/download/18.2d60a2d018851a415d158c2/1685611275991/PROTOKOLL%20MOB%202023-05-12.pdf",
    "filename": "PROTOKOLL MOB 2023-05-12.pdf"
   }
  },
  {
   "type": "Feature",
   "geometry": {
    "type": "Point",
    "coordinates": [
     20.2265954351455,
     67.83681799760836
    ]
   },
   "properties": {
    "kommun": "Kiruna",
    "namnd": "Miljö- och byggnämnden",
    "date": "2023-05-12",
    "paragraph": 75,
    "title": "GAVELN 1, Tidsbegränsat bygglov nybyggnad- tälthall",
    "fastighet": "GAVELN 1",
    "pdf_url": "https://kiruna.se/download/18.2d60a2d018851a415d158c2/1685611275991/PROTOKOLL%20MOB%202023-05-12.pdf",
    "filename": "PROTOKOLL MOB 2023-05-12.pdf"
   }
  },
  {
   "type": "Feature",
   "geometry": {
    "type": "Point",
    "coordinates": [
     20.199927081938583,
     67.83665524446876
    ]
   },
   "properties": {
    "kommun": "Kiruna",
    "namnd": "Miljö- och byggnämnden",
    "date": "2023-05-12",
    "paragraph": 76,
    "title": "JUKKASJÄRVI 20:48, Förhandsbesked nybyggnad- fritidshus",
    "fastighet": "JUKKASJÄRVI 20:48",
    "pdf_url": "https://kiruna.se/download/18.2d60a2d018851a415d158c2/1685611275991/PROTOKOLL%20MOB%202023-05-12.pdf",
    "filename": "PROTOKOLL MOB 2023-05-12.pdf"
   }
  },
  {
   "type": "Feature",
   "geometry": {
    "type": "Point",
    "coordinates": [
     20.193198680898753,
     67.85112832697028
    ]
   },
   "properties": {
    "kommun": "Kiruna",
    "namnd": "Miljö- och byggnämnden",
    "date": "2023-05-12",
    "paragraph": 77,
    "title": "KUOKSU 6:23, Strandskyddsdispens nybyggnad",
    "fastighet": "KUOKSU 6:23",
    "pdf_url": "https://kiruna.se/download/18.2d60a2d018851a415d158c2/1685611275991/PROTOKOLL%20MOB%202023-05-12.pdf",
    "filename": "PROTOKOLL MOB 2023-05-12.pdf"
   }
  },
  {
   "type": "Feature",
   "geometry": {
    "type": "Point",
    "coordinates": [
     20.244444294371867,
     67.85491935169557
    ]
   },
   "properties": {
    "kommun": "Kiruna",
    "namnd": "Miljö- och byggnämnden",
    "date": "2023-05-12",
    "paragraph": 78,
    "title": "PARAKKA 4:18, Strandskyddsdispens nybyggnad",
    "fastighet": "PARAKKA 4:18",
    "pdf_url": "https://kiruna.se/download/18.2d60a2d018851a415d158c2/1685611275991/PROTOKOLL%20MOB%202023-05-12.pdf",
    "filename": "PROTOKOLL MOB 2023-05-12.pdf"
   }
  },
  {
   "type": "Feature",
   "geometry": {
    "type": "Point",
    "coordinates": [
     20.18027909234236,
     67.85295786947844
    ]
   },
   "properties": {
    "kommun": "Kiruna",
    "namnd": "Miljö- och byggnämnden",
    "date": "2023-05-12",
    "paragraph": 79,
    "title": "FASADEN 1, Tidsbegränsat bygglov nybyggnad- tillfälliga bostadsmoduler",
    "fastighet": "FASADEN 1",
    "pdf_url": "https://kiruna.se/download/18.2d60a2d018851a415d158c2/1685611275991/PROTOKOLL%20MOB%202023-05-12.pdf",
    "filename": "PROTOKOLL MOB 2023-05-12.pdf"
   }
  },
  {
   "type": "Feature",
   "geometry": {
    "type": "Point",
    "coordinates": [
     20.179811885768203,
     67.84793960131856
    ]
   },
   "properties": {
    "kommun": "Kiruna",
    "namnd": "Miljö- och byggnämnden",
    "date": "2023-05-12",
    "paragraph": 80,
    "title": "JUKKASJÄRVI 17:10, Förhandsbesked nybyggnad- Fritidshus",
    "fastighet": "JUKKASJÄRVI 17:10",
    "pdf_url": "https://kiruna.se/download/18.2d60a2d018851a415d158c2/1685611275991/PROTOKOLL%20MOB%202023-05-12.pdf",
    "filename": "PROTOKOLL MOB 2023-05-12.pdf"
   }
  },
  {
   "type": "Feature",
   "geometry": {
    "type": "Point",
    "coordinates": [
     20.23851879187291,
     67.84596719774699
    ]
   },
   "properties": {
    "kommun": "Kiruna",
    "namnd": "Miljö- och byggnämnden",
    "date": "2023-05-12",
    "paragraph": 81,
    "title": "PAKSUNIEMI 2:122, Ansökan strandskyddsdispens nybyggnad Garage",
    "fastighet": "PAKSUNIEMI 2:122",
    "pdf_url": "https://kiruna.se/download/18.2d60a2d018851a415d158c2/1685611275991/PROTOKOLL%20MOB%202023-05-12.pdf",
    "filename": "PROTOKOLL MOB 2023-05-12.pdf"
   }
  },
  {
   "type": "Feature",
   "geometry": {
    "type": "Point",
    "coordinates": [
     20.19959284937453,
     67.83638767467222
    ]
   },
   "properties": {
    "kommun": "Kiruna",
    "namnd": "Miljö- och byggnämnden",
    "date": "2023-05-12",
    "paragraph": 82,
    "title": "OMFORMAREN 7, Bygglov nybyggnad- industribyggnad",
    "fastighet": "OMFORMAREN 7",
    "pdf_url": "https://kiruna.se/download/18.2d60a2d018851a415d158c2/1685611275991/PROTOKOLL%20MOB%202023-05-12.pdf",
    "filename": "PROTOKOLL MOB 2023-05-12.pdf"
   }
  },
  {
   "type": "Feature",
   "geometry": {
    "type": "Point",
    "coordinates": [
     20.21270199123459,
     67.8527892518424
    ]
   },
   "properties": {
    "kommun": "Kiruna",
    "namnd": "Miljö- och byggnämnden",
    "date": "2023-06-08",
    "paragraph": 107,
    "title": "KURRAVAARA 3:2, Tidsbegränsat bygglov- Turistanläggning",
    "fastighet": "KURRAVAARA 3:2",
    "pdf_url": "https://kiruna.se/download/18.288669f418b0427e6304968/1697196858136/PROTOKOLL%20MOB%202023-06-08%20PUBLICERAD.pdf",
    "filename": "PROTOKOLL MOB 2023-06-08 PUBLICERAD.pdf"
   }
  },
  {
   "type": "Feature",
   "geometry": {
    "type": "Point",
    "coordinates": [
     20.23187159717586,
     67.85202660143513
    ]
   },
   "properties": {
    "kommun": "Kiruna",
    "namnd": "Miljö- och byggnämnden",
    "date": "2023-06-08",
    "paragraph": 108,
    "title": "PAKSUNIEMI S:17, Strandskyddsdispens, nybyggnad-Båthus",
    "fastighet": null,
    "pdf_url": "https://kiruna.se/download/18.288669f418b0427e6304968/1697196858136/PROTOKOLL%20MOB%202023-06-08%20PUBLICERAD.pdf",
    "filename": "PROTOKOLL MOB 2023-06-08 PUBLICERAD.pdf"
   }
  },
  {
   "type": "Feature",
   "geometry": {
    "type": "Point",
    "coordinates": [
     20.223729221682227,
     67.83770090841345
    ]
   },
   "properties": {
    "kommun": "Kiruna",
    "namnd": "Miljö- och byggnämnden",
    "date": "2023-06-08",
    "paragraph": 109,
    "title": "SEVOJOKI 1:1, Bygglov, nybyggnad- Renvaktarstuga",
    "fastighet": "SEVOJOKI 1:1",
    "pdf_url": "https://kiruna.se/download/18.288669f418b0427e6304968/1697196858136/PROTOKOLL%20MOB%202023-06-08%20PUBLICERAD.pdf",
    "filename": "PROTOKOLL MOB 2023-06-08 PUBLICERAD.pdf"
   }
  },
  {
   "type": "Feature",
   "geometry": {
    "type": "Point",
    "coordinates": [
     20.224041274798864,
     67.84822846112898
    ]
   },
   "properties": {
    "kommun": "Kiruna",
    "namnd": "Miljö- och byggnämnden",
    "date": "2023-06-08",
    "paragraph": 110,
    "title": "LOMBOLO 12:5, Bygglov, nybyggnad- Basstation",
    "fastighet": "LOMBOLO 12:5",
    "pdf_url": "https://kiruna.se/download/18.288669f418b0427e6304968/1697196858136/PROTOKOLL%20MOB%202023-06-08%20PUBLICERAD.pdf",
    "filename": "PROTOKOLL MOB 2023-06-08 PUBLICERAD.pdf"
   }
  },
  {
   "type": "Feature",
   "geometry": {
    "type": "Point",
    "coordinates": [
     20.24890627260995,
     67.84345792928718
    ]
   },
   "properties": {
    "kommun": "Kiruna",
    "namnd": "Miljö- och byggnämnden",
    "date": "2023-06-08",
    "paragraph": 111,
    "title": "RIKSGRÄNSEN 1:24, Bygglov, nybyggnad- Drivmedelsstation",
    "fastighet": "RIKSGRÄNSEN 1:24",
    "pdf_url": "https://kiruna.se/download/18.288669f418b0427e6304968/1697196858136/PROTOKOLL%20MOB%202023-06-08%20PUBLICERAD.pdf",
    "filename": "PROTOKOLL MOB 2023-06-08 PUBLICERAD.pdf"
   }
  },
  {
   "type": "Feature",
   "geometry": {
    "type": "Point",
    "coordinates": [
     20.222267076811043,
     67.85855284764295
    ]
   },
   "properties": {
    "kommun": "Kiruna",
    "namnd": "Miljö- och byggnämnden",
    "date": "2023-06-08",
    "paragraph": 112,
    "title": "RIKSGRÄNSEN 1:8, Bygglov, nybyggnad- Tankcistern UTGÅR! B-2023-169 22. LAXFORSEN 4:49, Bygglov, tillbyggnad och fasadändring-Enbostadshus",
    "fastighet": "RIKSGRÄNSEN 1:8",
    "pdf_url": "https://kiruna.se/download/18.288669f418b0427e6304968/1697196858136/PROTOKOLL%20MOB%202023-06-08%20PUBLICERAD.pdf",
    "filename": "PROTOKOLL MOB 2023-06-08 PUBLICERAD.pdf"
   }
  },
  {
   "type": "Feature",
   "geometry": {
    "type": "Point",
    "coordinates": [
     20.24568518044841,
     67.8369731815177
    ]
   },
   "properties": {
    "kommun": "Kiruna",
    "namnd": "Miljö- och byggnämnden",
    "date": "2023-09-21",
    "paragraph": 131,
    "title": "KURRAVAARA 3:19, Strandskyddsdispens nybyggnad",
    "fastighet": "KURRAVAARA 3:19",
    "pdf_url": "https://kiruna.se/download/18.288669f418b0427e630494a/1697196236440/PROTOKOLL%20MOB%202023-09-21%20PUBLICERAD.pdf",
    "filename": "PROTOKOLL MOB 2023-09-21 PUBLICERAD.pdf"
   }
  },
  {
   "type": "Feature",
   "geometry": {
    "type": "Point",
    "coordinates": [
     20.22070707054357,
     67.83470537784146
    ]
   },
   "properties": {
    "kommun": "Kiruna",
    "namnd": "Miljö- och byggnämnden",
    "date": "2023-09-21",
    "paragraph": 132,
    "title": "SEVUJOKI 1:1, Bygglov nybyggnad - renvaktarstuga",
    "fastighet": "SEVUJOKI 1:1",
    "pdf_url": "https://kiruna.se/download/18.288669f418b0427e630494a/1697196236440/PROTOKOLL%20MOB%202023-09-21%20PUBLICERAD.pdf",
    "filename": "PROTOKOLL MOB 2023-09-21 PUBLICERAD.pdf"
   }
  },
  {
   "type": "Feature",
   "geometry": {
    "type": "Point",
    "coordinates": [
     20.22898553925406,
     67.84226386480972
    ]
   },
   "properties": {
    "kommun": "Kiruna",
    "namnd": "Miljö- och byggnämnden",
    "date": "2023-09-21",
    "paragraph": 133,
    "title": "SÄKRINGEN 2, Tidsbegränsat bygglov nybyggnad- Tillfälliga manskapsboenden",
    "fastighet": "SÄKRINGEN 2",
    "pdf_url": "https://kiruna.se/download/18.288669f418b0427e630494a/1697196236440/PROTOKOLL%20MOB%202023-09-21%20PUBLICERAD.pdf",
    "filename": "PROTOKOLL MOB 2023-09-21 PUBLICERAD.pdf"
   }
  },
  {
   "type": "Feature",
   "geometry": {
    "type": "Point",
    "coordinates": [
     20.250606360265124,
     67.85033422280172
    ]
   },
   "properties": {
    "kommun": "Kiruna",
    "namnd": "Miljö- och byggnämnden",
    "date": "2023-09-21",
    "paragraph": 134,
    "title": "KRONOMARKEN 2:1, Strandskyddsdispens tillbyggnad",
    "fastighet": "KRONOMARKEN 2:1",
    "pdf_url": "https://kiruna.se/download/18.288669f418b0427e630494a/1697196236440/PROTOKOLL%20MOB%202023-09-21%20PUBLICERAD.pdf",
    "filename": "PROTOKOLL MOB 2023-09-21 PUBLICERAD.pdf"
   }
  },
  {
   "type": "Feature",
   "geometry": {
    "type": "Point",
    "coordinates": [
     20.176718542469693,
     67.84348563727575
    ]
   },
   "properties": {
    "kommun": "Kiruna",
    "namnd": "Miljö- och byggnämnden",
    "date": "2023-09-21",
    "paragraph": 135,
    "title": "JUKKASJÄRVI S:23, Strandskyddsdispens nybyggnad - Nätbod",
    "fastighet": null,
    "pdf_url": "https://kiruna.se/download/18.288669f418b0427e630494a/1697196236440/PROTOKOLL%20MOB%202023-09-21%20PUBLICERAD.pdf",
    "filename": "PROTOKOLL MOB 2023-09-21 PUBLICERAD.pdf"
   }
  },
  {
   "type": "Feature",
   "geometry": {
    "type": "Point",
    "coordinates": [
     20.214684204081326,
     67.83524703853764
    ]
   },
   "properties": {
    "kommun": "Kiruna",
    "namnd": "Miljö- och byggnämnden",
    "date": "2023-09-21",
    "paragraph": 136,
    "title": "PAKSUNIEMI 2:21, Strandskyddsdispens nybyggnad - Bastutunna",
    "fastighet": "PAKSUNIEMI 2:21",
    "pdf_url": "https://kiruna.se/download/18.288669f418b0427e630494a/1697196236440/PROTOKOLL%20MOB%202023-09-21%20PUBLICERAD.pdf",
    "filename": "PROTOKOLL MOB 2023-09-21 PUBLICERAD.pdf"
   }
  },
  {
   "type": "Feature",
   "geometry": {
    "type": "Point",
    "coordinates": [
     20.1983623042289,
     67.85419001984587
    ]
   },
   "properties": {
    "kommun": "Kiruna",
    "namnd": "Miljö- och byggnämnden",
    "date": "2023-09-21",
    "paragraph": 137,
    "title": "JUKKASJÄRVI 3:2, Strandskyddsdispens nybyggnad- 3st övernattningskåtor samt tillbyggnad av reception, förrådsutrymme, samlingslokal/restaurang",
    "fastighet": "JUKKASJÄRVI 3:2",
    "pdf_url": "https://kiruna.se/download/18.288669f418b0427e630494a/1697196236440/PROTOKOLL%20MOB%202023-09-21%20PUBLICERAD.pdf",
    "filename": "PROTOKOLL MOB 2023-09-21 PUBLICERAD.pdf"
   }
  },
  {
   "type": "Feature",
   "geometry": {
    "type": "Point",
    "coordinates": [
     20.22858359895068,
     67.84913604322142
    ]
   },
   "properties": {
    "kommun": "Kiruna",
    "namnd": "Miljö- och byggnämnden",
    "date": "2023-09-21",
    "paragraph": 138,
    "title": "SOPPERO 83:1, Förhandsbesked nybyggnad- Enbostadshus",
    "fastighet": "SOPPERO 83:1",
    "pdf_url": "https://kiruna.se/download/18.288669f418b0427e630494a/1697196236440/PROTOKOLL%20MOB%202023-09-21%20PUBLICERAD.pdf",
    "filename": "PROTOKOLL MOB 2023-09-21 PUBLICERAD.pdf"
   }
  },
  {
   "type": "Feature",
   "geometry": {
    "type": "Point",
    "coordinates": [
     20.230308584137536,
     67.86132882806822
    ]
   },
   "properties": {
    "kommun": "Kiruna",
    "namnd": "Miljö- och byggnämnden",
    "date": "2023-09-21",
    "paragraph": 139,
    "title": "PAKSUNIEMI 1:47, Strandskyddsdispens- Tillbyggnad till befintligt bostadshus samt komplementbyggnad",
    "fastighet": "PAKSUNIEMI 1:47",
    "pdf_url": "https://kiruna.se/download/18.288669f418b0427e630494a/1697196236440/PROTOKOLL%20MOB%202023-09-21%20PUBLICERAD.pdf",
    "filename": "PROTOKOLL MOB 2023-09-21 PUBLICERAD.pdf"
   }
  },
  {
   "type": "Feature",
   "geometry": {
    "type": "Point",
    "coordinates": [
     20.184696916681272,
     67.86099025716823
    ]
   },
   "properties": {
    "kommun": "Kiruna",
    "namnd": "Miljö- och byggnämnden",
    "date": "2023-09-21",
    "paragraph": 141,
    "title": "PAKSUNIEMI 2:80, Strandskyddsdispens nybyggnad förråd/garage",
    "fastighet": "PAKSUNIEMI 2:80",
    "pdf_url": "https://kiruna.se/download/18.288669f418b0427e630494a/1697196236440/PROTOKOLL%20MOB%202023-09-21%20PUBLICERAD.pdf",
    "filename": "PROTOKOLL MOB 2023-09-21 PUBLICERAD.pdf"
   }
  },
  {
   "type": "Feature",
   "geometry": {
    "type": "Point",
    "coordinates": [
     20.20759880643928,
     67.85715907198323
    ]
   },
   "properties": {
    "kommun": "Kiruna",
    "namnd": "Miljö- och byggnämnden",
    "date": "2023-10-26",
    "paragraph": 162,
    "title": "KURRAVAARA 4:108, Strandskyddsdispens till- och nybyggnad- huvudbyggnad och komplementbyggnader",
    "fastighet": "KURRAVAARA 4:108",
    "pdf_url": "https://kiruna.se/download/18.7cb42c8118bab9add9456f/1699445686039/Protokoll%20MoB%202023-10-26%20PUBLICERAD.pdf",
    "filename": "Protokoll MoB 2023-10-26 PUBLICERAD.pdf"
   }
  },
  {
   "type": "Feature",
   "geometry": {
    "type": "Point",
    "coordinates": [
     20.19380082587625,
     67.84803366592713
    ]
   },
   "properties": {
    "kommun": "Kiruna",
    "namnd": "Miljö- och byggnämnden",
    "date": "2023-10-26",
    "paragraph": 163,
    "title": "JUKKASJÄRVI 1:4, Bygglov nybyggnad en- och tvåbostadshus",
    "fastighet": "JUKKASJÄRVI 1:4",
    "pdf_url": "https://kiruna.se/download/18.7cb42c8118bab9add9456f/1699445686039/Protokoll%20MoB%202023-10-26%20PUBLICERAD.pdf",
    "filename": "Protokoll MoB 2023-10-26 PUBLICERAD.pdf"
   }
  },
  {
   "type": "Feature",
   "geometry": {
    "type": "Point",
    "coordinates": [
     20.213932794517557,
     67.85700678513707
    ]
   },
   "properties": {
    "kommun": "Kiruna",
    "namnd": "Miljö- och byggnämnden",
    "date": "2023-10-26",
    "paragraph": 164,
    "title": "KURRAVAARA 3:2, Tidsbegränsat bygglov- Turistanläggning UTGÅR! B-2023-97 14. Information bygg- och trafik 2023",
    "fastighet": "KURRAVAARA 3:2",
    "pdf_url": "https://kiruna.se/download/18.7cb42c8118bab9add9456f/1699445686039/Protokoll%20MoB%202023-10-26%20PUBLICERAD.pdf",
    "filename": "Protokoll MoB 2023-10-26 PUBLICERAD.pdf"
   }
  },
  {
   "type": "Feature",
   "geometry": {
    "type": "Point",
    "coordinates": [
     20.185380482211716,
     67.84582995768575
    ]
   },
   "properties": {
    "kommun": "Kiruna",
    "namnd": "Miljö- och byggnämnden",
    "date": "2022-06-14",
    "paragraph": 131,
    "title": "KURRAVAARA 3:37, Strandskyddsdispens nybyggnad- Komplementbyggnad",
    "fastighet": "KURRAVAARA 3:37",
    "pdf_url": "https://kiruna.se/download/18.4565dafe1818001cb36406d1/1660556773695/PROTOKOLL%20MOB%202022-06-14%20PUBLICERAD.pdf",
    "filename": "PROTOKOLL MOB 2022-06-14 PUBLICERAD.pdf"
   }
  },
  {
   "type": "Feature",
   "geometry": {
    "type": "Point",
    "coordinates": [
     20.203234810957895,
     67.85127656465474
    ]
   },
   "properties": {
    "kommun": "Kiruna",
    "namnd": "Miljö- och byggnämnden",
    "date": "2022-06-14",
    "paragraph": 133,
    "title": "BALJAN 1, Tidsbegränsat bygglov nybyggnad- Entreprenörsboende",
    "fastighet": "BALJAN 1",
    "pdf_url": "https://kiruna.se/download/18.4565dafe1818001cb36406d1/1660556773695/PROTOKOLL%20MOB%202022-06-14%20PUBLICERAD.pdf",
    "filename": "PROTOKOLL MOB 2022-06-14 PUBLICERAD.pdf"
   }
  },
  {
   "type": "Feature",
   "geometry": {
    "type": "Point",
    "coordinates": [
     20.24479955956687,
     67.8482108453389
    ]
   },
   "properties": {
    "kommun": "Kiruna",
    "namnd": "Miljö- och byggnämnden",
    "date": "2022-06-14",
    "paragraph": 134,
    "title": "ALLMÄNNINGSSKOGEN S:1, Strandskyddsdispens nybyggnad- Övernattningsstuga",
    "fastighet": null,
    "pdf_url": "https://kiruna.se/download/18.4565dafe1818001cb36406d1/1660556773695/PROTOKOLL%20MOB%202022-06-14%20PUBLICERAD.pdf",
    "filename": "PROTOKOLL MOB 2022-06-14 PUBLICERAD.pdf"
   }
  },
  {
   "type": "Feature",
   "geometry": {
    "type": "Point",
    "coordinates": [
     20.215556456075277,
     67.84515206540696
    ]
   },
   "properties": {
    "kommun": "Kiruna",
    "namnd": "Miljö- och byggnämnden",
    "date": "2022-06-14",
    "paragraph": 135,
    "title": "JUKKASJÄRVI 20:25, Strandskyddsdispens nybyggnad- Nätstation",
    "fastighet": "JUKKASJÄRVI 20:25",
    "pdf_url": "https://kiruna.se/download/18.4565dafe1818001cb36406d1/1660556773695/PROTOKOLL%20MOB%202022-06-14%20PUBLICERAD.pdf",
    "filename": "PROTOKOLL MOB 2022-06-14 PUBLICERAD.pdf"
   }
  },
  {
   "type": "Feature",
   "geometry": {
    "type": "Point",
    "coordinates": [
     20.21088857855028,
     67.83583882674358
    ]
   },
   "properties": {
    "kommun": "Kiruna",
    "namnd": "Miljö- och byggnämnden",
    "date": "2022-06-14",
    "paragraph": 136,
    "title": "HAJEN 1, Bygglov ombyggnad av balkonger",
    "fastighet": "HAJEN 1",
    "pdf_url": "https://kiruna.se/download/18.4565dafe1818001cb36406d1/1660556773695/PROTOKOLL%20MOB%202022-06-14%20PUBLICERAD.pdf",
    "filename": "PROTOKOLL MOB 2022-06-14 PUBLICERAD.pdf"
   }
  },
  {
   "type": "Feature",
   "geometry": {
    "type": "Point",
    "coordinates": [
     20.201323226833,
     67.8631812047181
    ]
   },
   "properties": {
    "kommun": "Kiruna",
    "namnd": "Miljö- och byggnämnden",
    "date": "2022-06-14",
    "paragraph": 143,
    "title": "SÄKRINGEN 2, tidsbegränsat bygglov nybyggnad korttidsboende",
    "fastighet": "SÄKRINGEN 2",
    "pdf_url": "https://kiruna.se/download/18.4565dafe1818001cb36406d1/1660556773695/PROTOKOLL%20MOB%202022-06-14%20PUBLICERAD.pdf",
    "filename": "PROTOKOLL MOB 2022-06-14 PUBLICERAD.pdf"
   }
  },
  {
   "type": "Feature",
   "geometry": {
    "type": "Point",
    "coordinates": [
     20.22035960713848,
     67.84995265893224
    ]
   },
   "properties": {
    "kommun": "Kiruna",
    "namnd": "Miljö- och byggnämnden",
    "date": "2019-02-28",
    "paragraph": 39,
    "title": "- Bygglovsavdelningen 1 175 tkr – 350 tkr i sanktionsavgifter samt stora bygglov, bland annat har vi fått in 400 tkr från KB AB, 550 tkr från PEAB och 300 tkr från LKAB",
    "fastighet": "Bygglovsavdelningen 1",
    "pdf_url": "https://kiruna.se/download/18.799ae30c17f44a711ed1bd3b/1647959728675/Protokoll%20MOB%202019-02-28.pdf",
    "filename": "Protokoll MOB 2019-02-28.pdf"
   }
  },
  {
   "type": "Feature",
   "geometry": {
    "type": "Point",
    "coordinates": [
     20.207266975262044,
     67.84035407872337
    ]
   },
   "properties": {
    "kommun": "Kiruna",
    "namnd": "Miljö- och byggnämnden",
    "date": "2019-04-25",
    "paragraph": 121,
    "title": "bygglov tillbyggnad affärsbyggnad 34 Kurravaara 2:21, bygglov nybyggnad enbostadshus 34 2019-",
    "fastighet": "Kurravaara 2:21",
    "pdf_url": "https://kiruna.se/download/18.799ae30c17f44a711ed1bd3d/1647959728719/Protokoll%20MOB%202019-04-25.pdf",
    "filename": "Protokoll MOB 2019-04-25.pdf"
   }
  },
  {
   "type": "Feature",
   "geometry": {
    "type": "Point",
    "coordinates": [
     20.21975604407486,
     67.86590295197115
    ]
   },
   "properties": {
    "kommun": "Kiruna",
    "namnd": "Miljö- och byggnämnden",
    "date": "2019-09-12",
    "paragraph": 206,
    "title": "nybyggnad friggebod 16 Jukkasjärvi Bandel 100:23, lovföreläggande och 16 2018-",
    "fastighet": "Jukkasjärvi Bandel 100:23",
    "pdf_url": "https://kiruna.se/download/18.799ae30c17f44a711ed1bd3e/1647959728764/Protokoll%20MOB%202019-09-12%20PUBLICERAT.pdf",
    "filename": "Protokoll MOB 2019-09-12 PUBLICERAT.pdf"
   }
  },
  {
   "type": "Feature",
   "geometry": {
    "type": "Point",
    "coordinates": [
     20.20821400522854,
     67.85542517388035
    ]
   },
   "properties": {
    "kommun": "Kiruna",
    "namnd": "Miljö- och byggnämnden",
    "date": "2019-09-12",
    "paragraph": 178,
    "title": "19 Kurravaara 3:39/Kurravaara 3:40, bygglov 19 2018-",
    "fastighet": "Kurravaara 3:39",
    "pdf_url": "https://kiruna.se/download/18.799ae30c17f44a711ed1bd3e/1647959728764/Protokoll%20MOB%202019-09-12%20PUBLICERAT.pdf",
    "filename": "Protokoll MOB 2019-09-12 PUBLICERAT.pdf"
   }
  },
  {
   "type": "Feature",
   "geometry": {
    "type": "Point",
    "coordinates": [
     20.223809453437514,
     67.84568425329857
    ]
   },
   "properties": {
    "kommun": "Kiruna",
    "namnd": "Miljö- och byggnämnden",
    "date": "2019-09-12",
    "paragraph": 214,
    "title": "nybyggnad fritidshus 20 Paksuniemi S:18, olovligt byggande samt 20 2018-",
    "fastighet": null,
    "pdf_url": "https://kiruna.se/download/18.799ae30c17f44a711ed1bd3e/1647959728764/Protokoll%20MOB%202019-09-12%20PUBLICERAT.pdf",
    "filename": "Protokoll MOB 2019-09-12 PUBLICERAT.pdf"
   }
  },
  {
   "type": "Feature",
   "geometry": {
    "type": "Point",
    "coordinates": [
     20.235075449428873,
     67.84831496259851
    ]
   },
   "properties": {
    "kommun": "Kiruna",
    "namnd": "Miljö- och byggnämnden",
    "date": "2019-09-12",
    "paragraph": 209,
    "title": "strandskydd MOB 2019-02-",
    "fastighet": "MOB 2019",
    "pdf_url": "https://kiruna.se/download/18.799ae30c17f44a711ed1bd3e/1647959728764/Protokoll%20MOB%202019-09-12%20PUBLICERAT.pdf",
    "filename": "Protokoll MOB 2019-09-12 PUBLICERAT.pdf"
   }
  },
  {
   "type": "Feature",
   "geometry": {
    "type": "Point",
    "coordinates": [
     20.22435798624205,
     67.85432600572119
    ]
   },
   "properties": {
    "kommun": "Kiruna",
    "namnd": "Miljö- och byggnämnden",
    "date": "2019-10-24",
    "paragraph": 233,
    "title": "14 BLÅKLOCKAN 23, tillsyn ovårdad tomt UTGÅR! 14 2019-000232 15 LAXFORSEN 5:1, tidsbegränsat bygglov 15 2019-",
    "fastighet": "BLÅKLOCKAN 23",
    "pdf_url": "https://kiruna.se/download/18.799ae30c17f44a711ed1bd3f/1647959728810/Protokoll%20MOB%202019-10-24%20PUBLICERAT.pdf",
    "filename": "Protokoll MOB 2019-10-24 PUBLICERAT.pdf"
   }
  },
  {
   "type": "Feature",
   "geometry": {
    "type": "Point",
    "coordinates": [
     20.188087074728603,
     67.85109348747459
    ]
   },
   "properties": {
    "kommun": "Kiruna",
    "namnd": "Miljö- och byggnämnden",
    "date": "2018-06-21",
    "paragraph": 157,
    "title": "Den sökta tillbyggnaden av affärsbyggnad i bostadsområde, avviker från detaljplan då den gällande detaljplanen reglerar användning av mark runt huset - på plankartan framgår det att all mark runt byggnaden är prickad mark.",
    "fastighet": null,
    "pdf_url": "https://kiruna.se/download/18.799ae30c17f44a711ed1bd34/1647959717934/Protokoll%20MOB%202018-06-21.pdf",
    "filename": "Protokoll MOB 2018-06-21.pdf"
   }
  },
  {
   "type": "Feature",
   "geometry": {
    "type": "Point",
    "coordinates": [
     20.23108911014189,
     67.83703237316459
    ]
   },
   "properties": {
    "kommun": "Kiruna",
    "namnd": "Miljö- och byggnämnden",
    "date": "2018-09-13",
    "paragraph": 185,
    "title": "- Bygglovsavdelningen 763 tkr – 200 tkr i sanktionsavgifter samt stora bygglov, bland annat har vi fått in 400 tkr från KBAB i år för bygglov samt 300 tkr från PEAB.",
    "fastighet": "Bygglovsavdelningen 763",
    "pdf_url": "https://kiruna.se/download/18.799ae30c17f44a711ed1bd35/1647959717957/Protokoll%20MOB%202018-09-13.pdf",
    "filename": "Protokoll MOB 2018-09-13.pdf"
   }
  },
  {
   "type": "Feature",
   "geometry": {
    "type": "Point",
    "coordinates": [
     20.229667814853364,
     67.85826541855633
    ]
   },
   "properties": {
    "kommun": "Kiruna",
    "namnd": "Miljö- och byggnämnden",
    "date": "2018-11-29",
    "paragraph": 244,
    "title": "Kastanjen 1, Tidsbegränsat bygglov förlängning förskola",
    "fastighet": "Kastanjen 1",
    "pdf_url": "https://kiruna.se/download/18.799ae30c17f44a711ed1bd37/1647959718015/Protokoll%20MOB%202018-11-29.pdf",
    "filename": "Protokoll MOB 2018-11-29.pdf"
   }
  },
  {
   "type": "Feature",
   "geometry": {
    "type": "Point",
    "coordinates": [
     20.20405591348427,
     67.85280739118282
    ]
   },
   "properties": {
    "kommun": "Kiruna",
    "namnd": "Miljö- och byggnämnden",
    "date": "2018-11-29",
    "paragraph": 245,
    "title": "Miljö- och byggnämnden beslutar således att  bevilja förlängning av tidsbegränsa t bygglov fram till 2024-01-02 med stöd av 9 kapitlet 33 § Plan- och bygglagen (2010:900)",
    "fastighet": null,
    "pdf_url": "https://kiruna.se/download/18.799ae30c17f44a711ed1bd37/1647959718015/Protokoll%20MOB%202018-11-29.pdf",
    "filename": "Protokoll MOB 2018-11-29.pdf"
   }
  },
  {
   "type": "Feature",
   "geometry": {
    "type": "Point",
    "coordinates": [
     20.198648849657967,
     67.83430513192312
    ]
   },
   "properties": {
    "kommun": "Kiruna",
    "namnd": "Miljö- och byggnämnden",
    "date": "2018-11-29",
    "paragraph": 247,
    "title": "Ansökan avser förlängning av tidsbegränsat bygglov för moduler avsedda för förskoleverksamhet fram till 2024-01-02 på fastigheten Kastanjen 1. Modulerna har en byggnadsarea av 530 kvadratmeter och en byggnadshöjd på 3 828 millimeter.",
    "fastighet": "Kastanjen 1",
    "pdf_url": "https://kiruna.se/download/18.799ae30c17f44a711ed1bd37/1647959718015/Protokoll%20MOB%202018-11-29.pdf",
    "filename": "Protokoll MOB 2018-11-29.pdf"
   }
  },
  {
   "type": "Feature",
   "geometry": {
    "type": "Point",
    "coordinates": [
     20.179911981235602,
     67.85252729611656
    ]
   },
   "properties": {
    "kommun": "Kiruna",
    "namnd": "Miljö- och byggnämnden",
    "date": "2018-11-29",
    "paragraph": 249,
    "title": "Marken som åtgärden avses att bygga på är i gällande detaljplan betecknad som kryssprickad mark och delvis betecknad som prickad mark.",
    "fastighet": null,
    "pdf_url": "https://kiruna.se/download/18.799ae30c17f44a711ed1bd37/1647959718015/Protokoll%20MOB%202018-11-29.pdf",
    "filename": "Protokoll MOB 2018-11-29.pdf"
   }
  }
 ]
}