{"type":"FeatureCollection","features":[{"type":"Feature","geometry":{"type":"Point","coordinates":[15.621,65.5065]},"properties":{"namn":"Ajaure","bransle":"Vatten","kapacitet_mw":86.0,"driftar":"1967","agare":"100% Vattenfall","kalla":"Vattenfall"}},{"type":"Feature","geometry":{"type":"Point","coordinates":[19.8199,66.6314]},"properties":{"namn":"Akkats","bransle":"Vatten","kapacitet_mw":150.0,"driftar":"1973","agare":"100% Vattenfall","kalla":"Vattenfall"}},{"type":"Feature","geometry":{"type":"Point","coordinates":[16.075,61.3468]},"properties":{"namn":"Alfta (Malvik)","bransle":"Vatten","kapacitet_mw":32.0,"driftar":"1945","agare":"Fortum","kalla":"Fortum Sweden"}},{"type":"Feature","geometry":{"type":"Point","coordinates":[17.442,60.5637]},"properties":{"namn":"Alvkarleby","bransle":"Vatten","kapacitet_mw":116.0,"driftar":"1991","agare":"100% Vattenfall","kalla":"Vattenfall"}},{"type":"Feature","geometry":{"type":"Point","coordinates":[13.5,56.4833]},"properties":{"namn":"Angaback","bransle":"Vatten","kapacitet_mw":7.0,"driftar":"1952","agare":"100% Statkraft","kalla":"Statkraft"}},{"type":"Feature","geometry":{"type":"Point","coordinates":[12.6333,63.6833]},"properties":{"namn":"Anjan","bransle":"Vatten","kapacitet_mw":25.0,"driftar":"1978","agare":"Fortum","kalla":"Fortum Sweden"}},{"type":"Feature","geometry":{"type":"Point","coordinates":[16.5136,59.5883]},"properties":{"namn":"Aros","bransle":"Biomassa","kapacitet_mw":94.0,"driftar":null,"agare":null,"kalla":"MalarEnergi"}},{"type":"Feature","geometry":{"type":"Point","coordinates":[17.2891,64.102]},"properties":{"namn":"Asele","bransle":"Vatten","kapacitet_mw":27.0,"driftar":null,"agare":"100% Vattenfall","kalla":"Vattenfall"}},{"type":"Feature","geometry":{"type":"Point","coordinates":[16.1667,60.15]},"properties":{"namn":"Avesta Lillfors","bransle":"Vatten","kapacitet_mw":22.0,"driftar":"1981","agare":"Fortum","kalla":"Fortum Sweden"}},{"type":"Feature","geometry":{"type":"Point","coordinates":[16.1679,60.1454]},"properties":{"namn":"Avesta Storfors","bransle":"Vatten","kapacitet_mw":15.0,"driftar":null,"agare":"Fortum","kalla":"Fortum Sweden"}},{"type":"Feature","geometry":{"type":"Point","coordinates":[16.1679,60.1454]},"properties":{"namn":"Avestaforsen","bransle":"Vatten","kapacitet_mw":24.0,"driftar":"2007","agare":"Fortum","kalla":"Fortum Sweden"}},{"type":"Feature","geometry":{"type":"Point","coordinates":[13.2833,56.75]},"properties":{"namn":"Bassalt","bransle":"Vatten","kapacitet_mw":8.0,"driftar":"1910","agare":"100% Statkraft","kalla":"Statkraft"}},{"type":"Feature","geometry":{"type":"Point","coordinates":[18.6727,65.4023]},"properties":{"namn":"Bastusel","bransle":"Vatten","kapacitet_mw":107.0,"driftar":"1972","agare":"100% Vattenfall","kalla":"Vattenfall"}},{"type":"Feature","geometry":{"type":"Point","coordinates":[21.1,65.1167]},"properties":{"namn":"Batfors","bransle":"Vatten","kapacitet_mw":42.0,"driftar":null,"agare":"6.6% Statkraft","kalla":"Statkraft"}},{"type":"Feature","geometry":{"type":"Point","coordinates":[17.3875,62.5204]},"properties":{"namn":"Bergeforsen","bransle":"Vatten","kapacitet_mw":166.0,"driftar":"1955","agare":"100% Vattenfall","kalla":"Vattenfall"}},{"type":"Feature","geometry":{"type":"Point","coordinates":[15.2333,64.55]},"properties":{"namn":"Bergvattnet","bransle":"Vatten","kapacitet_mw":21.0,"driftar":"1968","agare":"100% Statkraft","kalla":"Statkraft"}},{"type":"Feature","geometry":{"type":"Point","coordinates":[16.85,61.2667]},"properties":{"namn":"Bergvik","bransle":"Vatten","kapacitet_mw":16.2,"driftar":"1961","agare":"Fortum","kalla":"Fortum Sweden"}},{"type":"Feature","geometry":{"type":"Point","coordinates":[16.1473,63.423]},"properties":{"namn":"Bjorkhojden","bransle":"Vind","kapacitet_mw":288.0,"driftar":null,"agare":"100% Statkraft","kalla":"Statkraft"}},{"type":"Feature","geometry":{"type":"Point","coordinates":[18.55,63.5667]},"properties":{"namn":"Bjorna","bransle":"Vatten","kapacitet_mw":17.0,"driftar":"1986","agare":"90.1% Statkraft","kalla":"Statkraft"}},{"type":"Feature","geometry":{"type":"Point","coordinates":[15.9237,60.065]},"properties":{"namn":"Bjurfors Nedre","bransle":"Vatten","kapacitet_mw":78.0,"driftar":"1959","agare":"100% Statkraft","kalla":"Statkraft"}},{"type":"Feature","geometry":{"type":"Point","coordinates":[15.9237,60.065]},"properties":{"namn":"Bjurfors Ovre","bransle":"Vatten","kapacitet_mw":42.0,"driftar":"1961","agare":"100% Statkraft","kalla":"Statkraft"}},{"type":"Feature","geometry":{"type":"Point","coordinates":[14.1833,61.15]},"properties":{"namn":"Blyberg","bransle":"Vatten","kapacitet_mw":15.0,"driftar":"1967","agare":"Fortum","kalla":"Fortum Sweden"}},{"type":"Feature","geometry":{"type":"Point","coordinates":[21.6716,65.8078]},"properties":{"namn":"Boden","bransle":"Vatten","kapacitet_mw":80.0,"driftar":"1972","agare":"100% Vattenfall","kalla":"Vattenfall"}},{"type":"Feature","geometry":{"type":"Point","coordinates":[18.7153,63.2909]},"properties":{"namn":"Brynge","bransle":"Vatten","kapacitet_mw":5.0,"driftar":"1994","agare":"100% Statkraft","kalla":"Statkraft"}},{"type":"Feature","geometry":{"type":"Point","coordinates":[15.4371,60.4858]},"properties":{"namn":"Bullerforsen","bransle":"Vatten","kapacitet_mw":47.0,"driftar":null,"agare":"Fortum","kalla":"Fortum Sweden"}},{"type":"Feature","geometry":{"type":"Point","coordinates":[13.4667,59.6167]},"properties":{"namn":"Dejefors","bransle":"Vatten","kapacitet_mw":20.0,"driftar":"1906","agare":"Fortum","kalla":"Fortum Sweden"}},{"type":"Feature","geometry":{"type":"Point","coordinates":[15.4371,60.4858]},"properties":{"namn":"Domnarvet","bransle":"Vatten","kapacitet_mw":22.0,"driftar":"1994","agare":"Fortum","kalla":"Fortum Sweden"}},{"type":"Feature","geometry":{"type":"Point","coordinates":[18.25,63.25]},"properties":{"namn":"Dromme","bransle":"Vatten","kapacitet_mw":2.0,"driftar":"1993","agare":"100% Statkraft","kalla":"Statkraft"}},{"type":"Feature","geometry":{"type":"Point","coordinates":[16.4041,61.3956]},"properties":{"namn":"Dönje","bransle":"Vatten","kapacitet_mw":72.0,"driftar":"1953","agare":"Fortum","kalla":"Fortum Sweden"}},{"type":"Feature","geometry":{"type":"Point","coordinates":[14.2246,60.5089]},"properties":{"namn":"Eldforsen","bransle":"Vatten","kapacitet_mw":9.0,"driftar":"1935","agare":"Fortum","kalla":"Fortum Sweden"}},{"type":"Feature","geometry":{"type":"Point","coordinates":[17.0079,58.753]},"properties":{"namn":"Fors","bransle":"Vatten","kapacitet_mw":3.0,"driftar":"1992","agare":"100% Statkraft","kalla":"Statkraft"}},{"type":"Feature","geometry":{"type":"Point","coordinates":[13.4813,59.5254]},"properties":{"namn":"Forshaga","bransle":"Vatten","kapacitet_mw":6.6,"driftar":"1916","agare":"Fortum","kalla":"Fortum Sweden"}},{"type":"Feature","geometry":{"type":"Point","coordinates":[12.4667,60.9667]},"properties":{"namn":"Forshult","bransle":"Vatten","kapacitet_mw":24.0,"driftar":"1911","agare":"Fortum","kalla":"Fortum Sweden"}},{"type":"Feature","geometry":{"type":"Point","coordinates":[15.4371,60.4858]},"properties":{"namn":"Forshuvud","bransle":"Vatten","kapacitet_mw":44.0,"driftar":null,"agare":"Fortum","kalla":"Fortum Sweden"}},{"type":"Feature","geometry":{"type":"Point","coordinates":[18.1744,60.4028]},"properties":{"namn":"Forsmark","bransle":"Kärnkraft","kapacitet_mw":3227.0,"driftar":null,"agare":"65% Vattenfall; E.ON 8.5%; Mellansvensk Kraftgrupp 25.5%","kalla":"Vattenfall"}},{"type":"Feature","geometry":{"type":"Point","coordinates":[17.1987,63.2713]},"properties":{"namn":"Forsmo","bransle":"Vatten","kapacitet_mw":158.0,"driftar":"1948","agare":"100% Vattenfall","kalla":"Vattenfall"}},{"type":"Feature","geometry":{"type":"Point","coordinates":[12.0056,57.4536]},"properties":{"namn":"Froslida","bransle":"Vatten","kapacitet_mw":2.4,"driftar":"1983","agare":"100% Statkraft","kalla":"Statkraft"}},{"type":"Feature","geometry":{"type":"Point","coordinates":[13.3139,59.5072]},"properties":{"namn":"Frykfors","bransle":"Vatten","kapacitet_mw":4.7,"driftar":"1907","agare":"Fortum","kalla":"Fortum Sweden"}},{"type":"Feature","geometry":{"type":"Point","coordinates":[15.1333,61.1667]},"properties":{"namn":"Furudal","bransle":"Vatten","kapacitet_mw":3.7,"driftar":null,"agare":"Fortum","kalla":"Fortum Sweden"}},{"type":"Feature","geometry":{"type":"Point","coordinates":[14.15,64.5]},"properties":{"namn":"Gaddede","bransle":"Vatten","kapacitet_mw":22.0,"driftar":"1974","agare":"100% Statkraft","kalla":"Statkraft"}},{"type":"Feature","geometry":{"type":"Point","coordinates":[19.4644,65.1141]},"properties":{"namn":"Gallejuar","bransle":"Vatten","kapacitet_mw":220.0,"driftar":"1964","agare":"100% Vattenfall","kalla":"Vattenfall"}},{"type":"Feature","geometry":{"type":"Point","coordinates":[16.1611,63.1419]},"properties":{"namn":"Gammelänge","bransle":"Vatten","kapacitet_mw":78.0,"driftar":"1944","agare":"Fortum","kalla":"Fortum Sweden"}},{"type":"Feature","geometry":{"type":"Point","coordinates":[15.8566,65.4763]},"properties":{"namn":"Gardikfors","bransle":"Vatten","kapacitet_mw":60.0,"driftar":"1963","agare":"100% Vattenfall","kalla":"Vattenfall"}},{"type":"Feature","geometry":{"type":"Point","coordinates":[15.1816,65.572]},"properties":{"namn":"Gejman","bransle":"Vatten","kapacitet_mw":66.0,"driftar":"1970","agare":"100% Vattenfall","kalla":"Vattenfall"}},{"type":"Feature","geometry":{"type":"Point","coordinates":[19.05,63.4]},"properties":{"namn":"Gidbole","bransle":"Vatten","kapacitet_mw":12.0,"driftar":"1985","agare":"90.1% Statkraft","kalla":"Statkraft"}},{"type":"Feature","geometry":{"type":"Point","coordinates":[18.6167,63.55]},"properties":{"namn":"Gidea","bransle":"Vatten","kapacitet_mw":17.0,"driftar":"1986","agare":"90.1% Statkraft","kalla":"Statkraft"}},{"type":"Feature","geometry":{"type":"Point","coordinates":[19.1,63.3333]},"properties":{"namn":"Gideabacka","bransle":"Vatten","kapacitet_mw":14.0,"driftar":"1995","agare":"90.1% Statkraft","kalla":"Statkraft"}},{"type":"Feature","geometry":{"type":"Point","coordinates":[12.55,59.55]},"properties":{"namn":"Glava","bransle":"Vatten","kapacitet_mw":16.0,"driftar":"1958","agare":"Fortum","kalla":"Fortum Sweden"}},{"type":"Feature","geometry":{"type":"Point","coordinates":[17.5797,64.9654]},"properties":{"namn":"Grundfors","bransle":"Vatten","kapacitet_mw":108.0,"driftar":"1958","agare":"100% Vattenfall","kalla":"Vattenfall"}},{"type":"Feature","geometry":{"type":"Point","coordinates":[15.0667,60.1667]},"properties":{"namn":"Halvfari","bransle":"Vatten","kapacitet_mw":24.0,"driftar":"1978","agare":"Fortum","kalla":"Fortum Sweden"}},{"type":"Feature","geometry":{"type":"Point","coordinates":[18.5333,60.0167]},"properties":{"namn":"Hammarforsen","bransle":"Vatten","kapacitet_mw":80.0,"driftar":"1928","agare":"100% Statkraft","kalla":"Statkraft"}},{"type":"Feature","geometry":{"type":"Point","coordinates":[19.5619,64.0155]},"properties":{"namn":"Harrsele","bransle":"Vatten","kapacitet_mw":223.0,"driftar":"1957","agare":"51% Statkraft","kalla":"Statkraft"}},{"type":"Feature","geometry":{"type":"Point","coordinates":[19.8186,66.8857]},"properties":{"namn":"Harspranget","bransle":"Vatten","kapacitet_mw":871.0,"driftar":"1919","agare":"100% Vattenfall","kalla":"Vattenfall"}},{"type":"Feature","geometry":{"type":"Point","coordinates":[15.8333,62.55]},"properties":{"namn":"Hermansboda","bransle":"Vatten","kapacitet_mw":12.0,"driftar":"1962","agare":"Fortum","kalla":"Fortum Sweden"}},{"type":"Feature","geometry":{"type":"Point","coordinates":[12.8229,56.9162]},"properties":{"namn":"Hogabjar-Karsas","bransle":"Vind","kapacitet_mw":38.4,"driftar":null,"agare":"50% Vattenfall","kalla":"Vattenfall"}},{"type":"Feature","geometry":{"type":"Point","coordinates":[13.9647,55.8846]},"properties":{"namn":"Hoge Vag","bransle":"Vind","kapacitet_mw":38.0,"driftar":"2015","agare":"50% Vattenfall","kalla":"Vattenfall"}},{"type":"Feature","geometry":{"type":"Point","coordinates":[12.2787,58.2804]},"properties":{"namn":"Hojum","bransle":"Vatten","kapacitet_mw":184.0,"driftar":"1941","agare":"100% Vattenfall","kalla":"Vattenfall"}},{"type":"Feature","geometry":{"type":"Point","coordinates":[16.6681,62.9509]},"properties":{"namn":"Holleforsen","bransle":"Vatten","kapacitet_mw":151.0,"driftar":null,"agare":"100% Vattenfall","kalla":"Vattenfall"}},{"type":"Feature","geometry":{"type":"Point","coordinates":[13.15,61.2833]},"properties":{"namn":"Horrmundsvalla","bransle":"Vatten","kapacitet_mw":6.5,"driftar":"1960","agare":"Fortum","kalla":"Fortum Sweden"}},{"type":"Feature","geometry":{"type":"Point","coordinates":[16.1667,64.1167]},"properties":{"namn":"Hoting","bransle":"Vatten","kapacitet_mw":15.0,"driftar":"1978","agare":"100% Statkraft","kalla":"Statkraft"}},{"type":"Feature","geometry":{"type":"Point","coordinates":[18.5942,59.4589]},"properties":{"namn":"Hummelforsen","bransle":"Vatten","kapacitet_mw":10.7,"driftar":"1955","agare":"Fortum","kalla":"Fortum Sweden"}},{"type":"Feature","geometry":{"type":"Point","coordinates":[12.0056,57.4536]},"properties":{"namn":"Hylte","bransle":"Vatten","kapacitet_mw":26.0,"driftar":"1989","agare":"100% Statkraft","kalla":"Statkraft"}},{"type":"Feature","geometry":{"type":"Point","coordinates":[17.8241,59.3623]},"properties":{"namn":"Hässelby","bransle":"Biomassa","kapacitet_mw":75.0,"driftar":"1959","agare":"Fortum","kalla":"Fortum Sweden"}},{"type":"Feature","geometry":{"type":"Point","coordinates":[12.5432,60.9511]},"properties":{"namn":"Höljes","bransle":"Vatten","kapacitet_mw":127.8,"driftar":"1962","agare":"Fortum","kalla":"Fortum Sweden"}},{"type":"Feature","geometry":{"type":"Point","coordinates":[17.0006,58.743]},"properties":{"namn":"Idbaksverket","bransle":"Biomassa","kapacitet_mw":35.0,"driftar":"1997","agare":"100% Vattenfall","kalla":"Vattenfall"}},{"type":"Feature","geometry":{"type":"Point","coordinates":[17.3063,62.3913]},"properties":{"namn":"Jarkvissle","bransle":"Vatten","kapacitet_mw":96.0,"driftar":"1959","agare":"100% Vattenfall","kalla":"Vattenfall"}},{"type":"Feature","geometry":{"type":"Point","coordinates":[18.1167,59.1497]},"properties":{"namn":"Jordbro","bransle":"Biomassa","kapacitet_mw":20.0,"driftar":"1968","agare":"100% Vattenfall","kalla":"Vattenfall"}},{"type":"Feature","geometry":{"type":"Point","coordinates":[17.1173,65.0959]},"properties":{"namn":"Juktan","bransle":"Vatten","kapacitet_mw":26.0,"driftar":"1978","agare":"100% Vattenfall","kalla":"Vattenfall"}},{"type":"Feature","geometry":{"type":"Point","coordinates":[17.1173,65.0959]},"properties":{"namn":"Juktan Vind","bransle":"Vind","kapacitet_mw":27.0,"driftar":"2014","agare":"50% Vattenfall","kalla":"Vattenfall"}},{"type":"Feature","geometry":{"type":"Point","coordinates":[13.15,63.7167]},"properties":{"namn":"Juveln","bransle":"Vatten","kapacitet_mw":14.0,"driftar":"1978","agare":"Fortum","kalla":"Fortum Sweden"}},{"type":"Feature","geometry":{"type":"Point","coordinates":[14.8325,56.1522]},"properties":{"namn":"Karlshamn","bransle":"Vatten","kapacitet_mw":1020.0,"driftar":null,"agare":null,"kalla":"Uniper Energy"}},{"type":"Feature","geometry":{"type":"Point","coordinates":[13.0437,56.5121]},"properties":{"namn":"Karsefors","bransle":"Vatten","kapacitet_mw":31.4,"driftar":"1930","agare":"100% Statkraft","kalla":"Statkraft"}},{"type":"Feature","geometry":{"type":"Point","coordinates":[16.7629,63.5423]},"properties":{"namn":"Kilforsem","bransle":"Vatten","kapacitet_mw":296.0,"driftar":"1953","agare":"100% Vattenfall","kalla":"Vattenfall"}},{"type":"Feature","geometry":{"type":"Point","coordinates":[13.6833,59.5833]},"properties":{"namn":"Krakerud","bransle":"Vatten","kapacitet_mw":22.0,"driftar":"1921","agare":"Fortum","kalla":"Fortum Sweden"}},{"type":"Feature","geometry":{"type":"Point","coordinates":[14.9004,62.0411]},"properties":{"namn":"Krokströmmen","bransle":"Vatten","kapacitet_mw":103.0,"driftar":"1952","agare":"Fortum","kalla":"Fortum Sweden"}},{"type":"Feature","geometry":{"type":"Point","coordinates":[12.5852,59.6553]},"properties":{"namn":"Kroppstadfors","bransle":"Vatten","kapacitet_mw":3.5,"driftar":"1959","agare":"Fortum","kalla":"Fortum Sweden"}},{"type":"Feature","geometry":{"type":"Point","coordinates":[16.0706,63.1462]},"properties":{"namn":"Krångede","bransle":"Vatten","kapacitet_mw":250.2,"driftar":"1936","agare":"Fortum","kalla":"Fortum Sweden"}},{"type":"Feature","geometry":{"type":"Point","coordinates":[14.55,60.45]},"properties":{"namn":"Kvarnaholm","bransle":"Vatten","kapacitet_mw":5.6,"driftar":"1958","agare":"100% Statkraft","kalla":"Statkraft"}},{"type":"Feature","geometry":{"type":"Point","coordinates":[17.4156,60.5315]},"properties":{"namn":"Kvarnsveden 1","bransle":"Vatten","kapacitet_mw":28.0,"driftar":"1975","agare":"Fortum","kalla":"Fortum Sweden"}},{"type":"Feature","geometry":{"type":"Point","coordinates":[17.4422,60.5638]},"properties":{"namn":"Kvarnsveden 2","bransle":"Vatten","kapacitet_mw":30.0,"driftar":"1996","agare":"Fortum","kalla":"Fortum Sweden"}},{"type":"Feature","geometry":{"type":"Point","coordinates":[20.9528,64.7507]},"properties":{"namn":"Kvistforsen","bransle":"Vatten","kapacitet_mw":140.0,"driftar":"1962","agare":"100% Statkraft","kalla":"Statkraft"}},{"type":"Feature","geometry":{"type":"Point","coordinates":[12.75,59.95]},"properties":{"namn":"Kymmen","bransle":"Vatten","kapacitet_mw":55.0,"driftar":"1987","agare":"Fortum","kalla":"Fortum Sweden"}},{"type":"Feature","geometry":{"type":"Point","coordinates":[15.5167,61.95]},"properties":{"namn":"Laforsen","bransle":"Vatten","kapacitet_mw":57.0,"driftar":"1953","agare":"Fortum","kalla":"Fortum Sweden"}},{"type":"Feature","geometry":{"type":"Point","coordinates":[13.0437,56.5121]},"properties":{"namn":"Laholm","bransle":"Vatten","kapacitet_mw":11.3,"driftar":"1932","agare":"100% Statkraft","kalla":"Statkraft"}},{"type":"Feature","geometry":{"type":"Point","coordinates":[16.6333,61.25]},"properties":{"namn":"Landafors","bransle":"Vatten","kapacitet_mw":11.2,"driftar":"1976","agare":"Fortum","kalla":"Fortum Sweden"}},{"type":"Feature","geometry":{"type":"Point","coordinates":[17.7667,60.55]},"properties":{"namn":"Lanforsen","bransle":"Vatten","kapacitet_mw":44.0,"driftar":null,"agare":"Fortum","kalla":"Fortum Sweden"}},{"type":"Feature","geometry":{"type":"Point","coordinates":[16.7762,63.6366]},"properties":{"namn":"Langbjorn","bransle":"Vatten","kapacitet_mw":98.0,"driftar":"1959","agare":"100% Vattenfall","kalla":"Vattenfall"}},{"type":"Feature","geometry":{"type":"Point","coordinates":[12.3,58.9167]},"properties":{"namn":"Langed","bransle":"Vatten","kapacitet_mw":5.5,"driftar":null,"agare":"100% Vattenfall","kalla":"Vattenfall"}},{"type":"Feature","geometry":{"type":"Point","coordinates":[16.9667,58.4331]},"properties":{"namn":"Lango","bransle":"Vatten","kapacitet_mw":1.0,"driftar":"1956","agare":"100% Statkraft","kalla":"Statkraft"}},{"type":"Feature","geometry":{"type":"Point","coordinates":[16.8289,63.5548]},"properties":{"namn":"Lasele","bransle":"Vatten","kapacitet_mw":165.0,"driftar":null,"agare":"100% Vattenfall","kalla":"Vattenfall"}},{"type":"Feature","geometry":{"type":"Point","coordinates":[20.86,66.2242]},"properties":{"namn":"Laxede","bransle":"Vatten","kapacitet_mw":222.0,"driftar":null,"agare":"100% Vattenfall","kalla":"Vattenfall"}},{"type":"Feature","geometry":{"type":"Point","coordinates":[16.4333,61.3167]},"properties":{"namn":"Lenninge","bransle":"Vatten","kapacitet_mw":2.7,"driftar":"1982","agare":"Fortum","kalla":"Fortum Sweden"}},{"type":"Feature","geometry":{"type":"Point","coordinates":[16.4167,62.5667]},"properties":{"namn":"Leringsforsen","bransle":"Vatten","kapacitet_mw":9.0,"driftar":"1944","agare":"100% Vattenfall","kalla":"Vattenfall"}},{"type":"Feature","geometry":{"type":"Point","coordinates":[20.3797,66.5024]},"properties":{"namn":"Letsi","bransle":"Vatten","kapacitet_mw":486.0,"driftar":"1967","agare":"100% Vattenfall","kalla":"Vattenfall"}},{"type":"Feature","geometry":{"type":"Point","coordinates":[19.8968,66.8094]},"properties":{"namn":"Ligga","bransle":"Vatten","kapacitet_mw":332.0,"driftar":"1957","agare":"100% Vattenfall","kalla":"Vattenfall"}},{"type":"Feature","geometry":{"type":"Point","coordinates":[12.1199,58.1356]},"properties":{"namn":"Lilla Edet","bransle":"Vatten","kapacitet_mw":46.0,"driftar":"1926","agare":"100% Vattenfall","kalla":"Vattenfall"}},{"type":"Feature","geometry":{"type":"Point","coordinates":[12.7833,55.5167]},"properties":{"namn":"Lillgrund","bransle":"Vind","kapacitet_mw":110.0,"driftar":"2007","agare":"100% Vattenfall","kalla":"Vattenfall"}},{"type":"Feature","geometry":{"type":"Point","coordinates":[14.9667,60.5167]},"properties":{"namn":"Lindbyn","bransle":"Vatten","kapacitet_mw":11.0,"driftar":"1953","agare":"Fortum","kalla":"Fortum Sweden"}},{"type":"Feature","geometry":{"type":"Point","coordinates":[16.4,61.4167]},"properties":{"namn":"Lottefors","bransle":"Vatten","kapacitet_mw":13.6,"driftar":"1958","agare":"Fortum","kalla":"Fortum Sweden"}},{"type":"Feature","geometry":{"type":"Point","coordinates":[16.0167,64.8]},"properties":{"namn":"Malgomaj","bransle":"Vatten","kapacitet_mw":10.0,"driftar":"1982","agare":"100% Statkraft","kalla":"Statkraft"}},{"type":"Feature","geometry":{"type":"Point","coordinates":[17.0333,62.35]},"properties":{"namn":"Matfors","bransle":"Vatten","kapacitet_mw":21.0,"driftar":"1982","agare":"100% Statkraft","kalla":"Statkraft"}},{"type":"Feature","geometry":{"type":"Point","coordinates":[20.3359,66.6855]},"properties":{"namn":"Messaure","bransle":"Vatten","kapacitet_mw":463.0,"driftar":"1963","agare":"100% Vattenfall","kalla":"Vattenfall"}},{"type":"Feature","geometry":{"type":"Point","coordinates":[15.2372,63.2395]},"properties":{"namn":"Midskog","bransle":"Vatten","kapacitet_mw":155.0,"driftar":"1944","agare":"100% Vattenfall","kalla":"Vattenfall"}},{"type":"Feature","geometry":{"type":"Point","coordinates":[16.9876,63.3683]},"properties":{"namn":"Moforsen","bransle":"Vatten","kapacitet_mw":135.0,"driftar":null,"agare":null,"kalla":"E.ON"}},{"type":"Feature","geometry":{"type":"Point","coordinates":[15.9471,62.7212]},"properties":{"namn":"Morttjarnberget Winf Farm","bransle":"Vind","kapacitet_mw":85.0,"driftar":null,"agare":"60% Statkraft","kalla":"Statkraft"}},{"type":"Feature","geometry":{"type":"Point","coordinates":[15.0365,58.5371]},"properties":{"namn":"Motala","bransle":"Biomassa","kapacitet_mw":3.7,"driftar":"1998","agare":"100% Vattenfall","kalla":"Vattenfall"}},{"type":"Feature","geometry":{"type":"Point","coordinates":[13.5436,59.8386]},"properties":{"namn":"Munkfors","bransle":"Vatten","kapacitet_mw":33.0,"driftar":"1931","agare":"Fortum","kalla":"Fortum Sweden"}},{"type":"Feature","geometry":{"type":"Point","coordinates":[16.8804,63.4402]},"properties":{"namn":"Namforsen","bransle":"Vatten","kapacitet_mw":115.0,"driftar":"1946","agare":"100% Vattenfall","kalla":"Vattenfall"}},{"type":"Feature","geometry":{"type":"Point","coordinates":[14.4833,60.45]},"properties":{"namn":"Nas","bransle":"Vatten","kapacitet_mw":24.0,"driftar":"1978","agare":"100% Vattenfall","kalla":"Vattenfall"}},{"type":"Feature","geometry":{"type":"Point","coordinates":[18.25,57.1]},"properties":{"namn":"Nasudden","bransle":"Vind","kapacitet_mw":10.2,"driftar":"1983","agare":"100% Vattenfall","kalla":"Vattenfall"}},{"type":"Feature","geometry":{"type":"Point","coordinates":[15.3219,63.2207]},"properties":{"namn":"Naverede","bransle":"Vatten","kapacitet_mw":70.0,"driftar":"1955","agare":"100% Vattenfall","kalla":"Vattenfall"}},{"type":"Feature","geometry":{"type":"Point","coordinates":[16.4833,62.4333]},"properties":{"namn":"Nederede","bransle":"Vatten","kapacitet_mw":16.0,"driftar":null,"agare":"100% Statkraft","kalla":"Statkraft"}},{"type":"Feature","geometry":{"type":"Point","coordinates":[14.8333,61.5]},"properties":{"namn":"Noppikoski","bransle":"Vatten","kapacitet_mw":10.0,"driftar":"1967","agare":"Fortum","kalla":"Fortum Sweden"}},{"type":"Feature","geometry":{"type":"Point","coordinates":[12.3167,59.7667]},"properties":{"namn":"Noreborg","bransle":"Vatten","kapacitet_mw":3.0,"driftar":"1958","agare":"Fortum","kalla":"Fortum Sweden"}},{"type":"Feature","geometry":{"type":"Point","coordinates":[13.0404,55.6261]},"properties":{"namn":"Nya Öresundsverket","bransle":"Gas","kapacitet_mw":440.0,"driftar":null,"agare":null,"kalla":"E.ON"}},{"type":"Feature","geometry":{"type":"Point","coordinates":[13.0667,56.9333]},"properties":{"namn":"Nyebro","bransle":"Vatten","kapacitet_mw":1.4,"driftar":"1983","agare":"100% Statkraft","kalla":"Statkraft"}},{"type":"Feature","geometry":{"type":"Point","coordinates":[12.2727,58.275]},"properties":{"namn":"Olidan","bransle":"Vatten","kapacitet_mw":104.0,"driftar":"1910","agare":"100% Vattenfall","kalla":"Vattenfall"}},{"type":"Feature","geometry":{"type":"Point","coordinates":[16.6683,57.413]},"properties":{"namn":"Oskarshamn","bransle":"Kärnkraft","kapacitet_mw":2603.0,"driftar":null,"agare":null,"kalla":"IAEA"}},{"type":"Feature","geometry":{"type":"Point","coordinates":[17.5333,66.7667]},"properties":{"namn":"Parki","bransle":"Vatten","kapacitet_mw":19.0,"driftar":null,"agare":"100% Vattenfall","kalla":"Vattenfall"}},{"type":"Feature","geometry":{"type":"Point","coordinates":[15.7833,62.5167]},"properties":{"namn":"Parteboda","bransle":"Vatten","kapacitet_mw":35.0,"driftar":"1960","agare":"Fortum","kalla":"Fortum Sweden"}},{"type":"Feature","geometry":{"type":"Point","coordinates":[19.6661,63.9304]},"properties":{"namn":"Pengfors","bransle":"Vatten","kapacitet_mw":69.0,"driftar":"1954","agare":"100% Vattenfall","kalla":"Vattenfall"}},{"type":"Feature","geometry":{"type":"Point","coordinates":[19.8023,66.959]},"properties":{"namn":"Porjus","bransle":"Vatten","kapacitet_mw":430.0,"driftar":"1975","agare":"100% Vattenfall","kalla":"Vattenfall"}},{"type":"Feature","geometry":{"type":"Point","coordinates":[20.6518,66.4288]},"properties":{"namn":"Porsi","bransle":"Vatten","kapacitet_mw":282.0,"driftar":"1967","agare":"100% Vattenfall","kalla":"Vattenfall"}},{"type":"Feature","geometry":{"type":"Point","coordinates":[12.1087,57.2574]},"properties":{"namn":"Ringhals","bransle":"Kärnkraft","kapacitet_mw":3932.0,"driftar":null,"agare":"70.4% Vattenfall; 29.6% Karnkraft Sverige","kalla":"Vattenfall"}},{"type":"Feature","geometry":{"type":"Point","coordinates":[17.49,67.732]},"properties":{"namn":"Ritsem","bransle":"Vatten","kapacitet_mw":304.0,"driftar":"1977","agare":"100% Vattenfall","kalla":"Vattenfall"}},{"type":"Feature","geometry":{"type":"Point","coordinates":[14.9,57.0167]},"properties":{"namn":"Rottnen","bransle":"Vatten","kapacitet_mw":17.0,"driftar":"1998","agare":"Fortum","kalla":"Fortum Sweden"}},{"type":"Feature","geometry":{"type":"Point","coordinates":[18.2534,64.7129]},"properties":{"namn":"Rusfors","bransle":"Vatten","kapacitet_mw":45.0,"driftar":"1962","agare":"100% Vattenfall","kalla":"Vattenfall"}},{"type":"Feature","geometry":{"type":"Point","coordinates":[11.8905,57.6924]},"properties":{"namn":"Rya","bransle":"Gas","kapacitet_mw":261.0,"driftar":null,"agare":null,"kalla":"Goteborg Energi"}},{"type":"Feature","geometry":{"type":"Point","coordinates":[18.5748,66.9764]},"properties":{"namn":"Seitevare","bransle":"Vatten","kapacitet_mw":214.0,"driftar":null,"agare":"100% Vattenfall","kalla":"Vattenfall"}},{"type":"Feature","geometry":{"type":"Point","coordinates":[20.3167,64.2167]},"properties":{"namn":"Selsfors","bransle":"Vatten","kapacitet_mw":61.0,"driftar":"1944","agare":"10.6% Statkraft","kalla":"Statkraft"}},{"type":"Feature","geometry":{"type":"Point","coordinates":[17.3063,62.3913]},"properties":{"namn":"Sillre","bransle":"Vatten","kapacitet_mw":11.0,"driftar":"1987","agare":"100% Vattenfall","kalla":"Vattenfall"}},{"type":"Feature","geometry":{"type":"Point","coordinates":[16.9667,62.3667]},"properties":{"namn":"Skallbole","bransle":"Vatten","kapacitet_mw":46.0,"driftar":null,"agare":"100% Statkraft","kalla":"Statkraft"}},{"type":"Feature","geometry":{"type":"Point","coordinates":[15.8,60.4]},"properties":{"namn":"Skedvi","bransle":"Vatten","kapacitet_mw":38.0,"driftar":"1949","agare":"Fortum","kalla":"Fortum Sweden"}},{"type":"Feature","geometry":{"type":"Point","coordinates":[13.4667,60.0667]},"properties":{"namn":"Skoga","bransle":"Vatten","kapacitet_mw":13.6,"driftar":"1943","agare":"Fortum","kalla":"Fortum Sweden"}},{"type":"Feature","geometry":{"type":"Point","coordinates":[13.1833,56.5333]},"properties":{"namn":"Skogaby","bransle":"Vatten","kapacitet_mw":12.5,"driftar":"1922","agare":"100% Statkraft","kalla":"Statkraft"}},{"type":"Feature","geometry":{"type":"Point","coordinates":[17.2333,60.3833]},"properties":{"namn":"Soderfors","bransle":"Vatten","kapacitet_mw":20.0,"driftar":"1979","agare":"100% Vattenfall","kalla":"Vattenfall"}},{"type":"Feature","geometry":{"type":"Point","coordinates":[14.3167,61.0831]},"properties":{"namn":"Spjutmo","bransle":"Vatten","kapacitet_mw":35.0,"driftar":"1969","agare":"Fortum","kalla":"Fortum Sweden"}},{"type":"Feature","geometry":{"type":"Point","coordinates":[16.6584,62.9764]},"properties":{"namn":"Stadsforsen","bransle":"Vatten","kapacitet_mw":142.0,"driftar":"1939","agare":"100% Vattenfall","kalla":"Vattenfall"}},{"type":"Feature","geometry":{"type":"Point","coordinates":[16.8273,64.947]},"properties":{"namn":"Stalon","bransle":"Vatten","kapacitet_mw":130.0,"driftar":"1961","agare":"100% Vattenfall","kalla":"Vattenfall"}},{"type":"Feature","geometry":{"type":"Point","coordinates":[17.2427,64.2861]},"properties":{"namn":"Stenkullafors","bransle":"Vatten","kapacitet_mw":57.0,"driftar":null,"agare":"100% Vattenfall","kalla":"Vattenfall"}},{"type":"Feature","geometry":{"type":"Point","coordinates":[17.2328,65.0521]},"properties":{"namn":"Stensele","bransle":"Vatten","kapacitet_mw":54.0,"driftar":"1960","agare":"100% Vattenfall","kalla":"Vattenfall"}},{"type":"Feature","geometry":{"type":"Point","coordinates":[11.8435,58.0863]},"properties":{"namn":"Stenungsund","bransle":"Olja","kapacitet_mw":840.0,"driftar":null,"agare":null,"kalla":"Nord Pool"}},{"type":"Feature","geometry":{"type":"Point","coordinates":[18.3117,64.2307]},"properties":{"namn":"Stor-Rotliden","bransle":"Vind","kapacitet_mw":78.0,"driftar":"2011","agare":"100% Vattenfall","kalla":"Vattenfall"}},{"type":"Feature","geometry":{"type":"Point","coordinates":[16.1218,63.5985]},"properties":{"namn":"Storfinnforsen","bransle":"Vatten","kapacitet_mw":112.0,"driftar":null,"agare":null,"kalla":"E.ON"}},{"type":"Feature","geometry":{"type":"Point","coordinates":[20.0184,63.8803]},"properties":{"namn":"Stornorrfors","bransle":"Vatten","kapacitet_mw":599.0,"driftar":"1958","agare":"75% Vattenfall","kalla":"Vattenfall"}},{"type":"Feature","geometry":{"type":"Point","coordinates":[15.6245,63.1625]},"properties":{"namn":"Stugun","bransle":"Vatten","kapacitet_mw":47.0,"driftar":"1956","agare":"100% Vattenfall","kalla":"Vattenfall"}},{"type":"Feature","geometry":{"type":"Point","coordinates":[16.5716,63.0287]},"properties":{"namn":"Svarthålsforsen","bransle":"Vatten","kapacitet_mw":80.0,"driftar":"1954","agare":"Fortum","kalla":"Fortum Sweden"}},{"type":"Feature","geometry":{"type":"Point","coordinates":[14.284,62.0272]},"properties":{"namn":"Sveg","bransle":"Vatten","kapacitet_mw":36.0,"driftar":"1975","agare":"Fortum","kalla":"Fortum Sweden"}},{"type":"Feature","geometry":{"type":"Point","coordinates":[15.9,64.2167]},"properties":{"namn":"Tasjo","bransle":"Vatten","kapacitet_mw":14.0,"driftar":"1978","agare":"100% Statkraft","kalla":"Statkraft"}},{"type":"Feature","geometry":{"type":"Point","coordinates":[13.5833,56.4833]},"properties":{"namn":"Timsfors","bransle":"Vatten","kapacitet_mw":2.8,"driftar":"1926","agare":"100% Statkraft","kalla":"Statkraft"}},{"type":"Feature","geometry":{"type":"Point","coordinates":[16.4952,62.4165]},"properties":{"namn":"Torpshammar","bransle":"Vatten","kapacitet_mw":119.0,"driftar":"1943","agare":"100% Vattenfall","kalla":"Vattenfall"}},{"type":"Feature","geometry":{"type":"Point","coordinates":[13.7312,61.3811]},"properties":{"namn":"Trängslet","bransle":"Vatten","kapacitet_mw":300.0,"driftar":null,"agare":"Fortum","kalla":"Fortum Sweden"}},{"type":"Feature","geometry":{"type":"Point","coordinates":[18.8815,64.4735]},"properties":{"namn":"Tuggen","bransle":"Vatten","kapacitet_mw":118.0,"driftar":"1962","agare":"100% Vattenfall","kalla":"Vattenfall"}},{"type":"Feature","geometry":{"type":"Point","coordinates":[17.63,65.9652]},"properties":{"namn":"Uljabuouda","bransle":"Vind","kapacitet_mw":12.0,"driftar":null,"agare":null,"kalla":"Skelleftå Kraft"}},{"type":"Feature","geometry":{"type":"Point","coordinates":[17.1173,65.0959]},"properties":{"namn":"Umluspen","bransle":"Vatten","kapacitet_mw":100.0,"driftar":"1957","agare":"100% Vattenfall","kalla":"Vattenfall"}},{"type":"Feature","geometry":{"type":"Point","coordinates":[17.3,60.4167]},"properties":{"namn":"Untra","bransle":"Vatten","kapacitet_mw":43.0,"driftar":"1918","agare":"Fortum","kalla":"Fortum Sweden"}},{"type":"Feature","geometry":{"type":"Point","coordinates":[17.6783,59.8514]},"properties":{"namn":"Uppsala","bransle":"Biomassa","kapacitet_mw":130.0,"driftar":null,"agare":null,"kalla":"Vattenfall"}},{"type":"Feature","geometry":{"type":"Point","coordinates":[16.2667,56.35]},"properties":{"namn":"Utgrunden","bransle":"Vind","kapacitet_mw":10.5,"driftar":"2006","agare":"100% Vattenfall","kalla":"Vattenfall"}},{"type":"Feature","geometry":{"type":"Point","coordinates":[16.5135,59.5885]},"properties":{"namn":"Vaesteras power station","bransle":"Kol","kapacitet_mw":80.0,"driftar":"1963","agare":"Mälarenergi","kalla":"GCPT"}},{"type":"Feature","geometry":{"type":"Point","coordinates":[19.6856,65.0193]},"properties":{"namn":"Vargfors","bransle":"Vatten","kapacitet_mw":134.0,"driftar":"1961","agare":"100% Vattenfall","kalla":"Vattenfall"}},{"type":"Feature","geometry":{"type":"Point","coordinates":[12.3729,58.3557]},"properties":{"namn":"Vargon","bransle":"Vatten","kapacitet_mw":35.0,"driftar":"1937","agare":"100% Vattenfall","kalla":"Vattenfall"}},{"type":"Feature","geometry":{"type":"Point","coordinates":[18.101,59.352]},"properties":{"namn":"Vartan","bransle":"Biomassa","kapacitet_mw":130.0,"driftar":null,"agare":null,"kalla":"Fortum Sweden"}},{"type":"Feature","geometry":{"type":"Point","coordinates":[18.3549,67.4931]},"properties":{"namn":"Vietas","bransle":"Vatten","kapacitet_mw":325.0,"driftar":null,"agare":"100% Vattenfall","kalla":"Vattenfall"}},{"type":"Feature","geometry":{"type":"Point","coordinates":[17.1667,62.3]},"properties":{"namn":"Viforsen","bransle":"Vatten","kapacitet_mw":10.0,"driftar":"1982","agare":"100% Statkraft","kalla":"Statkraft"}},{"type":"Feature","geometry":{"type":"Point","coordinates":[21.5545,65.8453]},"properties":{"namn":"Vittjarv","bransle":"Vatten","kapacitet_mw":33.0,"driftar":null,"agare":"100% Vattenfall","kalla":"Vattenfall"}},{"type":"Feature","geometry":{"type":"Point","coordinates":[16.75,64.55]},"properties":{"namn":"Volgsjofors","bransle":"Vatten","kapacitet_mw":20.0,"driftar":"1980","agare":"100% Statkraft","kalla":"Statkraft"}},{"type":"Feature","geometry":{"type":"Point","coordinates":[18.0985,59.3532]},"properties":{"namn":"Värme","bransle":"Gas","kapacitet_mw":639.0,"driftar":"1980","agare":"Fortum","kalla":"Fortum Sweden"}},{"type":"Feature","geometry":{"type":"Point","coordinates":[18.0985,59.3532]},"properties":{"namn":"​Värtaverket","bransle":"Biomassa","kapacitet_mw":389.0,"driftar":"2013","agare":"Fortum","kalla":"Fortum Sweden"}}]}