{
 "type": "FeatureCollection",
 "features": [
  {
   "type": "Feature",
   "geometry": {
    "type": "Point",
    "coordinates": [
     20.664562011955812,
     67.13666318732193
    ]
   },
   "properties": {
    "kommun": "Gällivare",
    "namnd": "Miljö-, bygg- och räddningsnämnden",
    "date": "2024-04-23",
    "paragraph": 58,
    "title": "Taxa Tillsyn-tillstånd LSO-LBE 2025",
    "fastighet": "LBE 2025",
    "pdf_url": "https://gallivare.se/download/18.6cd128cd18f37b8038162f0c/1715607264241/Milj%C3%B6-,%20bygg-%20och%20r%C3%A4ddningsn%C3%A4mndens%20protokoll%202024-04-23%20GDPR.pdf",
    "filename": "Miljö-, bygg- och räddningsnämndens protokoll 2024-04-23 GDPR.pdf"
   }
  },
  {
   "type": "Feature",
   "geometry": {
    "type": "Point",
    "coordinates": [
     20.660482291042815,
     67.14526255423664
    ]
   },
   "properties": {
    "kommun": "Gällivare",
    "namnd": "Miljö-, bygg- och räddningsnämnden",
    "date": "2024-04-23",
    "paragraph": 59,
    "title": "Taxa plan- och bygglov 2025",
    "fastighet": null,
    "pdf_url": "https://gallivare.se/download/18.6cd128cd18f37b8038162f0c/1715607264241/Milj%C3%B6-,%20bygg-%20och%20r%C3%A4ddningsn%C3%A4mndens%20protokoll%202024-04-23%20GDPR.pdf",
    "filename": "Miljö-, bygg- och räddningsnämndens protokoll 2024-04-23 GDPR.pdf"
   }
  },
  {
   "type": "Feature",
   "geometry": {
    "type": "Point",
    "coordinates": [
     20.686820891611585,
     67.13475150380113
    ]
   },
   "properties": {
    "kommun": "Gällivare",
    "namnd": "Miljö-, bygg- och räddningsnämnden",
    "date": "2024-04-23",
    "paragraph": 68,
    "title": "Samråd detaljplan för Björkmansheden fastighet",
    "fastighet": null,
    "pdf_url": "https://gallivare.se/download/18.6cd128cd18f37b8038162f0c/1715607264241/Milj%C3%B6-,%20bygg-%20och%20r%C3%A4ddningsn%C3%A4mndens%20protokoll%202024-04-23%20GDPR.pdf",
    "filename": "Miljö-, bygg- och räddningsnämndens protokoll 2024-04-23 GDPR.pdf"
   }
  },
  {
   "type": "Feature",
   "geometry": {
    "type": "Point",
    "coordinates": [
     20.644071747822853,
     67.11963398657247
    ]
   },
   "properties": {
    "kommun": "Gällivare",
    "namnd": "Miljö-, bygg- och räddningsnämnden",
    "date": "2024-04-23",
    "paragraph": 71,
    "title": "Ansökan om bygglov för nybyggnad av garage",
    "fastighet": null,
    "pdf_url": "https://gallivare.se/download/18.6cd128cd18f37b8038162f0c/1715607264241/Milj%C3%B6-,%20bygg-%20och%20r%C3%A4ddningsn%C3%A4mndens%20protokoll%202024-04-23%20GDPR.pdf",
    "filename": "Miljö-, bygg- och räddningsnämndens protokoll 2024-04-23 GDPR.pdf"
   }
  },
  {
   "type": "Feature",
   "geometry": {
    "type": "Point",
    "coordinates": [
     20.666429904560033,
     67.13077077434919
    ]
   },
   "properties": {
    "kommun": "Gällivare",
    "namnd": "Miljö-, bygg- och räddningsnämnden",
    "date": "2024-04-23",
    "paragraph": 72,
    "title": "Bygglov fritidshus",
    "fastighet": null,
    "pdf_url": "https://gallivare.se/download/18.6cd128cd18f37b8038162f0c/1715607264241/Milj%C3%B6-,%20bygg-%20och%20r%C3%A4ddningsn%C3%A4mndens%20protokoll%202024-04-23%20GDPR.pdf",
    "filename": "Miljö-, bygg- och räddningsnämndens protokoll 2024-04-23 GDPR.pdf"
   }
  },
  {
   "type": "Feature",
   "geometry": {
    "type": "Point",
    "coordinates": [
     20.659060259889156,
     67.13422119945358
    ]
   },
   "properties": {
    "kommun": "Gällivare",
    "namnd": "Miljö-, bygg- och räddningsnämnden",
    "date": "2024-04-23",
    "paragraph": 74,
    "title": "Ansökan om förhandsbesked för nybyggnad av enbostadshus",
    "fastighet": null,
    "pdf_url": "https://gallivare.se/download/18.6cd128cd18f37b8038162f0c/1715607264241/Milj%C3%B6-,%20bygg-%20och%20r%C3%A4ddningsn%C3%A4mndens%20protokoll%202024-04-23%20GDPR.pdf",
    "filename": "Miljö-, bygg- och räddningsnämndens protokoll 2024-04-23 GDPR.pdf"
   }
  },
  {
   "type": "Feature",
   "geometry": {
    "type": "Point",
    "coordinates": [
     20.664008583000157,
     67.14613891674118
    ]
   },
   "properties": {
    "kommun": "Gällivare",
    "namnd": "Miljö-, bygg- och räddningsnämnden",
    "date": "2024-04-23",
    "paragraph": 45,
    "title": "Godkännande av dagordningen Miljö-, bygg- och räddningsnämnds beslutar att lägga till ärende uppföljning tillsyn till dagordningen, samt att i övrigt godkänna dagordningen. Ärendebeskrivning Ordförande ställer fråga om dagordningen kan godkännas Förslag till beslut att lägga till ärende uppföljning tillsyn till dagordningen, samt att i övrigt godkänna dagordningen. Miljö-, bygg- och räddningsnämnd SAMMANTRÄDESPROTOKOLL Sida 5(82) Sammanträdesdatum 2024-04-23 usterandes signatur Utdragsbestyrkande",
    "fastighet": "SAMMANTRÄDESPROTOKOLL Sida 5",
    "pdf_url": "https://gallivare.se/download/18.6cd128cd18f37b8038162f0c/1715607264241/Milj%C3%B6-,%20bygg-%20och%20r%C3%A4ddningsn%C3%A4mndens%20protokoll%202024-04-23%20GDPR.pdf",
    "filename": "Miljö-, bygg- och räddningsnämndens protokoll 2024-04-23 GDPR.pdf"
   }
  },
  {
   "type": "Feature",
   "geometry": {
    "type": "Point",
    "coordinates": [
     20.676864029147996,
     67.13717019881398
    ]
   },
   "properties": {
    "kommun": "Gällivare",
    "namnd": "Miljö-, bygg- och räddningsnämnden",
    "date": "2024-04-23",
    "paragraph": 48,
    "title": "Uppföljning internkontrollplan 2023 Dnr MBR/2024-00038 Miljö-, bygg- och räddningsnämnds beslutar Miljö-, bygg- och räddningsförvaltningen föreslår kommunstyrelsen besluta att godkänna uppföljning av miljö-, bygg- och räddningsnämndens internkontrollplan för år 2023. Ärendebeskrivning För att säkerställa att kommunens skyldigheter uppfylls enligt lag och för att genomföra sitt uppdrag på ett ansvarsfullt sätt, måste kommunen utföra internkontroll på ett ordnat och systematiskt vis. För år 2023 har kommunstyrelsen, samt miljö-, bygg- och räddningsnämnden, etablerat en plan för internkontroll. Denna plan omfattar uppföljning och efterlevnad av målstyrningsarbetet, Gällivare kommuns dokumentsamling, ekonomi, nämndens ärenden, tillsyn av revisionsrapporter, reglementen, statsbidrag, etik, korruption och oegentligheter, hemsidans kvalitet, riskbedömning i verksamheten, rekrytering och kompetensförsörjning samt barnkonventionen. Uppföljning av internkontroll omfattar 1 januari till 31 december år 2023. Förslag till beslut Miljö-, bygg- och räddningsförvaltningen föreslår kommunstyrelsen besluta att godkänna uppföljning av miljö-, bygg- och räddningsnämndens internkontrollplan för år 2023. Beslutsunderlag 1. Uppföljning av miljö-, bygg- och räddningsnämndens internkontrollplan 2023. Miljö-, bygg- och räddningsnämnd SAMMANTRÄDESPROTOKOLL Sida 8(82) Sammanträdesdatum 2024-04-23 usterandes signatur Utdragsbestyrkande",
    "fastighet": "Uppföljning internkontrollplan 2023",
    "pdf_url": "https://gallivare.se/download/18.6cd128cd18f37b8038162f0c/1715607264241/Milj%C3%B6-,%20bygg-%20och%20r%C3%A4ddningsn%C3%A4mndens%20protokoll%202024-04-23%20GDPR.pdf",
    "filename": "Miljö-, bygg- och räddningsnämndens protokoll 2024-04-23 GDPR.pdf"
   }
  },
  {
   "type": "Feature",
   "geometry": {
    "type": "Point",
    "coordinates": [
     20.676444484180383,
     67.14238263978868
    ]
   },
   "properties": {
    "kommun": "Gällivare",
    "namnd": "Miljö-, bygg- och räddningsnämnden",
    "date": "2024-04-23",
    "paragraph": 51,
    "title": "Uppföljning av handläggningstider byggavdelningen fastighet Dnr MBR/2024-00039 Miljö-, bygg- och räddningsnämnds beslutar Miljö-, bygg- och räddningsförvaltningen föreslår miljö-, bygg- och räddningsnämnden besluta att tacka för information och lägga ärendet till handlingarna. Ärendebeskrivning I miljö-, bygg- och räddningsnämndens internkontrollplan har det tagits ett politiskt beslut att lägga in uppföljning av handläggningstider. Förnärvarande finns det bara förutsättningar att följa upp handläggningstider för byggavdelningen. Förvaltningen arbetar med att hitta lösningar för att även miljö-, och räddningsavdelningarna ska kunna göra detsamma. Enligt plan- och bygglagen 9 kap. 27 § ska beslut i ärenden om lov eller förhandsbesked tas inom tio veckor. Tiden får förlängas en gång med högst tio veckor. I anmälningsärenden ska beslut om startbesked tas inom fyra veckor. Tiden får förlängas en gång med högst fyra veckor. Analys - Byggavdelningen 12 månader löpande (2024-04-10) Handläggningstid nuläge: Medel Start – beslut: 64 dagar Medel Komplett – beslut: 26 dagar Median Start – beslut: 56 dagar Median Komplett – beslut: 15 dagar PBL-tillstånd givna inom tidsfrist: Vi hanterar 92% av loven inom tidsfristen om 10 veckor Vi hanterar 95% av anmälningsärendena inom tidsfristen om 4 veckor. Kommentar: Medel- och mediantiden (netto handläggningstid) fram till beslut för handläggningen av kompletta ärenden måste anses vara",
    "fastighet": "Byggavdelningen 12",
    "pdf_url": "https://gallivare.se/download/18.6cd128cd18f37b8038162f0c/1715607264241/Milj%C3%B6-,%20bygg-%20och%20r%C3%A4ddningsn%C3%A4mndens%20protokoll%202024-04-23%20GDPR.pdf",
    "filename": "Miljö-, bygg- och räddningsnämndens protokoll 2024-04-23 GDPR.pdf"
   }
  },
  {
   "type": "Feature",
   "geometry": {
    "type": "Point",
    "coordinates": [
     20.663865829488035,
     67.1240086824158
    ]
   },
   "properties": {
    "kommun": "Gällivare",
    "namnd": "Miljö-, bygg- och räddningsnämnden",
    "date": "2024-05-28",
    "paragraph": 85,
    "title": "Bygglov för tillbyggnad av industribyggnad",
    "fastighet": null,
    "pdf_url": "https://gallivare.se/download/18.482e5aaf18fa432e2c8c16c8/1717501064269/Milj%C3%B6-,%20bygg-%20och%20r%C3%A4ddningsn%C3%A4mndens%20protokoll%202024-05-28%20(GDPR).pdf",
    "filename": "Miljö-, bygg- och räddningsnämndens protokoll 2024-05-28 (GDPR).pdf"
   }
  },
  {
   "type": "Feature",
   "geometry": {
    "type": "Point",
    "coordinates": [
     20.647595882725838,
     67.13135224730996
    ]
   },
   "properties": {
    "kommun": "Gällivare",
    "namnd": "Miljö-, bygg- och räddningsnämnden",
    "date": "2024-06-20",
    "paragraph": 101,
    "title": "Ansökan om förhandsbesked för nybyggnad av flerbostadshus",
    "fastighet": null,
    "pdf_url": "https://gallivare.se/download/18.76cf65f419044bc3387c4ec7/1719829938608/Milj%C3%B6-,%20bygg-%20och%20r%C3%A4ddningsn%C3%A4mndens%20protokoll%202024-06-20%20GDPR.pdf",
    "filename": "Miljö-, bygg- och räddningsnämndens protokoll 2024-06-20 GDPR.pdf"
   }
  },
  {
   "type": "Feature",
   "geometry": {
    "type": "Point",
    "coordinates": [
     20.641603021892106,
     67.1336008134523
    ]
   },
   "properties": {
    "kommun": "Gällivare",
    "namnd": "Miljö-, bygg- och räddningsnämnden",
    "date": "2024-06-20",
    "paragraph": 102,
    "title": "Bygglov tillbyggnad av komplementbyggnad",
    "fastighet": null,
    "pdf_url": "https://gallivare.se/download/18.76cf65f419044bc3387c4ec7/1719829938608/Milj%C3%B6-,%20bygg-%20och%20r%C3%A4ddningsn%C3%A4mndens%20protokoll%202024-06-20%20GDPR.pdf",
    "filename": "Miljö-, bygg- och räddningsnämndens protokoll 2024-06-20 GDPR.pdf"
   }
  },
  {
   "type": "Feature",
   "geometry": {
    "type": "Point",
    "coordinates": [
     20.676504791737365,
     67.14167162172507
    ]
   },
   "properties": {
    "kommun": "Gällivare",
    "namnd": "Miljö-, bygg- och räddningsnämnden",
    "date": "2024-06-20",
    "paragraph": 103,
    "title": "Bygglov nybyggnad av carport/tälthall",
    "fastighet": null,
    "pdf_url": "https://gallivare.se/download/18.76cf65f419044bc3387c4ec7/1719829938608/Milj%C3%B6-,%20bygg-%20och%20r%C3%A4ddningsn%C3%A4mndens%20protokoll%202024-06-20%20GDPR.pdf",
    "filename": "Miljö-, bygg- och räddningsnämndens protokoll 2024-06-20 GDPR.pdf"
   }
  },
  {
   "type": "Feature",
   "geometry": {
    "type": "Point",
    "coordinates": [
     20.680840517608996,
     67.13872847847692
    ]
   },
   "properties": {
    "kommun": "Gällivare",
    "namnd": "Miljö-, bygg- och räddningsnämnden",
    "date": "2024-06-20",
    "paragraph": 105,
    "title": "Samverkansavtal mellan Gällivare kommun och Kiruna kommun gällande prövning och tillsyn i bygg- och miljöärenden",
    "fastighet": null,
    "pdf_url": "https://gallivare.se/download/18.76cf65f419044bc3387c4ec7/1719829938608/Milj%C3%B6-,%20bygg-%20och%20r%C3%A4ddningsn%C3%A4mndens%20protokoll%202024-06-20%20GDPR.pdf",
    "filename": "Miljö-, bygg- och räddningsnämndens protokoll 2024-06-20 GDPR.pdf"
   }
  },
  {
   "type": "Feature",
   "geometry": {
    "type": "Point",
    "coordinates": [
     20.616485617365097,
     67.13791149696394
    ]
   },
   "properties": {
    "kommun": "Gällivare",
    "namnd": "Miljö-, bygg- och räddningsnämnden",
    "date": "2024-08-27",
    "paragraph": 115,
    "title": "Ansökan om bygglov för nybyggnad av garage .. 8",
    "fastighet": null,
    "pdf_url": "https://gallivare.se/download/18.b55bceb1919736dc3e8cd9/1724854126819/Milj%C3%B6-,%20bygg-%20och%20r%C3%A4ddningsn%C3%A4mndens%20protokoll%202024-08-27%20GDPR.pdf",
    "filename": "Miljö-, bygg- och räddningsnämndens protokoll 2024-08-27 GDPR.pdf"
   }
  },
  {
   "type": "Feature",
   "geometry": {
    "type": "Point",
    "coordinates": [
     20.675066911335303,
     67.12747069369838
    ]
   },
   "properties": {
    "kommun": "Gällivare",
    "namnd": "Miljö-, bygg- och räddningsnämnden",
    "date": "2024-08-27",
    "paragraph": 116,
    "title": "Ansökan om bygglov för tillbyggnad av industribyggnad",
    "fastighet": null,
    "pdf_url": "https://gallivare.se/download/18.b55bceb1919736dc3e8cd9/1724854126819/Milj%C3%B6-,%20bygg-%20och%20r%C3%A4ddningsn%C3%A4mndens%20protokoll%202024-08-27%20GDPR.pdf",
    "filename": "Miljö-, bygg- och räddningsnämndens protokoll 2024-08-27 GDPR.pdf"
   }
  },
  {
   "type": "Feature",
   "geometry": {
    "type": "Point",
    "coordinates": [
     20.651331047260054,
     67.14047148027097
    ]
   },
   "properties": {
    "kommun": "Gällivare",
    "namnd": "Miljö-, bygg- och räddningsnämnden",
    "date": "2024-08-27",
    "paragraph": 117,
    "title": "Ansökan om förhandsbesked för nybyggnad av enbostadshus",
    "fastighet": null,
    "pdf_url": "https://gallivare.se/download/18.b55bceb1919736dc3e8cd9/1724854126819/Milj%C3%B6-,%20bygg-%20och%20r%C3%A4ddningsn%C3%A4mndens%20protokoll%202024-08-27%20GDPR.pdf",
    "filename": "Miljö-, bygg- och räddningsnämndens protokoll 2024-08-27 GDPR.pdf"
   }
  },
  {
   "type": "Feature",
   "geometry": {
    "type": "Point",
    "coordinates": [
     20.63797071867211,
     67.14429245740921
    ]
   },
   "properties": {
    "kommun": "Gällivare",
    "namnd": "Miljö-, bygg- och räddningsnämnden",
    "date": "2024-08-27",
    "paragraph": 118,
    "title": "Ansökan om bygglov för hotellanläggning",
    "fastighet": null,
    "pdf_url": "https://gallivare.se/download/18.b55bceb1919736dc3e8cd9/1724854126819/Milj%C3%B6-,%20bygg-%20och%20r%C3%A4ddningsn%C3%A4mndens%20protokoll%202024-08-27%20GDPR.pdf",
    "filename": "Miljö-, bygg- och räddningsnämndens protokoll 2024-08-27 GDPR.pdf"
   }
  },
  {
   "type": "Feature",
   "geometry": {
    "type": "Point",
    "coordinates": [
     20.654100862689322,
     67.13260953965546
    ]
   },
   "properties": {
    "kommun": "Gällivare",
    "namnd": "Miljö-, bygg- och räddningsnämnden",
    "date": "2024-08-27",
    "paragraph": 119,
    "title": "Ansökan om bygglov för nybyggnad av flera enbostadshus",
    "fastighet": null,
    "pdf_url": "https://gallivare.se/download/18.b55bceb1919736dc3e8cd9/1724854126819/Milj%C3%B6-,%20bygg-%20och%20r%C3%A4ddningsn%C3%A4mndens%20protokoll%202024-08-27%20GDPR.pdf",
    "filename": "Miljö-, bygg- och räddningsnämndens protokoll 2024-08-27 GDPR.pdf"
   }
  },
  {
   "type": "Feature",
   "geometry": {
    "type": "Point",
    "coordinates": [
     20.648593708789303,
     67.1312543507389
    ]
   },
   "properties": {
    "kommun": "Gällivare",
    "namnd": "Miljö-, bygg- och räddningsnämnden",
    "date": "2024-09-24",
    "paragraph": 128,
    "title": "Ansökan om tidsbegränsat bygglov för nybyggnad av flerbostadshus",
    "fastighet": null,
    "pdf_url": "https://gallivare.se/download/18.72e098901921c1ba0a162b86/1727444205559/Milj%C3%B6-,%20bygg-%20och%20r%C3%A4ddningsn%C3%A4mndens%20protokoll%20(GDPR)%202024-09-24.pdf",
    "filename": "Miljö-, bygg- och räddningsnämndens protokoll (GDPR) 2024-09-24.pdf"
   }
  },
  {
   "type": "Feature",
   "geometry": {
    "type": "Point",
    "coordinates": [
     20.6679450556165,
     67.12432207265358
    ]
   },
   "properties": {
    "kommun": "Gällivare",
    "namnd": "Miljö-, bygg- och räddningsnämnden",
    "date": "2024-09-24",
    "paragraph": 129,
    "title": "Ansökan om bygglov för nybyggnad av industri/lager",
    "fastighet": null,
    "pdf_url": "https://gallivare.se/download/18.72e098901921c1ba0a162b86/1727444205559/Milj%C3%B6-,%20bygg-%20och%20r%C3%A4ddningsn%C3%A4mndens%20protokoll%20(GDPR)%202024-09-24.pdf",
    "filename": "Miljö-, bygg- och räddningsnämndens protokoll (GDPR) 2024-09-24.pdf"
   }
  },
  {
   "type": "Feature",
   "geometry": {
    "type": "Point",
    "coordinates": [
     20.679767774087832,
     67.13170709112545
    ]
   },
   "properties": {
    "kommun": "Gällivare",
    "namnd": "Miljö-, bygg- och räddningsnämnden",
    "date": "2024-10-01",
    "paragraph": 141,
    "title": "Ansökan om tidsbegränsat bygglov för nybyggnad av flerbostadshus 9 Miljö-, bygg- och räddningsnämnd SAMMANTRÄDESPROTOKOLL Sida 3(20) Sammanträdesdatum 2024-10-01",
    "fastighet": "SAMMANTRÄDESPROTOKOLL Sida 3",
    "pdf_url": "https://gallivare.se/download/18.5acf6a8519250d7d8d66355/1727956978925/Milj%C3%B6-,%20bygg-%20och%20r%C3%A4ddningsn%C3%A4mndens%20protokoll%20(GDPR)%202024-10-01.pdf",
    "filename": "Miljö-, bygg- och räddningsnämndens protokoll (GDPR) 2024-10-01.pdf"
   }
  },
  {
   "type": "Feature",
   "geometry": {
    "type": "Point",
    "coordinates": [
     20.647666977420318,
     67.14037512228735
    ]
   },
   "properties": {
    "kommun": "Gällivare",
    "namnd": "Miljö-, bygg- och räddningsnämnden",
    "date": "2024-11-05",
    "paragraph": 150,
    "title": "Ansökan om bygglov för nybyggnad av carport",
    "fastighet": null,
    "pdf_url": "https://gallivare.se/download/18.3c5778e419300021cb978c06/1731502832885/Milj%C3%B6-,%20bygg-%20och%20r%C3%A4ddningsn%C3%A4mndens%20protokoll%202024-11-05.pdf",
    "filename": "Miljö-, bygg- och räddningsnämndens protokoll 2024-11-05.pdf"
   }
  },
  {
   "type": "Feature",
   "geometry": {
    "type": "Point",
    "coordinates": [
     20.687695253537676,
     67.12671239721705
    ]
   },
   "properties": {
    "kommun": "Gällivare",
    "namnd": "Miljö-, bygg- och räddningsnämnden",
    "date": "2024-11-05",
    "paragraph": 151,
    "title": "Ansökan om förhandsbesked för nybyggnad av enbostadshus Avvakko",
    "fastighet": null,
    "pdf_url": "https://gallivare.se/download/18.3c5778e419300021cb978c06/1731502832885/Milj%C3%B6-,%20bygg-%20och%20r%C3%A4ddningsn%C3%A4mndens%20protokoll%202024-11-05.pdf",
    "filename": "Miljö-, bygg- och räddningsnämndens protokoll 2024-11-05.pdf"
   }
  },
  {
   "type": "Feature",
   "geometry": {
    "type": "Point",
    "coordinates": [
     20.637728136023988,
     67.14804771674551
    ]
   },
   "properties": {
    "kommun": "Gällivare",
    "namnd": "Miljö-, bygg- och räddningsnämnden",
    "date": "2024-11-05",
    "paragraph": 152,
    "title": "Ansökan om förhandsbesked för nybyggnad av enbostadshus Sikträsk",
    "fastighet": null,
    "pdf_url": "https://gallivare.se/download/18.3c5778e419300021cb978c06/1731502832885/Milj%C3%B6-,%20bygg-%20och%20r%C3%A4ddningsn%C3%A4mndens%20protokoll%202024-11-05.pdf",
    "filename": "Miljö-, bygg- och räddningsnämndens protokoll 2024-11-05.pdf"
   }
  },
  {
   "type": "Feature",
   "geometry": {
    "type": "Point",
    "coordinates": [
     20.67384323746083,
     67.14259213932009
    ]
   },
   "properties": {
    "kommun": "Gällivare",
    "namnd": "Miljö-, bygg- och räddningsnämnden",
    "date": "2024-11-05",
    "paragraph": 153,
    "title": "Tidsbegränsat lov för nybyggnad av parkeringsplatser (tillfällig parkering utanför Kunskapsskolan)",
    "fastighet": null,
    "pdf_url": "https://gallivare.se/download/18.3c5778e419300021cb978c06/1731502832885/Milj%C3%B6-,%20bygg-%20och%20r%C3%A4ddningsn%C3%A4mndens%20protokoll%202024-11-05.pdf",
    "filename": "Miljö-, bygg- och räddningsnämndens protokoll 2024-11-05.pdf"
   }
  },
  {
   "type": "Feature",
   "geometry": {
    "type": "Point",
    "coordinates": [
     20.688581034571506,
     67.14048627165323
    ]
   },
   "properties": {
    "kommun": "Gällivare",
    "namnd": "Miljö-, bygg- och räddningsnämnden",
    "date": "2024-11-05",
    "paragraph": 154,
    "title": "Ansökan om bygglov för nybyggnad av fritidshus samt rivning samt installation av eldstad samt komplementbyggnad",
    "fastighet": null,
    "pdf_url": "https://gallivare.se/download/18.3c5778e419300021cb978c06/1731502832885/Milj%C3%B6-,%20bygg-%20och%20r%C3%A4ddningsn%C3%A4mndens%20protokoll%202024-11-05.pdf",
    "filename": "Miljö-, bygg- och räddningsnämndens protokoll 2024-11-05.pdf"
   }
  },
  {
   "type": "Feature",
   "geometry": {
    "type": "Point",
    "coordinates": [
     20.672383043856666,
     67.12287077392888
    ]
   },
   "properties": {
    "kommun": "Gällivare",
    "namnd": "Miljö-, bygg- och räddningsnämnden",
    "date": "2024-11-05",
    "paragraph": 155,
    "title": "Ansökan om nybyggnad samt rivning/flytt av industribyggnad (Kaptensspelet)",
    "fastighet": null,
    "pdf_url": "https://gallivare.se/download/18.3c5778e419300021cb978c06/1731502832885/Milj%C3%B6-,%20bygg-%20och%20r%C3%A4ddningsn%C3%A4mndens%20protokoll%202024-11-05.pdf",
    "filename": "Miljö-, bygg- och räddningsnämndens protokoll 2024-11-05.pdf"
   }
  }
 ]
}