{
 "type": "FeatureCollection",
 "features": [
  {
   "type": "Feature",
   "geometry": {
    "type": "Point",
    "coordinates": [
     22.170033641251823,
     65.59875753272739
    ]
   },
   "properties": {
    "kommun": "Luleå",
    "namnd": "Miljö- och byggnadsnämnden 2026",
    "date": "2026-01-21",
    "paragraph": 5,
    "title": "Samrådsyttrande över detaljplan för del av Hertsön 11:1, mellanområdet 14 - 15",
    "fastighet": "Hertsön 11:1",
    "pdf_url": "https://www.lulea.se/download/18.597b1ac319bc2615cfd43dd/1769176406477/Milj%C3%B6-%20och%20byggnadsn%C3%A4mndens%20protokoll%202026-01-21.pdf",
    "filename": "Miljö- och byggnadsnämndens protokoll 2026-01-21.pdf"
   }
  },
  {
   "type": "Feature",
   "geometry": {
    "type": "Point",
    "coordinates": [
     22.152442742771857,
     65.58056562025935
    ]
   },
   "properties": {
    "kommun": "Luleå",
    "namnd": "Miljö- och byggnadsnämnden 2026",
    "date": "2026-01-21",
    "paragraph": 14,
    "title": "Dispens för markundersökning och provborrning i Ormberget- Hertsölandets naturreservat Bygglov för nybyggnad av enbostadshus samt installation av eldstad Bygglov för nybyggnad av enbostadshus och garage samt installation av eldstad Bygglov för nybyggnad av industri- och lagerbyggnad Tidsbegränsat bygglov för nybyggnad av entreprenörsbostäder inkl. servicebyggnad, aktivitetsbyggnad, drifthus samt 500 parkeringsplatser Tidsbegränsat bygglov för nybyggnad av tältbyggnad med tillhörande moduler/containers Förhandsbesked för nybyggnad av ett fritidshus och två komplementbyggnader Redovisning av meddelande Redovisning av delegationsbeslut 58 2 Signature reference: 80627387-58af-4e13-ab45-2fa14afb9c63 LULEÅ KOMMUN SAMMANTRÄDESPROTOKOLL Miljö- och byggnadsnämnden 2026-01-21",
    "fastighet": null,
    "pdf_url": "https://www.lulea.se/download/18.597b1ac319bc2615cfd43dd/1769176406477/Milj%C3%B6-%20och%20byggnadsn%C3%A4mndens%20protokoll%202026-01-21.pdf",
    "filename": "Miljö- och byggnadsnämndens protokoll 2026-01-21.pdf"
   }
  },
  {
   "type": "Feature",
   "geometry": {
    "type": "Point",
    "coordinates": [
     22.143868261807597,
     65.57671488715404
    ]
   },
   "properties": {
    "kommun": "Luleå",
    "namnd": "Miljö- och byggnadsnämnden 2026",
    "date": "2026-02-18",
    "paragraph": 20,
    "title": "Samrådsyttrande över detaljplan för del av Småskären 19:1, Kyrkviken 12 - 15",
    "fastighet": "Småskären 19:1",
    "pdf_url": "https://www.lulea.se/download/18.30d19a8a19c4bf1134871f6/1772000525001/Milj%C3%B6-%20och%20byggnadsn%C3%A4mndens%20protokoll%202026-02-18.pdf",
    "filename": "Miljö- och byggnadsnämndens protokoll 2026-02-18.pdf"
   }
  },
  {
   "type": "Feature",
   "geometry": {
    "type": "Point",
    "coordinates": [
     22.138901601698468,
     65.5744035879901
    ]
   },
   "properties": {
    "kommun": "Luleå",
    "namnd": "Miljö- och byggnadsnämnden 2026",
    "date": "2026-02-18",
    "paragraph": 22,
    "title": "Tillsyn enligt plan- och bygglagen 19 - 21",
    "fastighet": null,
    "pdf_url": "https://www.lulea.se/download/18.30d19a8a19c4bf1134871f6/1772000525001/Milj%C3%B6-%20och%20byggnadsn%C3%A4mndens%20protokoll%202026-02-18.pdf",
    "filename": "Miljö- och byggnadsnämndens protokoll 2026-02-18.pdf"
   }
  },
  {
   "type": "Feature",
   "geometry": {
    "type": "Point",
    "coordinates": [
     22.1871846389329,
     65.58790135684072
    ]
   },
   "properties": {
    "kommun": "Luleå",
    "namnd": "Miljö- och byggnadsnämnden 2026",
    "date": "2026-02-18",
    "paragraph": 30,
    "title": "Ansökan om strandskyddsdispens för nybyggnad av komplementbyggnad på mark som avses tillföras fastigheten Bygglov för nybyggnad av 36 meter högt torn med tillhörande teknikbod samt rivning av befintligt torn Bygglov för nybyggnad av 20 radhus samt två flerbostadshus med 32 lägenheter Bygglov för utvändig ändring av flerbostadshus Bygglov för nybyggnad av industribyggnad med tillhörande teknikbyggnader med mera samt utfyllnad av markhöjder Revidering av sammanträdesordningen 2026 för miljö- och byggnadsnämnden Redovisning av meddelanden Redovisning av delegationsbeslut 59 2 Signature reference: 54aed92d-4880-482e-a0ab-34f165096879 LULEÅ KOMMUN SAMMANTRÄDESPROTOKOLL Miljö- och byggnadsnämnden 2026-02-18",
    "fastighet": null,
    "pdf_url": "https://www.lulea.se/download/18.30d19a8a19c4bf1134871f6/1772000525001/Milj%C3%B6-%20och%20byggnadsn%C3%A4mndens%20protokoll%202026-02-18.pdf",
    "filename": "Miljö- och byggnadsnämndens protokoll 2026-02-18.pdf"
   }
  },
  {
   "type": "Feature",
   "geometry": {
    "type": "Point",
    "coordinates": [
     22.147487623907438,
     65.58020891843721
    ]
   },
   "properties": {
    "kommun": "Luleå",
    "namnd": "Miljö- och byggnadsnämnden 2026",
    "date": "2026-03-18",
    "paragraph": 41,
    "title": "Avdelningschefen informerar 2026-03-18 Dispens för anläggande av luftledning inom Ormberget-Hertsölandets naturreservat Bygglov för tillbyggnad av industribyggnad Bygglov för nybyggnad av stålverk Bygglov för nybyggnad av enbostadshus och installation av eldstad med rökkanal Bygglov för nybyggnad av ett 42 meter högt torn och rivning av befintligt torn efter att det nya har driftsatts Bygglov för nybyggnad av enbostadshus och garage inkl installation av eldstad samt rivning av vindskjul Bygglov för nybyggnad av enbostadshus Bygglov för nybyggnad av två flerfamiljshus med underbyggt garage Redovisning av meddelande Redovisning av delegationsbeslut 58 2 Signature reference: 2f525423-edec-45ba-b6de-a83e6699cef4 LULEÅ KOMMUN SAMMANTRÄDESPROTOKOLL Miljö- och byggnadsnämnden 2026-03-18",
    "fastighet": null,
    "pdf_url": "https://www.lulea.se/download/18.32d968ee19cfcfd9ec31e1c/1774010753622/Milj%C3%B6-%20och%20byggnadsn%C3%A4mndens%20protokoll%202026-03-18.pdf",
    "filename": "Miljö- och byggnadsnämndens protokoll 2026-03-18.pdf"
   }
  },
  {
   "type": "Feature",
   "geometry": {
    "type": "Point",
    "coordinates": [
     22.137054259922653,
     65.58640874439837
    ]
   },
   "properties": {
    "kommun": "Luleå",
    "namnd": "Miljö- och byggnadsnämnden 2026",
    "date": "2026-04-16",
    "paragraph": 60,
    "title": "Avdelningschefen informerar 2026-04-16 Miljö- och byggnadsnämndens konsekvensbeskrivning av preliminära ekonomiska ramar för 2027-2029 Samrådsyttrande över detaljplan för Riga 1:16, Dalbo Samrådsyttrande över ändring av detaljplan för del av Skepparen 3 m.fl. Bygglov för nybyggnad av förråd Bygglov för ändrad användning och ombyggnation av källare till två lägenheter i flerbostadshus samt nybyggnad av två bilparkeringsplatser Bygglov för tillbyggnad av skolbyggnad, komplementbyggnader, ombyggnad av befintlig skola samt 40 parkeringsplatser Bygglov för nybyggnad av nätstation Tidsbegränsat bygglov t.o.m. 2027-12-31 för en barack, två containers och materialupplag Tidsbegränsat bygglov t.o.m. 2035-12-17 för paviljong för universitetsverksamhet Tidsbegränsat bygglov t.o.m. 2035-12-31 för paviljong för universitetsverksamhet Förhandsbesked för nybyggnad av två enbostadshus med garage Förhandsbesked för nybyggnad av enbostadshus Förbud och föreläggande med vite avseende avfallshantering (betongavfall och schaktmassor) Förbud och föreläggande med vite samt försiktighetsmått för avfallshantering Revidering av taxa inom miljöbalkens område samt taxa för tillsyn enligt strålskyddslagen Revidering av delegationsordning för miljö- och byggnadsnämnden Redovisning av meddelande Redovisning av delegationsbeslut 102 2 Signature reference: 02e3f129-b2e9-4548-a33f-abe1ad7c65f5 LULEÅ KOMMUN SAMMANTRÄDESPROTOKOLL Miljö- och byggnadsnämnden 2026-04-16",
    "fastighet": "Riga 1:16",
    "pdf_url": "https://www.lulea.se/download/18.1d9d656019d90a6db6439ff/1776753685452/Milj%C3%B6-och%20byggnadsn%C3%A4mndens%20protokoll%202026-04-16.pdf",
    "filename": "Miljö-och byggnadsnämndens protokoll 2026-04-16.pdf"
   }
  },
  {
   "type": "Feature",
   "geometry": {
    "type": "Point",
    "coordinates": [
     22.186910708503028,
     65.57734733678161
    ]
   },
   "properties": {
    "kommun": "Luleå",
    "namnd": "Miljö- och byggnadsnämnden 2026",
    "date": "2026-05-12",
    "paragraph": 77,
    "title": "Avdelningschefen informerar 2026-05-12 Delårsuppföljning 1, år 2026 miljö- och byggnadsnämnden Bygglov för nybyggnad av garage och förrådsbyggnad Bygglov för nybyggnad av enbostadshus och garage Bygglov för nybyggnad av flerbostadshus med 48 lägenheter, komplementbyggnader samt bilparkeringar Återkallelse av tillstånd till enskild avloppsanläggning och förbud att släppa ut avloppsvatten till avloppsanläggning Tidsbegränsat bygglov t.o.m. 2036-01-26 för tillbyggnad av skärmtak Förhandsbesked för nybyggnad av enbostadshus Lovföreläggande Tillsyn enligt plan- och bygglagen Redovisning av meddelande Redovisning av delegationsbeslut 58 2 Signature reference: 773b50b4-a84c-4da1-8cf5-6404b29f7040 LULEÅ KOMMUN SAMMANTRÄDESPROTOKOLL Miljö- och byggnadsnämnden 2026-05-12",
    "fastighet": null,
    "pdf_url": "https://www.lulea.se/download/18.bad378919e3ac3332baf0/1779186643545/Milj%C3%B6-%20och%20byggnadsn%C3%A4mndens%20protokoll%202026-05-12.pdf",
    "filename": "Miljö- och byggnadsnämndens protokoll 2026-05-12.pdf"
   }
  }
 ]
}