{
 "type": "FeatureCollection",
 "metadata": {
  "source": "https://dronechart.lfv.se/geoserver/wfs",
  "provider": "LFV / Transportstyrelsen",
  "generated": "2026-07-03T17:06:52.189Z"
 },
 "features": [
  {
   "type": "Feature",
   "geometry": {
    "type": "Polygon",
    "coordinates": [
     [
      [
       11.33972222,
       59.11444444
      ],
      [
       11.34305556,
       59.11361111
      ],
      [
       11.36194444,
       59.10194444
      ],
      [
       11.36694444,
       59.09916667
      ],
      [
       11.37111111,
       59.09583333
      ],
      [
       11.3925,
       59.07277778
      ],
      [
       11.40194444,
       59.05777778
      ],
      [
       11.41333333,
       59.04083333
      ],
      [
       11.415,
       59.03944444
      ],
      [
       11.41833333,
       59.03722222
      ],
      [
       11.41944444,
       59.03611111
      ],
      [
       11.4275,
       59.03
      ],
      [
       11.43027778,
       59.02861111
      ],
      [
       11.44,
       59.01611111
      ],
      [
       11.45305556,
       59.00277778
      ],
      [
       11.4575,
       58.99833333
      ],
      [
       11.46472222,
       58.99111111
      ],
      [
       11.45388889,
       58.98555556
      ],
      [
       11.4625,
       58.97305556
      ],
      [
       11.45972222,
       58.9525
      ],
      [
       11.46361111,
       58.93333333
      ],
      [
       11.45638889,
       58.91666667
      ],
      [
       11.45611111,
       58.88972222
      ],
      [
       11.4575,
       58.88833333
      ],
      [
       11.25694444,
       58.89583333
      ],
      [
       10.72972222,
       58.84722222
      ],
      [
       10.70083333,
       58.73277778
      ],
      [
       10.64805556,
       58.70916667
      ],
      [
       10.57027778,
       58.69694444
      ],
      [
       10.63888889,
       58.89222222
      ],
      [
       10.75555556,
       58.91388889
      ],
      [
       10.91694444,
       58.9425
      ],
      [
       10.92555556,
       58.94444444
      ],
      [
       10.98388889,
       58.96027778
      ],
      [
       10.9925,
       58.96194444
      ],
      [
       11.03111111,
       58.96944444
      ],
      [
       11.04611111,
       58.9725
      ],
      [
       11.05638889,
       58.97472222
      ],
      [
       11.05916667,
       58.975
      ],
      [
       11.06361111,
       58.97611111
      ],
      [
       11.06666667,
       58.9775
      ],
      [
       11.07166667,
       58.98027778
      ],
      [
       11.08083333,
       58.98527778
      ],
      [
       11.08166667,
       58.98555556
      ],
      [
       11.09138889,
       58.99055556
      ],
      [
       11.1125,
       59.00972222
      ],
      [
       11.11722222,
       59.01361111
      ],
      [
       11.11944444,
       59.01861111
      ],
      [
       11.15333333,
       59.0775
      ],
      [
       11.15611111,
       59.07916667
      ],
      [
       11.22055556,
       59.08694444
      ],
      [
       11.22777778,
       59.08805556
      ],
      [
       11.24,
       59.09111111
      ],
      [
       11.24805556,
       59.09361111
      ],
      [
       11.25972222,
       59.09666667
      ],
      [
       11.26861111,
       59.09777778
      ],
      [
       11.28611111,
       59.09888889
      ],
      [
       11.28888889,
       59.09944444
      ],
      [
       11.29611111,
       59.10277778
      ],
      [
       11.3025,
       59.10611111
      ],
      [
       11.32305556,
       59.11111111
      ],
      [
       11.33611111,
       59.11388889
      ],
      [
       11.33972222,
       59.11444444
      ]
     ]
    ]
   },
   "properties": {
    "lager": "Delegerat luftrum",
    "namn": "Area KOSTER",
    "typ": "DELEG",
    "beteckning": "ESAA",
    "plats": "Area KOSTER",
    "hojd": "4500–FL 115",
    "operator": "",
    "gäller_fr": "2026-06-11",
    "kommentar": "C ATS delegated to Norway. \nSee AIP Norway"
   }
  },
  {
   "type": "Feature",
   "geometry": {
    "type": "Polygon",
    "coordinates": [
     [
      [
       11.76611111,
       56.98555556
      ],
      [
       12.36805556,
       56.21472222
      ],
      [
       12.442283,
       56.164901
      ],
      [
       12.41277778,
       56.15638889
      ],
      [
       12.135,
       56.07583333
      ],
      [
       11.76611111,
       56.98555556
      ]
     ]
    ]
   },
   "properties": {
    "lager": "Delegerat luftrum",
    "namn": "Area C",
    "typ": "DELEG",
    "beteckning": "ESAA",
    "plats": "Area C",
    "hojd": "FL 95–FL 660",
    "operator": "",
    "gäller_fr": "2026-06-11",
    "kommentar": "C"
   }
  },
  {
   "type": "Feature",
   "geometry": {
    "type": "Polygon",
    "coordinates": [
     [
      [
       12.442283,
       56.164901
      ],
      [
       12.47,
       56.1464
      ],
      [
       12.4767,
       56.1436
      ],
      [
       12.4839,
       56.14
      ],
      [
       12.4917,
       56.1358
      ],
      [
       12.5031,
       56.1303
      ],
      [
       12.5364,
       56.1164
      ],
      [
       12.5578,
       56.1056
      ],
      [
       12.5736,
       56.0972
      ],
      [
       12.5906,
       56.0878
      ],
      [
       12.6061,
       56.0775
      ],
      [
       12.6175,
       56.0708
      ],
      [
       12.6303,
       56.0628
      ],
      [
       12.6392,
       56.0592
      ],
      [
       12.6422,
       56.0575
      ],
      [
       12.645,
       56.055
      ],
      [
       12.6475,
       56.0517
      ],
      [
       12.6506,
       56.0483
      ],
      [
       12.6547,
       56.0422
      ],
      [
       12.6556,
       56.0394
      ],
      [
       12.6561,
       56.0328
      ],
      [
       12.6525,
       56.0075
      ],
      [
       12.6456,
       55.9261
      ],
      [
       12.6494,
       55.9211
      ],
      [
       12.6622,
       55.9064
      ],
      [
       12.6733,
       55.8972
      ],
      [
       12.678952,
       55.891426
      ],
      [
       12.6853,
       55.8778
      ],
      [
       12.6889,
       55.8711
      ],
      [
       12.6975,
       55.8389
      ],
      [
       12.6981,
       55.8369
      ],
      [
       12.7006,
       55.8333
      ],
      [
       12.7092,
       55.8264
      ],
      [
       12.8472,
       55.6986
      ],
      [
       12.8958,
       55.6436
      ],
      [
       12.8819,
       55.6136
      ],
      [
       12.78138889,
       55.56511111
      ],
      [
       12.78083333,
       55.56555556
      ],
      [
       12.135,
       56.07583333
      ],
      [
       12.41277778,
       56.15638889
      ],
      [
       12.442283,
       56.164901
      ]
     ]
    ]
   },
   "properties": {
    "lager": "Delegerat luftrum",
    "namn": "Area H1",
    "typ": "DELEG",
    "beteckning": "ESAA",
    "plats": "Area H1",
    "hojd": "FL 195–FL 660",
    "operator": "",
    "gäller_fr": "2026-06-11",
    "kommentar": "C"
   }
  },
  {
   "type": "Feature",
   "geometry": {
    "type": "Polygon",
    "coordinates": [
     [
      [
       12.6561,
       56.0328
      ],
      [
       12.67944444,
       56.03277778
      ],
      [
       12.73222222,
       55.99944444
      ],
      [
       12.86555556,
       55.97611111
      ],
      [
       13.11555556,
       55.73277778
      ],
      [
       12.99888889,
       55.24944444
      ],
      [
       12.69222222,
       55.23388889
      ],
      [
       12.6408,
       55.3367
      ],
      [
       12.627607,
       55.380319
      ],
      [
       12.6122,
       55.4319
      ],
      [
       12.7156,
       55.4886
      ],
      [
       12.73,
       55.5403
      ],
      [
       12.781125,
       55.564993
      ],
      [
       12.8819,
       55.6136
      ],
      [
       12.8958,
       55.6436
      ],
      [
       12.8472,
       55.6986
      ],
      [
       12.7594,
       55.78
      ],
      [
       12.7092,
       55.8264
      ],
      [
       12.7006,
       55.8333
      ],
      [
       12.6981,
       55.8369
      ],
      [
       12.6975,
       55.8389
      ],
      [
       12.6889,
       55.8711
      ],
      [
       12.6853,
       55.8778
      ],
      [
       12.678952,
       55.891426
      ],
      [
       12.6733,
       55.8972
      ],
      [
       12.6622,
       55.9064
      ],
      [
       12.6494,
       55.9211
      ],
      [
       12.6456,
       55.9261
      ],
      [
       12.6469,
       55.9394
      ],
      [
       12.6525,
       56.0075
      ],
      [
       12.6561,
       56.0328
      ]
     ]
    ]
   },
   "properties": {
    "lager": "Delegerat luftrum",
    "namn": "Area L2",
    "typ": "DELEG",
    "beteckning": "ESAA",
    "plats": "Area L2",
    "hojd": "2500–FL 195",
    "operator": "",
    "gäller_fr": "2026-06-11",
    "kommentar": "C"
   }
  },
  {
   "type": "Feature",
   "geometry": {
    "type": "Polygon",
    "coordinates": [
     [
      [
       12.99888889,
       55.24944444
      ],
      [
       13,
       54.91666667
      ],
      [
       12.85,
       54.91666667
      ],
      [
       12.69222222,
       55.23388889
      ],
      [
       12.99888889,
       55.24944444
      ]
     ]
    ]
   },
   "properties": {
    "lager": "Delegerat luftrum",
    "namn": "Area L3 class C",
    "typ": "DELEG",
    "beteckning": "ESAA",
    "plats": "Area L3 class C",
    "hojd": "FL 95–FL 195",
    "operator": "",
    "gäller_fr": "2026-06-11",
    "kommentar": "C"
   }
  },
  {
   "type": "Feature",
   "geometry": {
    "type": "Polygon",
    "coordinates": [
     [
      [
       12.678952,
       55.891426
      ],
      [
       12.83222222,
       55.85777778
      ],
      [
       12.89888889,
       55.74944444
      ],
      [
       13.05722222,
       55.67444444
      ],
      [
       12.89888889,
       55.56194444
      ],
      [
       12.86555556,
       55.44111111
      ],
      [
       12.627607,
       55.380319
      ],
      [
       12.6122,
       55.4319
      ],
      [
       12.7156,
       55.4886
      ],
      [
       12.73,
       55.5403
      ],
      [
       12.781125,
       55.564993
      ],
      [
       12.8819,
       55.6136
      ],
      [
       12.8958,
       55.6436
      ],
      [
       12.8472,
       55.6986
      ],
      [
       12.7092,
       55.8264
      ],
      [
       12.7006,
       55.8333
      ],
      [
       12.6981,
       55.8369
      ],
      [
       12.6975,
       55.8389
      ],
      [
       12.6889,
       55.8711
      ],
      [
       12.6853,
       55.8778
      ],
      [
       12.678952,
       55.891426
      ]
     ]
    ]
   },
   "properties": {
    "lager": "Delegerat luftrum",
    "namn": "Area SUNDET",
    "typ": "DELEG",
    "beteckning": "ESAA",
    "plats": "Area SUNDET",
    "hojd": "1500–2500",
    "operator": "",
    "gäller_fr": "2026-06-11",
    "kommentar": "C"
   }
  },
  {
   "type": "Feature",
   "geometry": {
    "type": "Polygon",
    "coordinates": [
     [
      [
       12.8819,
       55.6136
      ],
      [
       12.73222222,
       55.48277778
      ],
      [
       12.704953,
       55.482753
      ],
      [
       12.7156,
       55.4886
      ],
      [
       12.73,
       55.5403
      ],
      [
       12.8819,
       55.6136
      ]
     ]
    ]
   },
   "properties": {
    "lager": "Delegerat luftrum",
    "namn": "Area KASTRUP",
    "typ": "DELEG",
    "beteckning": "ESAA",
    "plats": "Area KASTRUP",
    "hojd": "GND–1500",
    "operator": "",
    "gäller_fr": "2026-06-11",
    "kommentar": "D"
   }
  },
  {
   "type": "Feature",
   "geometry": {
    "type": "Polygon",
    "coordinates": [
     [
      [
       20.88388889,
       63.5125
      ],
      [
       19.48722222,
       61.62055556
      ],
      [
       19.5,
       61.66666667
      ],
      [
       20.16666667,
       63.16666667
      ],
      [
       20.66666667,
       63.475
      ],
      [
       20.88388889,
       63.5125
      ]
     ]
    ]
   },
   "properties": {
    "lager": "Delegerat luftrum",
    "namn": "Area KVARKEN",
    "typ": "DELEG",
    "beteckning": "ESAA",
    "plats": "Area KVARKEN",
    "hojd": "FL 95–FL 660",
    "operator": "",
    "gäller_fr": "2026-06-11",
    "kommentar": "C"
   }
  },
  {
   "type": "Feature",
   "geometry": {
    "type": "Polygon",
    "coordinates": [
     [
      [
       12.442283,
       56.164901
      ],
      [
       12.47,
       56.1464
      ],
      [
       12.4767,
       56.1436
      ],
      [
       12.4839,
       56.14
      ],
      [
       12.4917,
       56.1358
      ],
      [
       12.5031,
       56.1303
      ],
      [
       12.5364,
       56.1164
      ],
      [
       12.5578,
       56.1056
      ],
      [
       12.5736,
       56.0972
      ],
      [
       12.5906,
       56.0878
      ],
      [
       12.6061,
       56.0775
      ],
      [
       12.6175,
       56.0708
      ],
      [
       12.6303,
       56.0628
      ],
      [
       12.6392,
       56.0592
      ],
      [
       12.6403,
       56.0583
      ],
      [
       12.6422,
       56.0575
      ],
      [
       12.645,
       56.055
      ],
      [
       12.6475,
       56.0517
      ],
      [
       12.6506,
       56.0483
      ],
      [
       12.6547,
       56.0422
      ],
      [
       12.6556,
       56.0394
      ],
      [
       12.6561,
       56.0328
      ],
      [
       12.53222222,
       56.03277778
      ],
      [
       12.41277778,
       56.15638889
      ],
      [
       12.442283,
       56.164901
      ]
     ]
    ]
   },
   "properties": {
    "lager": "Delegerat luftrum",
    "namn": "Area L1",
    "typ": "DELEG",
    "beteckning": "ESAA",
    "plats": "Area L1",
    "hojd": "FL 65–FL 195",
    "operator": "",
    "gäller_fr": "2026-06-11",
    "kommentar": "C"
   }
  },
  {
   "type": "Feature",
   "geometry": {
    "type": "Polygon",
    "coordinates": [
     [
      [
       12.78138889,
       55.56511111
      ],
      [
       12.84222222,
       55.51694444
      ],
      [
       12.85,
       54.91666667
      ],
      [
       12.692222,
       55.233889
      ],
      [
       12.6408,
       55.3367
      ],
      [
       12.627607,
       55.380319
      ],
      [
       12.6122,
       55.4319
      ],
      [
       12.704953,
       55.482753
      ],
      [
       12.7156,
       55.4886
      ],
      [
       12.73,
       55.5403
      ],
      [
       12.78138889,
       55.56511111
      ]
     ]
    ]
   },
   "properties": {
    "lager": "Delegerat luftrum",
    "namn": "Area H2 a",
    "typ": "DELEG",
    "beteckning": "ESAA",
    "plats": "Area H2 a",
    "hojd": "FL 195–FL 660",
    "operator": "",
    "gäller_fr": "2026-06-11",
    "kommentar": "C"
   }
  },
  {
   "type": "Feature",
   "geometry": {
    "type": "Polygon",
    "coordinates": [
     [
      [
       11.77972222,
       59.64305556
      ],
      [
       11.77972222,
       59.6425
      ],
      [
       11.72055556,
       59.62555556
      ],
      [
       11.71666667,
       59.6225
      ],
      [
       11.69805556,
       59.60888889
      ],
      [
       11.69111111,
       59.58944444
      ],
      [
       11.72861111,
       59.51111111
      ],
      [
       11.74555556,
       59.49305556
      ],
      [
       11.75305556,
       59.47944444
      ],
      [
       11.75833333,
       59.46583333
      ],
      [
       11.76,
       59.45805556
      ],
      [
       11.76111111,
       59.42861111
      ],
      [
       11.77416667,
       59.41416667
      ],
      [
       11.7775,
       59.39833333
      ],
      [
       11.78,
       59.38638889
      ],
      [
       11.79194444,
       59.37416667
      ],
      [
       11.79,
       59.37111111
      ],
      [
       11.80805556,
       59.35416667
      ],
      [
       11.81611111,
       59.34472222
      ],
      [
       11.81805556,
       59.33277778
      ],
      [
       11.82166667,
       59.31166667
      ],
      [
       11.82111111,
       59.30277778
      ],
      [
       11.82138889,
       59.30138889
      ],
      [
       11.83,
       59.24111111
      ],
      [
       11.82944444,
       59.23916667
      ],
      [
       11.82638889,
       59.23777778
      ],
      [
       11.81194444,
       59.23194444
      ],
      [
       11.80111111,
       59.22555556
      ],
      [
       11.79944444,
       59.22388889
      ],
      [
       11.79805556,
       59.22111111
      ],
      [
       11.79638889,
       59.21944444
      ],
      [
       11.78888889,
       59.21416667
      ],
      [
       11.78555556,
       59.21138889
      ],
      [
       11.78305556,
       59.20666667
      ],
      [
       11.78305556,
       59.20361111
      ],
      [
       11.78305556,
       59.19888889
      ],
      [
       11.78305556,
       59.19583333
      ],
      [
       11.78166667,
       59.19305556
      ],
      [
       11.77472222,
       59.17055556
      ],
      [
       11.77805556,
       59.13611111
      ],
      [
       11.76944444,
       59.12666667
      ],
      [
       11.76361111,
       59.11472222
      ],
      [
       11.76666667,
       59.11444444
      ],
      [
       11.76805556,
       59.11388889
      ],
      [
       11.76833333,
       59.11305556
      ],
      [
       11.76888889,
       59.11194444
      ],
      [
       11.76944444,
       59.11111111
      ],
      [
       11.77166667,
       59.11027778
      ],
      [
       11.77361111,
       59.10944444
      ],
      [
       11.775,
       59.1075
      ],
      [
       11.77611111,
       59.105
      ],
      [
       11.77666667,
       59.10305556
      ],
      [
       11.77805556,
       59.10166667
      ],
      [
       11.78,
       59.10027778
      ],
      [
       11.78,
       59.09916667
      ],
      [
       11.78027778,
       59.09861111
      ],
      [
       11.77888889,
       59.09777778
      ],
      [
       11.77722222,
       59.09666667
      ],
      [
       11.77722222,
       59.09611111
      ],
      [
       11.77694444,
       59.09444444
      ],
      [
       11.77694444,
       59.09194444
      ],
      [
       11.77722222,
       59.08972222
      ],
      [
       11.77611111,
       59.08805556
      ],
      [
       11.775,
       59.08638889
      ],
      [
       11.77333333,
       59.08555556
      ],
      [
       11.77166667,
       59.08527778
      ],
      [
       11.77083333,
       59.08444444
      ],
      [
       11.76833333,
       59.0825
      ],
      [
       11.76333333,
       59.07861111
      ],
      [
       11.75805556,
       59.07472222
      ],
      [
       11.75194444,
       59.07027778
      ],
      [
       11.74916667,
       59.06722222
      ],
      [
       11.74416667,
       59.06083333
      ],
      [
       11.74111111,
       59.05527778
      ],
      [
       11.73888889,
       59.05333333
      ],
      [
       11.73638889,
       59.05111111
      ],
      [
       11.735,
       59.05
      ],
      [
       11.73388889,
       59.04916667
      ],
      [
       11.73111111,
       59.0475
      ],
      [
       11.72888889,
       59.04583333
      ],
      [
       11.7275,
       59.04444444
      ],
      [
       11.72444444,
       59.0425
      ],
      [
       11.72222222,
       59.04083333
      ],
      [
       11.72055556,
       59.03861111
      ],
      [
       11.71055556,
       59.03361111
      ],
      [
       11.70361111,
       59.01138889
      ],
      [
       11.70194444,
       59.00138889
      ],
      [
       11.69805556,
       58.99944444
      ],
      [
       11.69444444,
       58.99805556
      ],
      [
       11.69444444,
       58.99666667
      ],
      [
       11.69333333,
       58.99611111
      ],
      [
       11.69277778,
       58.99388889
      ],
      [
       11.69194444,
       58.99277778
      ],
      [
       11.68972222,
       58.99166667
      ],
      [
       11.68694444,
       58.99
      ],
      [
       11.68611111,
       58.98972222
      ],
      [
       11.685,
       58.98888889
      ],
      [
       11.68472222,
       58.98777778
      ],
      [
       11.69055556,
       58.98555556
      ],
      [
       11.69138889,
       58.98555556
      ],
      [
       11.69194444,
       58.985
      ],
      [
       11.69222222,
       58.98444444
      ],
      [
       11.69194444,
       58.98361111
      ],
      [
       11.69166667,
       58.9825
      ],
      [
       11.69166667,
       58.98138889
      ],
      [
       11.69222222,
       58.98055556
      ],
      [
       11.69277778,
       58.97916667
      ],
      [
       11.69305556,
       58.97722222
      ],
      [
       11.69166667,
       58.97694444
      ],
      [
       11.69,
       58.97694444
      ],
      [
       11.68805556,
       58.97638889
      ],
      [
       11.68666667,
       58.97555556
      ],
      [
       11.68583333,
       58.97416667
      ],
      [
       11.68638889,
       58.97305556
      ],
      [
       11.68805556,
       58.97277778
      ],
      [
       11.68888889,
       58.97166667
      ],
      [
       11.6875,
       58.96305556
      ],
      [
       11.68805556,
       58.95916667
      ],
      [
       11.68805556,
       58.95722222
      ],
      [
       11.6875,
       58.95527778
      ],
      [
       11.68416667,
       58.95333333
      ],
      [
       11.68222222,
       58.95194444
      ],
      [
       11.68166667,
       58.95083333
      ],
      [
       11.68166667,
       58.94944444
      ],
      [
       11.68194444,
       58.94777778
      ],
      [
       11.68138889,
       58.94611111
      ],
      [
       11.67972222,
       58.94555556
      ],
      [
       11.6775,
       58.94444444
      ],
      [
       11.67555556,
       58.94277778
      ],
      [
       11.67472222,
       58.94138889
      ],
      [
       11.67472222,
       58.94
      ],
      [
       11.67555556,
       58.9375
      ],
      [
       11.67583333,
       58.935
      ],
      [
       11.6725,
       58.93472222
      ],
      [
       11.50972222,
       59.50166667
      ],
      [
       11.58555556,
       59.61833333
      ],
      [
       11.77972222,
       59.64305556
      ]
     ]
    ]
   },
   "properties": {
    "lager": "Delegerat luftrum",
    "namn": "Area OSLOB",
    "typ": "DELEG",
    "beteckning": "ESAA",
    "plats": "Area OSLOB",
    "hojd": "FL 285–FL 660",
    "operator": "",
    "gäller_fr": "2026-06-11",
    "kommentar": "C"
   }
  },
  {
   "type": "Feature",
   "geometry": {
    "type": "Polygon",
    "coordinates": [
     [
      [
       14.49888889,
       65.51583333
      ],
      [
       14.49944444,
       65.49472222
      ],
      [
       14.50083333,
       65.44472222
      ],
      [
       14.50388889,
       65.35055556
      ],
      [
       14.50694444,
       65.30972222
      ],
      [
       14.37888889,
       65.2475
      ],
      [
       14.32583333,
       65.11888889
      ],
      [
       14.13,
       64.97861111
      ],
      [
       14.07722222,
       64.93888889
      ],
      [
       13.95666667,
       64.8425
      ],
      [
       14.49888889,
       65.51583333
      ]
     ]
    ]
   },
   "properties": {
    "lager": "Delegerat luftrum",
    "namn": "Area BORGE",
    "typ": "DELEG",
    "beteckning": "ESAA",
    "plats": "Area BORGE",
    "hojd": "FL 195–FL 660",
    "operator": "",
    "gäller_fr": "2026-06-11",
    "kommentar": "C"
   }
  },
  {
   "type": "Feature",
   "geometry": {
    "type": "Polygon",
    "coordinates": [
     [
      [
       13.73416667,
       64.55555556
      ],
      [
       13.37611111,
       64.07972222
      ],
      [
       13.71527778,
       64.04638889
      ],
      [
       13.9675,
       64.00805556
      ],
      [
       14.15722222,
       64.195
      ],
      [
       14.12666667,
       64.38694444
      ],
      [
       14.11888889,
       64.435
      ],
      [
       14.11388889,
       64.4625
      ],
      [
       14.08527778,
       64.47833333
      ],
      [
       14.05527778,
       64.48277778
      ],
      [
       13.89166667,
       64.50722222
      ],
      [
       13.73416667,
       64.55555556
      ]
     ]
    ]
   },
   "properties": {
    "lager": "Delegerat luftrum",
    "namn": "Area NORLI",
    "typ": "DELEG",
    "beteckning": "ESAA",
    "plats": "Area NORLI",
    "hojd": "FL 195–FL 660",
    "operator": "",
    "gäller_fr": "2026-06-11",
    "kommentar": "C"
   }
  },
  {
   "type": "Feature",
   "geometry": {
    "type": "Polygon",
    "coordinates": [
     [
      [
       12.68305556,
       61.06027778
      ],
      [
       12.5125,
       60.64277778
      ],
      [
       12.51111111,
       60.6425
      ],
      [
       12.46111111,
       60.68527778
      ],
      [
       12.39527778,
       60.73388889
      ],
      [
       12.34944444,
       60.81777778
      ],
      [
       12.33444444,
       60.85222222
      ],
      [
       12.33361111,
       60.86916667
      ],
      [
       12.33305556,
       60.88083333
      ],
      [
       12.33333333,
       60.89055556
      ],
      [
       12.22388889,
       61.01305556
      ],
      [
       12.23972222,
       61.01888889
      ],
      [
       12.25472222,
       61.02166667
      ],
      [
       12.4475,
       61.05083333
      ],
      [
       12.4875,
       61.05166667
      ],
      [
       12.54083333,
       61.04916667
      ],
      [
       12.6125,
       61.04694444
      ],
      [
       12.6575,
       61.05277778
      ],
      [
       12.67,
       61.05611111
      ],
      [
       12.67111111,
       61.05638889
      ],
      [
       12.68305556,
       61.06027778
      ]
     ]
    ]
   },
   "properties": {
    "lager": "Delegerat luftrum",
    "namn": "Area FINNSKOGEN 1",
    "typ": "DELEG",
    "beteckning": "ESAA",
    "plats": "Area FINNSKOGEN 1",
    "hojd": "FL 95–FL 660",
    "operator": "",
    "gäller_fr": "2026-06-11",
    "kommentar": "C ATS delegated to Norway. \nSee AIP Norway"
   }
  },
  {
   "type": "Feature",
   "geometry": {
    "type": "Polygon",
    "coordinates": [
     [
      [
       12.22194444,
       62.00722222
      ],
      [
       12.23333333,
       62
      ],
      [
       12.6125,
       61.53861111
      ],
      [
       12.56916667,
       61.56861111
      ],
      [
       12.49194444,
       61.56777778
      ],
      [
       12.44666667,
       61.56722222
      ],
      [
       12.41944444,
       61.56305556
      ],
      [
       12.36333333,
       61.60027778
      ],
      [
       12.34111111,
       61.61472222
      ],
      [
       12.315,
       61.625
      ],
      [
       12.27555556,
       61.64027778
      ],
      [
       12.19,
       61.69222222
      ],
      [
       12.1375,
       61.72388889
      ],
      [
       12.22194444,
       62.00722222
      ]
     ]
    ]
   },
   "properties": {
    "lager": "Delegerat luftrum",
    "namn": "Area NOR2",
    "typ": "DELEG",
    "beteckning": "ESAA",
    "plats": "Area NOR2",
    "hojd": "FL 95–FL 660",
    "operator": "",
    "gäller_fr": "2026-06-11",
    "kommentar": "C ATS delegated to Norway. \nSee AIP Norway"
   }
  },
  {
   "type": "Feature",
   "geometry": {
    "type": "Polygon",
    "coordinates": [
     [
      [
       12.99888889,
       55.24944444
      ],
      [
       13,
       54.91666667
      ],
      [
       12.85,
       54.91666667
      ],
      [
       12.69222222,
       55.23388889
      ],
      [
       12.99888889,
       55.24944444
      ]
     ]
    ]
   },
   "properties": {
    "lager": "Delegerat luftrum",
    "namn": "Area L3 class E",
    "typ": "DELEG",
    "beteckning": "ESAA",
    "plats": "Area L3 class E",
    "hojd": "3500–FL 95",
    "operator": "",
    "gäller_fr": "2026-06-11",
    "kommentar": "E"
   }
  },
  {
   "type": "Feature",
   "geometry": {
    "type": "Polygon",
    "coordinates": [
     [
      [
       17.28138889,
       68.11888889
      ],
      [
       17.44777778,
       68.08444444
      ],
      [
       16.35055556,
       67
      ],
      [
       16.24888889,
       67
      ],
      [
       16.38777778,
       67.04555556
      ],
      [
       16.4025,
       67.19027778
      ],
      [
       16.40416667,
       67.205
      ],
      [
       16.08972222,
       67.43527778
      ],
      [
       16.15805556,
       67.51916667
      ],
      [
       16.40777778,
       67.53416667
      ],
      [
       16.41333333,
       67.54805556
      ],
      [
       16.495,
       67.59444444
      ],
      [
       16.55638889,
       67.64722222
      ],
      [
       16.63805556,
       67.76694444
      ],
      [
       16.67888889,
       67.82444444
      ],
      [
       16.73222222,
       67.90555556
      ],
      [
       16.73805556,
       67.91416667
      ],
      [
       16.95388889,
       67.98444444
      ],
      [
       17.18055556,
       68.05027778
      ],
      [
       17.19222222,
       68.06444444
      ],
      [
       17.28138889,
       68.11888889
      ]
     ]
    ]
   },
   "properties": {
    "lager": "Delegerat luftrum",
    "namn": "Area SILVER, northern part",
    "typ": "DELEG",
    "beteckning": "ESAA",
    "plats": "Area SILVER, northern part",
    "hojd": "FL 125–FL 660",
    "operator": "",
    "gäller_fr": "2026-06-11",
    "kommentar": "C ATS delegated to Norway. \nSee AIP Norway"
   }
  },
  {
   "type": "Feature",
   "geometry": {
    "type": "Polygon",
    "coordinates": [
     [
      [
       16.24888889,
       67
      ],
      [
       16.35055556,
       67
      ],
      [
       16.22583333,
       66.86972222
      ],
      [
       16.10222222,
       66.73916667
      ],
      [
       15.98,
       66.60888889
      ],
      [
       15.85916667,
       66.47805556
      ],
      [
       15.73944444,
       66.3475
      ],
      [
       15.62111111,
       66.21666667
      ],
      [
       15.50388889,
       66.08583333
      ],
      [
       15.34805556,
       66.10861111
      ],
      [
       15.19222222,
       66.13111111
      ],
      [
       15.03527778,
       66.15333333
      ],
      [
       15.185,
       66.19666667
      ],
      [
       15.33444444,
       66.23972222
      ],
      [
       15.48472222,
       66.2825
      ],
      [
       15.44916667,
       66.36277778
      ],
      [
       15.37722222,
       66.48444444
      ],
      [
       15.45111111,
       66.52388889
      ],
      [
       15.62138889,
       66.59444444
      ],
      [
       15.73555556,
       66.68138889
      ],
      [
       15.76777778,
       66.70583333
      ],
      [
       15.86138889,
       66.77472222
      ],
      [
       15.99361111,
       66.87333333
      ],
      [
       16.03916667,
       66.91222222
      ],
      [
       16.19388889,
       66.98222222
      ],
      [
       16.24888889,
       67
      ]
     ]
    ]
   },
   "properties": {
    "lager": "Delegerat luftrum",
    "namn": "Area SILVER, southern part",
    "typ": "DELEG",
    "beteckning": "ESAA",
    "plats": "Area SILVER, southern part",
    "hojd": "FL 95–FL 660",
    "operator": "",
    "gäller_fr": "2026-06-11",
    "kommentar": "C ATS delegated to Norway. \nSee AIP Norway"
   }
  },
  {
   "type": "Feature",
   "geometry": {
    "type": "Polygon",
    "coordinates": [
     [
      [
       11.98416667,
       59.90055556
      ],
      [
       11.94444444,
       59.89055556
      ],
      [
       11.93361111,
       59.88694444
      ],
      [
       11.93111111,
       59.88638889
      ],
      [
       11.9275,
       59.88555556
      ],
      [
       11.92305556,
       59.88333333
      ],
      [
       11.92055556,
       59.88194444
      ],
      [
       11.91972222,
       59.88083333
      ],
      [
       11.92027778,
       59.87777778
      ],
      [
       11.92083333,
       59.87583333
      ],
      [
       11.92027778,
       59.87472222
      ],
      [
       11.91916667,
       59.87388889
      ],
      [
       11.91611111,
       59.87277778
      ],
      [
       11.91138889,
       59.87194444
      ],
      [
       11.90111111,
       59.87194444
      ],
      [
       11.89833333,
       59.87222222
      ],
      [
       11.89722222,
       59.87138889
      ],
      [
       11.89555556,
       59.87111111
      ],
      [
       11.89444444,
       59.87138889
      ],
      [
       11.89361111,
       59.87166667
      ],
      [
       11.89138889,
       59.87194444
      ],
      [
       11.88805556,
       59.87222222
      ],
      [
       11.88555556,
       59.87194444
      ],
      [
       11.88333333,
       59.87111111
      ],
      [
       11.8825,
       59.86972222
      ],
      [
       11.88138889,
       59.86861111
      ],
      [
       11.88055556,
       59.8675
      ],
      [
       11.88138889,
       59.86638889
      ],
      [
       11.88166667,
       59.86583333
      ],
      [
       11.8825,
       59.86472222
      ],
      [
       11.8825,
       59.86333333
      ],
      [
       11.88444444,
       59.86277778
      ],
      [
       11.885,
       59.86166667
      ],
      [
       11.88583333,
       59.86083333
      ],
      [
       11.88666667,
       59.85916667
      ],
      [
       11.88666667,
       59.85833333
      ],
      [
       11.88555556,
       59.85777778
      ],
      [
       11.88416667,
       59.85694444
      ],
      [
       11.88083333,
       59.85472222
      ],
      [
       11.87916667,
       59.85388889
      ],
      [
       11.87722222,
       59.85333333
      ],
      [
       11.875,
       59.8525
      ],
      [
       11.87333333,
       59.85166667
      ],
      [
       11.87111111,
       59.85027778
      ],
      [
       11.86861111,
       59.84944444
      ],
      [
       11.86555556,
       59.84888889
      ],
      [
       11.86305556,
       59.84777778
      ],
      [
       11.86138889,
       59.84722222
      ],
      [
       11.85944444,
       59.84694444
      ],
      [
       11.85833333,
       59.84638889
      ],
      [
       11.85583333,
       59.84527778
      ],
      [
       11.85416667,
       59.84472222
      ],
      [
       11.85222222,
       59.84444444
      ],
      [
       11.85138889,
       59.84444444
      ],
      [
       11.84972222,
       59.84416667
      ],
      [
       11.84666667,
       59.84333333
      ],
      [
       11.84416667,
       59.8425
      ],
      [
       11.84138889,
       59.84194444
      ],
      [
       11.84027778,
       59.84138889
      ],
      [
       11.84166667,
       59.83916667
      ],
      [
       11.84305556,
       59.83722222
      ],
      [
       11.85055556,
       59.8325
      ],
      [
       11.85472222,
       59.83055556
      ],
      [
       11.85861111,
       59.83
      ],
      [
       11.8625,
       59.82972222
      ],
      [
       11.86583333,
       59.82944444
      ],
      [
       11.86888889,
       59.82916667
      ],
      [
       11.87083333,
       59.82888889
      ],
      [
       11.87555556,
       59.82833333
      ],
      [
       11.87888889,
       59.82722222
      ],
      [
       11.88055556,
       59.82638889
      ],
      [
       11.88333333,
       59.82527778
      ],
      [
       11.88527778,
       59.82444444
      ],
      [
       11.88722222,
       59.82333333
      ],
      [
       11.89,
       59.82138889
      ],
      [
       11.89361111,
       59.81722222
      ],
      [
       11.895,
       59.81638889
      ],
      [
       11.89694444,
       59.81472222
      ],
      [
       11.89944444,
       59.81361111
      ],
      [
       11.90138889,
       59.81305556
      ],
      [
       11.90305556,
       59.81222222
      ],
      [
       11.90472222,
       59.81138889
      ],
      [
       11.90472222,
       59.81
      ],
      [
       11.90611111,
       59.80638889
      ],
      [
       11.90722222,
       59.80444444
      ],
      [
       11.90916667,
       59.80333333
      ],
      [
       11.91111111,
       59.80138889
      ],
      [
       11.91472222,
       59.79944444
      ],
      [
       11.91805556,
       59.79777778
      ],
      [
       11.92083333,
       59.79611111
      ],
      [
       11.92166667,
       59.79583333
      ],
      [
       11.92361111,
       59.79527778
      ],
      [
       11.925,
       59.79416667
      ],
      [
       11.92555556,
       59.79333333
      ],
      [
       11.92638889,
       59.79027778
      ],
      [
       11.92611111,
       59.78527778
      ],
      [
       11.92694444,
       59.78194444
      ],
      [
       11.92805556,
       59.77888889
      ],
      [
       11.93055556,
       59.77444444
      ],
      [
       11.93055556,
       59.77277778
      ],
      [
       11.93111111,
       59.77083333
      ],
      [
       11.93222222,
       59.76888889
      ],
      [
       11.93222222,
       59.76694444
      ],
      [
       11.93194444,
       59.76472222
      ],
      [
       11.93166667,
       59.76305556
      ],
      [
       11.93,
       59.7625
      ],
      [
       11.92944444,
       59.76194444
      ],
      [
       11.92972222,
       59.76138889
      ],
      [
       11.93194444,
       59.76083333
      ],
      [
       11.93277778,
       59.76027778
      ],
      [
       11.9325,
       59.75916667
      ],
      [
       11.92777778,
       59.75527778
      ],
      [
       11.92555556,
       59.75361111
      ],
      [
       11.92527778,
       59.7525
      ],
      [
       11.92472222,
       59.75138889
      ],
      [
       11.92444444,
       59.74944444
      ],
      [
       11.92555556,
       59.74694444
      ],
      [
       11.92722222,
       59.74416667
      ],
      [
       11.92861111,
       59.7425
      ],
      [
       11.93,
       59.74166667
      ],
      [
       11.9325,
       59.74055556
      ],
      [
       11.93361111,
       59.73916667
      ],
      [
       11.93361111,
       59.7375
      ],
      [
       11.93277778,
       59.735
      ],
      [
       11.93305556,
       59.73416667
      ],
      [
       11.93361111,
       59.73333333
      ],
      [
       11.93361111,
       59.73277778
      ],
      [
       11.93361111,
       59.73166667
      ],
      [
       11.93333333,
       59.73111111
      ],
      [
       11.93361111,
       59.73027778
      ],
      [
       11.93527778,
       59.72972222
      ],
      [
       11.93722222,
       59.72916667
      ],
      [
       11.93944444,
       59.72916667
      ],
      [
       11.94027778,
       59.72777778
      ],
      [
       11.93888889,
       59.72694444
      ],
      [
       11.93722222,
       59.72666667
      ],
      [
       11.93694444,
       59.72583333
      ],
      [
       11.93694444,
       59.72388889
      ],
      [
       11.93694444,
       59.71833333
      ],
      [
       11.93666667,
       59.71611111
      ],
      [
       11.93666667,
       59.715
      ],
      [
       11.93666667,
       59.71416667
      ],
      [
       11.93583333,
       59.71305556
      ],
      [
       11.93444444,
       59.71166667
      ],
      [
       11.93444444,
       59.71083333
      ],
      [
       11.93611111,
       59.71
      ],
      [
       11.93777778,
       59.70916667
      ],
      [
       11.93777778,
       59.70833333
      ],
      [
       11.93777778,
       59.70694444
      ],
      [
       11.93833333,
       59.70555556
      ],
      [
       11.93833333,
       59.70388889
      ],
      [
       11.9375,
       59.70194444
      ],
      [
       11.93833333,
       59.70027778
      ],
      [
       11.94055556,
       59.7
      ],
      [
       11.94194444,
       59.70055556
      ],
      [
       11.94361111,
       59.70027778
      ],
      [
       11.94388889,
       59.69944444
      ],
      [
       11.94305556,
       59.69861111
      ],
      [
       11.94166667,
       59.69777778
      ],
      [
       11.94083333,
       59.69694444
      ],
      [
       11.94111111,
       59.69583333
      ],
      [
       11.94027778,
       59.69472222
      ],
      [
       11.93138889,
       59.69444444
      ],
      [
       11.88916667,
       59.69333333
      ],
      [
       11.87833333,
       59.68305556
      ],
      [
       11.87527778,
       59.6725
      ],
      [
       11.87027778,
       59.6625
      ],
      [
       11.8625,
       59.65277778
      ],
      [
       11.85583333,
       59.64833333
      ],
      [
       11.78111111,
       59.64305556
      ],
      [
       11.72055556,
       59.62555556
      ],
      [
       11.71666667,
       59.6225
      ],
      [
       11.69805556,
       59.60888889
      ],
      [
       11.69111111,
       59.58944444
      ],
      [
       11.72861111,
       59.51111111
      ],
      [
       11.74555556,
       59.49305556
      ],
      [
       11.75305556,
       59.47944444
      ],
      [
       11.75833333,
       59.46583333
      ],
      [
       11.76,
       59.45805556
      ],
      [
       11.76111111,
       59.42861111
      ],
      [
       11.77416667,
       59.41416667
      ],
      [
       11.7775,
       59.39833333
      ],
      [
       11.78,
       59.38638889
      ],
      [
       11.79194444,
       59.37416667
      ],
      [
       11.79,
       59.37111111
      ],
      [
       11.79472222,
       59.36666667
      ],
      [
       11.90833333,
       59.48888889
      ],
      [
       12.10861111,
       59.78027778
      ],
      [
       12.09888889,
       59.89055556
      ],
      [
       12.05333333,
       59.88611111
      ],
      [
       12.02416667,
       59.89111111
      ],
      [
       11.98583333,
       59.89888889
      ],
      [
       11.98416667,
       59.90055556
      ]
     ]
    ]
   },
   "properties": {
    "lager": "Delegerat luftrum",
    "namn": "Area BOHUS a",
    "typ": "DELEG",
    "beteckning": "ESAA",
    "plats": "Area BOHUS a",
    "hojd": "FL 215–FL 285",
    "operator": "",
    "gäller_fr": "2026-06-11",
    "kommentar": "C ATS delegated to Norway. \nSee AIP Norway"
   }
  },
  {
   "type": "Feature",
   "geometry": {
    "type": "Polygon",
    "coordinates": [
     [
      [
       11.90833333,
       59.48888889
      ],
      [
       11.89277778,
       59.35
      ],
      [
       11.8775,
       59.21083333
      ],
      [
       11.86222222,
       59.07194444
      ],
      [
       11.80527778,
       59.00916667
      ],
      [
       11.74833333,
       58.94611111
      ],
      [
       11.69166667,
       58.88333333
      ],
      [
       11.51277778,
       58.86972222
      ],
      [
       11.33416667,
       58.85555556
      ],
      [
       11.15583333,
       58.84138889
      ],
      [
       11.0275,
       58.875
      ],
      [
       11.25694444,
       58.89583333
      ],
      [
       11.4575,
       58.88833333
      ],
      [
       11.46361111,
       58.88972222
      ],
      [
       11.48305556,
       58.89138889
      ],
      [
       11.48583333,
       58.89111111
      ],
      [
       11.48944444,
       58.89
      ],
      [
       11.4925,
       58.88888889
      ],
      [
       11.49472222,
       58.88861111
      ],
      [
       11.49777778,
       58.88888889
      ],
      [
       11.50166667,
       58.88888889
      ],
      [
       11.51,
       58.88527778
      ],
      [
       11.51444444,
       58.88222222
      ],
      [
       11.51583333,
       58.88138889
      ],
      [
       11.51694444,
       58.88138889
      ],
      [
       11.5175,
       58.88111111
      ],
      [
       11.5175,
       58.87972222
      ],
      [
       11.51972222,
       58.87888889
      ],
      [
       11.52277778,
       58.87861111
      ],
      [
       11.52472222,
       58.87805556
      ],
      [
       11.52555556,
       58.87777778
      ],
      [
       11.52861111,
       58.8775
      ],
      [
       11.53305556,
       58.87861111
      ],
      [
       11.53416667,
       58.87861111
      ],
      [
       11.535,
       58.87833333
      ],
      [
       11.53777778,
       58.87805556
      ],
      [
       11.53861111,
       58.87888889
      ],
      [
       11.53888889,
       58.88055556
      ],
      [
       11.53916667,
       58.88194444
      ],
      [
       11.53861111,
       58.88277778
      ],
      [
       11.5375,
       58.88388889
      ],
      [
       11.53555556,
       58.88472222
      ],
      [
       11.53611111,
       58.88527778
      ],
      [
       11.53694444,
       58.88555556
      ],
      [
       11.53805556,
       58.88555556
      ],
      [
       11.53916667,
       58.88611111
      ],
      [
       11.54055556,
       58.8875
      ],
      [
       11.5425,
       58.88805556
      ],
      [
       11.54416667,
       58.89027778
      ],
      [
       11.54583333,
       58.89222222
      ],
      [
       11.54583333,
       58.89361111
      ],
      [
       11.54777778,
       58.89527778
      ],
      [
       11.54888889,
       58.89555556
      ],
      [
       11.55027778,
       58.89694444
      ],
      [
       11.55194444,
       58.8975
      ],
      [
       11.5525,
       58.89805556
      ],
      [
       11.55583333,
       58.89861111
      ],
      [
       11.55666667,
       58.89861111
      ],
      [
       11.55722222,
       58.89833333
      ],
      [
       11.55833333,
       58.8975
      ],
      [
       11.56194444,
       58.89611111
      ],
      [
       11.56277778,
       58.89444444
      ],
      [
       11.56361111,
       58.89361111
      ],
      [
       11.56472222,
       58.89277778
      ],
      [
       11.56527778,
       58.89222222
      ],
      [
       11.56555556,
       58.89166667
      ],
      [
       11.56777778,
       58.89027778
      ],
      [
       11.56972222,
       58.88916667
      ],
      [
       11.56972222,
       58.88861111
      ],
      [
       11.57055556,
       58.88833333
      ],
      [
       11.57277778,
       58.88805556
      ],
      [
       11.57388889,
       58.88888889
      ],
      [
       11.57416667,
       58.89
      ],
      [
       11.57527778,
       58.89166667
      ],
      [
       11.57666667,
       58.89388889
      ],
      [
       11.57722222,
       58.89611111
      ],
      [
       11.5775,
       58.89694444
      ],
      [
       11.57833333,
       58.89722222
      ],
      [
       11.57888889,
       58.89722222
      ],
      [
       11.58055556,
       58.89611111
      ],
      [
       11.58166667,
       58.89527778
      ],
      [
       11.58277778,
       58.89444444
      ],
      [
       11.58333333,
       58.89416667
      ],
      [
       11.585,
       58.89416667
      ],
      [
       11.58611111,
       58.89416667
      ],
      [
       11.58805556,
       58.89222222
      ],
      [
       11.59055556,
       58.89083333
      ],
      [
       11.60111111,
       58.895
      ],
      [
       11.63138889,
       58.90833333
      ],
      [
       11.65194444,
       58.90611111
      ],
      [
       11.65666667,
       58.92194444
      ],
      [
       11.65611111,
       58.92472222
      ],
      [
       11.65638889,
       58.92583333
      ],
      [
       11.65694444,
       58.92666667
      ],
      [
       11.66,
       58.92777778
      ],
      [
       11.65916667,
       58.92972222
      ],
      [
       11.65972222,
       58.93166667
      ],
      [
       11.66027778,
       58.93305556
      ],
      [
       11.66333333,
       58.93416667
      ],
      [
       11.66638889,
       58.93472222
      ],
      [
       11.67083333,
       58.93472222
      ],
      [
       11.67583333,
       58.935
      ],
      [
       11.67555556,
       58.9375
      ],
      [
       11.67472222,
       58.94
      ],
      [
       11.67472222,
       58.94138889
      ],
      [
       11.67555556,
       58.94277778
      ],
      [
       11.6775,
       58.94444444
      ],
      [
       11.67972222,
       58.94555556
      ],
      [
       11.68138889,
       58.94611111
      ],
      [
       11.68194444,
       58.94777778
      ],
      [
       11.68166667,
       58.94944444
      ],
      [
       11.68166667,
       58.95083333
      ],
      [
       11.68222222,
       58.95194444
      ],
      [
       11.68416667,
       58.95333333
      ],
      [
       11.6875,
       58.95527778
      ],
      [
       11.68805556,
       58.95722222
      ],
      [
       11.68805556,
       58.95916667
      ],
      [
       11.6875,
       58.96305556
      ],
      [
       11.68888889,
       58.97166667
      ],
      [
       11.68805556,
       58.97277778
      ],
      [
       11.68638889,
       58.97305556
      ],
      [
       11.68583333,
       58.97416667
      ],
      [
       11.68666667,
       58.97555556
      ],
      [
       11.68805556,
       58.97638889
      ],
      [
       11.69,
       58.97694444
      ],
      [
       11.69166667,
       58.97694444
      ],
      [
       11.69305556,
       58.97722222
      ],
      [
       11.69277778,
       58.97916667
      ],
      [
       11.69222222,
       58.98055556
      ],
      [
       11.69166667,
       58.98138889
      ],
      [
       11.69166667,
       58.9825
      ],
      [
       11.69194444,
       58.98361111
      ],
      [
       11.69222222,
       58.98444444
      ],
      [
       11.69194444,
       58.985
      ],
      [
       11.69138889,
       58.98555556
      ],
      [
       11.69055556,
       58.98555556
      ],
      [
       11.68472222,
       58.98777778
      ],
      [
       11.685,
       58.98888889
      ],
      [
       11.68611111,
       58.98972222
      ],
      [
       11.68694444,
       58.99
      ],
      [
       11.68972222,
       58.99166667
      ],
      [
       11.69194444,
       58.99277778
      ],
      [
       11.69277778,
       58.99388889
      ],
      [
       11.69333333,
       58.99611111
      ],
      [
       11.69444444,
       58.99666667
      ],
      [
       11.69444444,
       58.99805556
      ],
      [
       11.69805556,
       58.99944444
      ],
      [
       11.70194444,
       59.00138889
      ],
      [
       11.70361111,
       59.01138889
      ],
      [
       11.71055556,
       59.03361111
      ],
      [
       11.72055556,
       59.03861111
      ],
      [
       11.72222222,
       59.04083333
      ],
      [
       11.72444444,
       59.0425
      ],
      [
       11.7275,
       59.04444444
      ],
      [
       11.72888889,
       59.04583333
      ],
      [
       11.73111111,
       59.0475
      ],
      [
       11.73388889,
       59.04916667
      ],
      [
       11.735,
       59.05
      ],
      [
       11.73638889,
       59.05111111
      ],
      [
       11.73888889,
       59.05333333
      ],
      [
       11.74111111,
       59.05527778
      ],
      [
       11.74416667,
       59.06083333
      ],
      [
       11.74916667,
       59.06722222
      ],
      [
       11.75194444,
       59.07027778
      ],
      [
       11.75805556,
       59.07472222
      ],
      [
       11.76333333,
       59.07861111
      ],
      [
       11.76833333,
       59.0825
      ],
      [
       11.77083333,
       59.08444444
      ],
      [
       11.77166667,
       59.08527778
      ],
      [
       11.77333333,
       59.08555556
      ],
      [
       11.775,
       59.08638889
      ],
      [
       11.77611111,
       59.08805556
      ],
      [
       11.77722222,
       59.08972222
      ],
      [
       11.77694444,
       59.09194444
      ],
      [
       11.77694444,
       59.09444444
      ],
      [
       11.77722222,
       59.09611111
      ],
      [
       11.77722222,
       59.09666667
      ],
      [
       11.77888889,
       59.09777778
      ],
      [
       11.78027778,
       59.09861111
      ],
      [
       11.78,
       59.09916667
      ],
      [
       11.78,
       59.10027778
      ],
      [
       11.77805556,
       59.10166667
      ],
      [
       11.77666667,
       59.10305556
      ],
      [
       11.77611111,
       59.105
      ],
      [
       11.775,
       59.1075
      ],
      [
       11.77361111,
       59.10944444
      ],
      [
       11.77166667,
       59.11027778
      ],
      [
       11.76944444,
       59.11111111
      ],
      [
       11.76888889,
       59.11194444
      ],
      [
       11.76833333,
       59.11305556
      ],
      [
       11.76805556,
       59.11388889
      ],
      [
       11.76666667,
       59.11444444
      ],
      [
       11.76361111,
       59.11472222
      ],
      [
       11.76944444,
       59.12666667
      ],
      [
       11.77805556,
       59.13611111
      ],
      [
       11.77472222,
       59.17055556
      ],
      [
       11.78166667,
       59.19305556
      ],
      [
       11.78305556,
       59.19583333
      ],
      [
       11.78305556,
       59.19888889
      ],
      [
       11.78305556,
       59.20361111
      ],
      [
       11.78305556,
       59.20666667
      ],
      [
       11.78555556,
       59.21138889
      ],
      [
       11.78888889,
       59.21416667
      ],
      [
       11.79638889,
       59.21944444
      ],
      [
       11.79805556,
       59.22111111
      ],
      [
       11.79944444,
       59.22388889
      ],
      [
       11.80111111,
       59.22555556
      ],
      [
       11.81194444,
       59.23194444
      ],
      [
       11.82638889,
       59.23777778
      ],
      [
       11.82944444,
       59.23916667
      ],
      [
       11.83,
       59.24111111
      ],
      [
       11.82138889,
       59.30138889
      ],
      [
       11.82111111,
       59.30277778
      ],
      [
       11.82166667,
       59.31166667
      ],
      [
       11.81805556,
       59.33277778
      ],
      [
       11.81611111,
       59.34472222
      ],
      [
       11.80805556,
       59.35416667
      ],
      [
       11.79444444,
       59.36666667
      ],
      [
       11.90833333,
       59.48888889
      ]
     ]
    ]
   },
   "properties": {
    "lager": "Delegerat luftrum",
    "namn": "Area BOHUS b",
    "typ": "DELEG",
    "beteckning": "ESAA",
    "plats": "Area BOHUS b",
    "hojd": "FL 95–FL 285",
    "operator": "",
    "gäller_fr": "2026-06-11",
    "kommentar": "C ATS delegated to Norway. \nSee AIP Norway"
   }
  },
  {
   "type": "Feature",
   "geometry": {
    "type": "Polygon",
    "coordinates": [
     [
      [
       11.33972222,
       59.11444444
      ],
      [
       11.34305556,
       59.11361111
      ],
      [
       11.33972222,
       59.11444444
      ],
      [
       11.34138889,
       59.11388889
      ],
      [
       11.34305556,
       59.11361111
      ],
      [
       11.36194444,
       59.10194444
      ],
      [
       11.36694444,
       59.09916667
      ],
      [
       11.37111111,
       59.09583333
      ],
      [
       11.3925,
       59.07277778
      ],
      [
       11.40194444,
       59.05777778
      ],
      [
       11.41333333,
       59.04083333
      ],
      [
       11.415,
       59.03944444
      ],
      [
       11.41833333,
       59.03722222
      ],
      [
       11.41944444,
       59.03611111
      ],
      [
       11.4275,
       59.03
      ],
      [
       11.43027778,
       59.02861111
      ],
      [
       11.44,
       59.01611111
      ],
      [
       11.45305556,
       59.00277778
      ],
      [
       11.4575,
       58.99833333
      ],
      [
       11.46472222,
       58.99111111
      ],
      [
       11.45388889,
       58.98555556
      ],
      [
       11.4625,
       58.97305556
      ],
      [
       11.45972222,
       58.9525
      ],
      [
       11.46361111,
       58.93333333
      ],
      [
       11.45638889,
       58.91666667
      ],
      [
       11.45611111,
       58.88972222
      ],
      [
       11.4575,
       58.88833333
      ],
      [
       11.25694444,
       58.89583333
      ],
      [
       11.0275,
       58.875
      ],
      [
       10.84444444,
       58.92944444
      ],
      [
       10.91694444,
       58.9425
      ],
      [
       10.92555556,
       58.94444444
      ],
      [
       10.98388889,
       58.96027778
      ],
      [
       10.9925,
       58.96194444
      ],
      [
       11.03111111,
       58.96944444
      ],
      [
       11.04611111,
       58.9725
      ],
      [
       11.05638889,
       58.97472222
      ],
      [
       11.05916667,
       58.975
      ],
      [
       11.06361111,
       58.97611111
      ],
      [
       11.06666667,
       58.9775
      ],
      [
       11.07166667,
       58.98027778
      ],
      [
       11.08083333,
       58.98527778
      ],
      [
       11.08166667,
       58.98555556
      ],
      [
       11.09138889,
       58.99055556
      ],
      [
       11.1125,
       59.00972222
      ],
      [
       11.11722222,
       59.01361111
      ],
      [
       11.11944444,
       59.01861111
      ],
      [
       11.15333333,
       59.0775
      ],
      [
       11.15611111,
       59.07916667
      ],
      [
       11.22055556,
       59.08694444
      ],
      [
       11.22777778,
       59.08805556
      ],
      [
       11.24,
       59.09111111
      ],
      [
       11.24805556,
       59.09361111
      ],
      [
       11.25972222,
       59.09666667
      ],
      [
       11.26861111,
       59.09777778
      ],
      [
       11.28611111,
       59.09888889
      ],
      [
       11.28888889,
       59.09944444
      ],
      [
       11.29611111,
       59.10277778
      ],
      [
       11.3025,
       59.10611111
      ],
      [
       11.32305556,
       59.11111111
      ],
      [
       11.33611111,
       59.11388889
      ],
      [
       11.33972222,
       59.11444444
      ]
     ]
    ]
   },
   "properties": {
    "lager": "Delegerat luftrum",
    "namn": "Area BOHUS c",
    "typ": "DELEG",
    "beteckning": "ESAA",
    "plats": "Area BOHUS c",
    "hojd": "FL 115–FL 285",
    "operator": "",
    "gäller_fr": "2026-06-11",
    "kommentar": "C ATS delegated to Norway. \nSee AIP Norway"
   }
  },
  {
   "type": "Feature",
   "geometry": {
    "type": "Polygon",
    "coordinates": [
     [
      [
       13.76083333,
       54.91666667
      ],
      [
       14.3575,
       54.91666667
      ],
      [
       14.32472222,
       54.66666667
      ],
      [
       13.76083333,
       54.91666667
      ]
     ]
    ]
   },
   "properties": {
    "lager": "Delegerat luftrum",
    "namn": "Area ROENNE SOUTH WEST",
    "typ": "DELEG",
    "beteckning": "ESAA",
    "plats": "Area ROENNE SOUTH WEST",
    "hojd": "FL 105–FL 660",
    "operator": "",
    "gäller_fr": "2026-06-11",
    "kommentar": "C"
   }
  },
  {
   "type": "Feature",
   "geometry": {
    "type": "Polygon",
    "coordinates": [
     [
      [
       11.98416667,
       59.90055556
      ],
      [
       11.94444444,
       59.89055556
      ],
      [
       11.93361111,
       59.88694444
      ],
      [
       11.93111111,
       59.88638889
      ],
      [
       11.9275,
       59.88555556
      ],
      [
       11.92305556,
       59.88333333
      ],
      [
       11.92055556,
       59.88194444
      ],
      [
       11.91972222,
       59.88083333
      ],
      [
       11.92027778,
       59.87777778
      ],
      [
       11.92083333,
       59.87583333
      ],
      [
       11.92027778,
       59.87472222
      ],
      [
       11.91916667,
       59.87388889
      ],
      [
       11.91611111,
       59.87277778
      ],
      [
       11.91138889,
       59.87194444
      ],
      [
       11.90111111,
       59.87194444
      ],
      [
       11.89833333,
       59.87222222
      ],
      [
       11.89722222,
       59.87138889
      ],
      [
       11.89555556,
       59.87111111
      ],
      [
       11.89444444,
       59.87138889
      ],
      [
       11.89361111,
       59.87166667
      ],
      [
       11.89138889,
       59.87194444
      ],
      [
       11.88805556,
       59.87222222
      ],
      [
       11.88555556,
       59.87194444
      ],
      [
       11.88333333,
       59.87111111
      ],
      [
       11.8825,
       59.86972222
      ],
      [
       11.88138889,
       59.86861111
      ],
      [
       11.88055556,
       59.8675
      ],
      [
       11.88138889,
       59.86638889
      ],
      [
       11.88166667,
       59.86583333
      ],
      [
       11.8825,
       59.86472222
      ],
      [
       11.8825,
       59.86333333
      ],
      [
       11.88444444,
       59.86277778
      ],
      [
       11.885,
       59.86166667
      ],
      [
       11.88583333,
       59.86083333
      ],
      [
       11.88666667,
       59.85916667
      ],
      [
       11.88666667,
       59.85833333
      ],
      [
       11.88555556,
       59.85777778
      ],
      [
       11.88416667,
       59.85694444
      ],
      [
       11.88083333,
       59.85472222
      ],
      [
       11.87916667,
       59.85388889
      ],
      [
       11.87722222,
       59.85333333
      ],
      [
       11.875,
       59.8525
      ],
      [
       11.87333333,
       59.85166667
      ],
      [
       11.87111111,
       59.85027778
      ],
      [
       11.86861111,
       59.84944444
      ],
      [
       11.86555556,
       59.84888889
      ],
      [
       11.86305556,
       59.84777778
      ],
      [
       11.86138889,
       59.84722222
      ],
      [
       11.85944444,
       59.84694444
      ],
      [
       11.85833333,
       59.84638889
      ],
      [
       11.85583333,
       59.84527778
      ],
      [
       11.85416667,
       59.84472222
      ],
      [
       11.85222222,
       59.84444444
      ],
      [
       11.85138889,
       59.84444444
      ],
      [
       11.84972222,
       59.84416667
      ],
      [
       11.84666667,
       59.84333333
      ],
      [
       11.84416667,
       59.8425
      ],
      [
       11.84138889,
       59.84194444
      ],
      [
       11.84027778,
       59.84138889
      ],
      [
       11.84166667,
       59.83916667
      ],
      [
       11.84305556,
       59.83722222
      ],
      [
       11.85055556,
       59.8325
      ],
      [
       11.85472222,
       59.83055556
      ],
      [
       11.85861111,
       59.83
      ],
      [
       11.8625,
       59.82972222
      ],
      [
       11.86583333,
       59.82944444
      ],
      [
       11.86888889,
       59.82916667
      ],
      [
       11.87083333,
       59.82888889
      ],
      [
       11.87555556,
       59.82833333
      ],
      [
       11.87888889,
       59.82722222
      ],
      [
       11.88055556,
       59.82638889
      ],
      [
       11.88333333,
       59.82527778
      ],
      [
       11.88527778,
       59.82444444
      ],
      [
       11.88722222,
       59.82333333
      ],
      [
       11.89,
       59.82138889
      ],
      [
       11.89361111,
       59.81722222
      ],
      [
       11.895,
       59.81638889
      ],
      [
       11.89694444,
       59.81472222
      ],
      [
       11.89944444,
       59.81361111
      ],
      [
       11.90138889,
       59.81305556
      ],
      [
       11.90305556,
       59.81222222
      ],
      [
       11.90472222,
       59.81138889
      ],
      [
       11.90472222,
       59.81
      ],
      [
       11.90611111,
       59.80638889
      ],
      [
       11.90722222,
       59.80444444
      ],
      [
       11.90916667,
       59.80333333
      ],
      [
       11.91111111,
       59.80138889
      ],
      [
       11.91472222,
       59.79944444
      ],
      [
       11.91805556,
       59.79777778
      ],
      [
       11.92083333,
       59.79611111
      ],
      [
       11.92166667,
       59.79583333
      ],
      [
       11.92361111,
       59.79527778
      ],
      [
       11.925,
       59.79416667
      ],
      [
       11.92555556,
       59.79333333
      ],
      [
       11.92638889,
       59.79027778
      ],
      [
       11.92611111,
       59.78527778
      ],
      [
       11.92694444,
       59.78194444
      ],
      [
       11.92805556,
       59.77888889
      ],
      [
       11.93055556,
       59.77444444
      ],
      [
       11.93055556,
       59.77277778
      ],
      [
       11.93111111,
       59.77083333
      ],
      [
       11.93222222,
       59.76888889
      ],
      [
       11.93222222,
       59.76694444
      ],
      [
       11.93194444,
       59.76472222
      ],
      [
       11.93166667,
       59.76305556
      ],
      [
       11.93,
       59.7625
      ],
      [
       11.92944444,
       59.76194444
      ],
      [
       11.92972222,
       59.76138889
      ],
      [
       11.93194444,
       59.76083333
      ],
      [
       11.93277778,
       59.76027778
      ],
      [
       11.9325,
       59.75916667
      ],
      [
       11.92777778,
       59.75527778
      ],
      [
       11.92555556,
       59.75361111
      ],
      [
       11.92527778,
       59.7525
      ],
      [
       11.92472222,
       59.75138889
      ],
      [
       11.92444444,
       59.74944444
      ],
      [
       11.92555556,
       59.74694444
      ],
      [
       11.92722222,
       59.74416667
      ],
      [
       11.92861111,
       59.7425
      ],
      [
       11.93,
       59.74166667
      ],
      [
       11.9325,
       59.74055556
      ],
      [
       11.93361111,
       59.73916667
      ],
      [
       11.93361111,
       59.7375
      ],
      [
       11.93277778,
       59.735
      ],
      [
       11.93305556,
       59.73416667
      ],
      [
       11.93361111,
       59.73333333
      ],
      [
       11.93361111,
       59.73277778
      ],
      [
       11.93361111,
       59.73166667
      ],
      [
       11.93333333,
       59.73111111
      ],
      [
       11.93361111,
       59.73027778
      ],
      [
       11.93527778,
       59.72972222
      ],
      [
       11.93722222,
       59.72916667
      ],
      [
       11.93944444,
       59.72916667
      ],
      [
       11.94027778,
       59.72777778
      ],
      [
       11.93888889,
       59.72694444
      ],
      [
       11.93722222,
       59.72666667
      ],
      [
       11.93694444,
       59.72583333
      ],
      [
       11.93694444,
       59.72388889
      ],
      [
       11.93694444,
       59.71833333
      ],
      [
       11.93666667,
       59.71611111
      ],
      [
       11.93666667,
       59.715
      ],
      [
       11.93666667,
       59.71416667
      ],
      [
       11.93583333,
       59.71305556
      ],
      [
       11.93444444,
       59.71166667
      ],
      [
       11.93444444,
       59.71083333
      ],
      [
       11.93611111,
       59.71
      ],
      [
       11.93777778,
       59.70916667
      ],
      [
       11.93777778,
       59.70833333
      ],
      [
       11.93777778,
       59.70694444
      ],
      [
       11.93833333,
       59.70555556
      ],
      [
       11.93833333,
       59.70388889
      ],
      [
       11.9375,
       59.70194444
      ],
      [
       11.93833333,
       59.70027778
      ],
      [
       11.94055556,
       59.7
      ],
      [
       11.94194444,
       59.70055556
      ],
      [
       11.94361111,
       59.70027778
      ],
      [
       11.94388889,
       59.69944444
      ],
      [
       11.94305556,
       59.69861111
      ],
      [
       11.94166667,
       59.69777778
      ],
      [
       11.94083333,
       59.69694444
      ],
      [
       11.94111111,
       59.69583333
      ],
      [
       11.94027778,
       59.69472222
      ],
      [
       11.93138889,
       59.69444444
      ],
      [
       11.88916667,
       59.69333333
      ],
      [
       11.87833333,
       59.68305556
      ],
      [
       11.87527778,
       59.6725
      ],
      [
       11.87027778,
       59.6625
      ],
      [
       11.8625,
       59.65277778
      ],
      [
       11.85583333,
       59.64833333
      ],
      [
       11.78111111,
       59.64305556
      ],
      [
       11.72055556,
       59.62555556
      ],
      [
       11.71666667,
       59.6225
      ],
      [
       11.69805556,
       59.60888889
      ],
      [
       11.69111111,
       59.58944444
      ],
      [
       11.72527778,
       59.51805556
      ],
      [
       11.89444444,
       59.62777778
      ],
      [
       12.09888889,
       59.89055556
      ],
      [
       12.05333333,
       59.88611111
      ],
      [
       12.02416667,
       59.89111111
      ],
      [
       11.98583333,
       59.89888889
      ],
      [
       11.98416667,
       59.90055556
      ]
     ]
    ]
   },
   "properties": {
    "lager": "Delegerat luftrum",
    "namn": "Area Orje1",
    "typ": "DELEG",
    "beteckning": "ESAA",
    "plats": "Area Orje1",
    "hojd": "6500–FL 215",
    "operator": "",
    "gäller_fr": "2026-06-11",
    "kommentar": "C ATS delegated to Norway. \nSee AIP Norway"
   }
  },
  {
   "type": "Feature",
   "geometry": {
    "type": "Polygon",
    "coordinates": [
     [
      [
       12.09888889,
       59.89055556
      ],
      [
       12.10861111,
       59.78027778
      ],
      [
       11.90833333,
       59.48888889
      ],
      [
       11.79472222,
       59.36694444
      ],
      [
       11.79,
       59.37111111
      ],
      [
       11.79194444,
       59.37416667
      ],
      [
       11.78,
       59.38638889
      ],
      [
       11.7775,
       59.39833333
      ],
      [
       11.77416667,
       59.41416667
      ],
      [
       11.76111111,
       59.42861111
      ],
      [
       11.76,
       59.45805556
      ],
      [
       11.75833333,
       59.46583333
      ],
      [
       11.75305556,
       59.47944444
      ],
      [
       11.74555556,
       59.49305556
      ],
      [
       11.72861111,
       59.51111111
      ],
      [
       11.72527778,
       59.51805556
      ],
      [
       11.89444444,
       59.62777778
      ],
      [
       12.09888889,
       59.89055556
      ]
     ]
    ]
   },
   "properties": {
    "lager": "Delegerat luftrum",
    "namn": "Area Orje2",
    "typ": "DELEG",
    "beteckning": "ESAA",
    "plats": "Area Orje2",
    "hojd": "FL 95–FL 215",
    "operator": "",
    "gäller_fr": "2026-06-11",
    "kommentar": "C ATS delegated to Norway. \nSee AIP Norway"
   }
  },
  {
   "type": "Feature",
   "geometry": {
    "type": "Polygon",
    "coordinates": [
     [
      [
       17.55,
       55.85
      ],
      [
       18.39805556,
       55.29
      ],
      [
       16.23611111,
       55.13361111
      ],
      [
       17.55,
       55.85
      ]
     ]
    ]
   },
   "properties": {
    "lager": "Delegerat luftrum",
    "namn": "Area MIDSEA",
    "typ": "DELEG",
    "beteckning": "ESAA",
    "plats": "Area MIDSEA",
    "hojd": "FL 95–FL 460",
    "operator": "",
    "gäller_fr": "2026-06-11",
    "kommentar": "C"
   }
  },
  {
   "type": "Feature",
   "geometry": {
    "type": "Polygon",
    "coordinates": [
     [
      [
       14.59166667,
       54.76666667
      ],
      [
       14.6625,
       54.58333333
      ],
      [
       15.23333333,
       54.58333333
      ],
      [
       15.44833333,
       54.58583333
      ],
      [
       15.55333333,
       54.53166667
      ],
      [
       15.39611111,
       54.385
      ],
      [
       15.05583333,
       54.2625
      ],
      [
       14.28055556,
       54.33333333
      ],
      [
       14.33666667,
       54.75944444
      ],
      [
       14.59166667,
       54.76666667
      ]
     ]
    ]
   },
   "properties": {
    "lager": "Delegerat luftrum",
    "namn": "Area ROENNE SOUTH b",
    "typ": "DELEG",
    "beteckning": "ESAA",
    "plats": "Area ROENNE SOUTH b",
    "hojd": "FL 245–FL 460",
    "operator": "",
    "gäller_fr": "2026-06-11",
    "kommentar": "C"
   }
  },
  {
   "type": "Feature",
   "geometry": {
    "type": "Polygon",
    "coordinates": [
     [
      [
       14.3575,
       54.91666667
      ],
      [
       14.37083333,
       54.90694444
      ],
      [
       14.41055556,
       54.88
      ],
      [
       14.45611111,
       54.85638889
      ],
      [
       14.50638889,
       54.83638889
      ],
      [
       14.56083333,
       54.82055556
      ],
      [
       14.61833333,
       54.80861111
      ],
      [
       14.67805556,
       54.80111111
      ],
      [
       14.73861111,
       54.79833333
      ],
      [
       14.79972222,
       54.8
      ],
      [
       14.85972222,
       54.80638889
      ],
      [
       14.91777778,
       54.81694444
      ],
      [
       14.97305556,
       54.83194444
      ],
      [
       15.02472222,
       54.85083333
      ],
      [
       15.07138889,
       54.87361111
      ],
      [
       15.11277778,
       54.89944444
      ],
      [
       15.13527778,
       54.91666667
      ],
      [
       15.86666667,
       54.91666667
      ],
      [
       15.71916667,
       54.685
      ],
      [
       15.55333333,
       54.53166667
      ],
      [
       15.44833333,
       54.58583333
      ],
      [
       15.23333333,
       54.58333333
      ],
      [
       14.6625,
       54.58333333
      ],
      [
       14.59166667,
       54.76666667
      ],
      [
       14.33666667,
       54.75944444
      ],
      [
       14.3575,
       54.91666667
      ]
     ]
    ]
   },
   "properties": {
    "lager": "Delegerat luftrum",
    "namn": "Area ROENNE SOUTH a",
    "typ": "DELEG",
    "beteckning": "ESAA",
    "plats": "Area ROENNE SOUTH a",
    "hojd": "FL 195–FL 460",
    "operator": "",
    "gäller_fr": "2026-06-11",
    "kommentar": "C"
   }
  },
  {
   "type": "Feature",
   "geometry": {
    "type": "Polygon",
    "coordinates": [
     [
      [
       12.84222222,
       55.51694444
      ],
      [
       13.02694444,
       55.36694444
      ],
      [
       12.99888889,
       55.24944444
      ],
      [
       13,
       54.91666667
      ],
      [
       12.85,
       54.91666667
      ],
      [
       12.84222222,
       55.51694444
      ]
     ]
    ]
   },
   "properties": {
    "lager": "Delegerat luftrum",
    "namn": "Area H2 b",
    "typ": "DELEG",
    "beteckning": "ESAA",
    "plats": "Area H2 b",
    "hojd": "FL 195–FL 285",
    "operator": "",
    "gäller_fr": "2026-06-11",
    "kommentar": "C ATS delegated to ACC Koebenhavn.\nSee AIP Denmark"
   }
  }
 ]
}