{
 "type": "FeatureCollection",
 "metadata": {
  "source": "https://dronechart.lfv.se/geoserver/wfs",
  "provider": "LFV / Transportstyrelsen",
  "generated": "2026-07-03T17:06:52.104Z"
 },
 "features": [
  {
   "type": "Feature",
   "geometry": {
    "type": "Polygon",
    "coordinates": [
     [
      [
       22.60138889,
       67.47527778
      ],
      [
       23.54361111,
       67.28055556
      ],
      [
       23.54694444,
       67.17
      ],
      [
       23.66944444,
       67.06972222
      ],
      [
       23.52833333,
       66.96916667
      ],
      [
       22.26888889,
       67.23055556
      ],
      [
       22.60138889,
       67.47527778
      ]
     ]
    ]
   },
   "properties": {
    "lager": "Trafikinformationsområde (TIA)",
    "namn": "PAJALA TIA/RMZ",
    "typ": "TIA",
    "beteckning": "ESUP",
    "plats": "PAJALA TIA/RMZ",
    "hojd": "2000–5000",
    "operator": "",
    "gäller_fr": "2026-06-11",
    "kommentar": "G"
   }
  },
  {
   "type": "Feature",
   "geometry": {
    "type": "Polygon",
    "coordinates": [
     [
      [
       20.80277778,
       67.32694444
      ],
      [
       21.1875,
       67.2675
      ],
      [
       21.8025,
       67.02055556
      ],
      [
       21.46361111,
       66.85
      ],
      [
       20.82361111,
       66.95972222
      ],
      [
       20.21944444,
       67.17694444
      ],
      [
       20.3775,
       67.29611111
      ],
      [
       20.80277778,
       67.32694444
      ]
     ]
    ]
   },
   "properties": {
    "lager": "Trafikinformationsområde (TIA)",
    "namn": "GÄLLIVARE TIA/RMZ",
    "typ": "TIA",
    "beteckning": "ESNG",
    "plats": "GÄLLIVARE TIA/RMZ",
    "hojd": "1000–5000",
    "operator": "",
    "gäller_fr": "2026-06-11",
    "kommentar": "G"
   }
  },
  {
   "type": "Feature",
   "geometry": {
    "type": "Polygon",
    "coordinates": [
     [
      [
       17.97527778,
       63.3325
      ],
      [
       18.06083333,
       62.98055556
      ],
      [
       18.02583333,
       62.72888889
      ],
      [
       17.77472222,
       62.71388889
      ],
      [
       17.68638889,
       62.75194444
      ],
      [
       17.56416667,
       63.02222222
      ],
      [
       17.43888889,
       63.29388889
      ],
      [
       17.97527778,
       63.3325
      ]
     ]
    ]
   },
   "properties": {
    "lager": "Trafikinformationsområde (TIA)",
    "namn": "KRAMFORS TIA/RMZ",
    "typ": "TIA",
    "beteckning": "ESNK",
    "plats": "KRAMFORS TIA/RMZ",
    "hojd": "2400–5000",
    "operator": "",
    "gäller_fr": "2026-06-11",
    "kommentar": "G During hours when SUNDSVALL TMA is established part of TIA/RMZ that protrudes into TMA is controlled airspace."
   }
  },
  {
   "type": "Feature",
   "geometry": {
    "type": "Polygon",
    "coordinates": [
     [
      [
       14.52333333,
       61.26694444
      ],
      [
       14.88222222,
       61.01388889
      ],
      [
       14.91777778,
       60.64194444
      ],
      [
       14.61611111,
       60.55333333
      ],
      [
       14.17805556,
       60.90805556
      ],
      [
       14.22138889,
       61.21722222
      ],
      [
       14.52333333,
       61.26694444
      ]
     ]
    ]
   },
   "properties": {
    "lager": "Trafikinformationsområde (TIA)",
    "namn": "MORA TIA/RMZ",
    "typ": "TIA",
    "beteckning": "ESKM",
    "plats": "MORA TIA/RMZ",
    "hojd": "2900–5000",
    "operator": "",
    "gäller_fr": "2026-06-11",
    "kommentar": "G"
   }
  },
  {
   "type": "Feature",
   "geometry": {
    "type": "Polygon",
    "coordinates": [
     [
      [
       12.89666667,
       60.44222222
      ],
      [
       13.11444444,
       60.30888889
      ],
      [
       13.19888889,
       60.20583333
      ],
      [
       12.83444444,
       60.13083333
      ],
      [
       12.62166667,
       60.38583333
      ],
      [
       12.89666667,
       60.44222222
      ]
     ]
    ]
   },
   "properties": {
    "lager": "Trafikinformationsområde (TIA)",
    "namn": "TORSBY TIA/RMZ a",
    "typ": "TIA",
    "beteckning": "ESST",
    "plats": "TORSBY TIA/RMZ a",
    "hojd": "2600–5000",
    "operator": "",
    "gäller_fr": "2026-06-11",
    "kommentar": "G"
   }
  },
  {
   "type": "Feature",
   "geometry": {
    "type": "Polygon",
    "coordinates": [
     [
      [
       13.19888889,
       60.20583333
      ],
      [
       13.26861111,
       60.12
      ],
      [
       13.30666667,
       59.94361111
      ],
      [
       13.03361111,
       59.88777778
      ],
      [
       12.83444444,
       60.13083333
      ],
      [
       13.19888889,
       60.20583333
      ]
     ]
    ]
   },
   "properties": {
    "lager": "Trafikinformationsområde (TIA)",
    "namn": "TORSBY TIA/RMZ b",
    "typ": "TIA",
    "beteckning": "ESST",
    "plats": "TORSBY TIA/RMZ b",
    "hojd": "2100–5000",
    "operator": "",
    "gäller_fr": "2026-06-11",
    "kommentar": "G"
   }
  },
  {
   "type": "Feature",
   "geometry": {
    "type": "Polygon",
    "coordinates": [
     [
      [
       18.85638889,
       65.87888889
      ],
      [
       19.45527778,
       65.68527778
      ],
      [
       19.05222222,
       65.47166667
      ],
      [
       18.45277778,
       65.66444444
      ],
      [
       18.85638889,
       65.87888889
      ]
     ]
    ]
   },
   "properties": {
    "lager": "Trafikinformationsområde (TIA)",
    "namn": "ARVIDSJAUR TIA/RMZ a",
    "typ": "TIA",
    "beteckning": "ESNX",
    "plats": "ARVIDSJAUR TIA/RMZ a",
    "hojd": "3200–5000",
    "operator": "",
    "gäller_fr": "2026-06-11",
    "kommentar": "G"
   }
  },
  {
   "type": "Feature",
   "geometry": {
    "type": "Polygon",
    "coordinates": [
     [
      [
       16.62333333,
       59.60638889
      ],
      [
       16.75944444,
       59.60472222
      ],
      [
       16.86305556,
       59.51222222
      ],
      [
       16.92916667,
       59.40861111
      ],
      [
       16.86916667,
       59.30333333
      ],
      [
       16.83944444,
       59.25083333
      ],
      [
       16.86194444,
       59.21694444
      ],
      [
       16.78916667,
       59.09694444
      ],
      [
       16.64444444,
       59.09388889
      ],
      [
       16.57194444,
       59.20083333
      ],
      [
       16.55166667,
       59.50166667
      ],
      [
       16.62333333,
       59.60638889
      ]
     ]
    ]
   },
   "properties": {
    "lager": "Trafikinformationsområde (TIA)",
    "namn": "ESKILSTUNA TIA/RMZ",
    "typ": "TIA",
    "beteckning": "ESSU",
    "plats": "ESKILSTUNA TIA/RMZ",
    "hojd": "1500–4500",
    "operator": "",
    "gäller_fr": "2026-06-11",
    "kommentar": "G During hours when STOCKHOLM TMA sector Västerås is established ESSU TIA/RMZ is closed."
   }
  },
  {
   "type": "Feature",
   "geometry": {
    "type": "Polygon",
    "coordinates": [
     [
      [
       19.45527778,
       65.68527778
      ],
      [
       20.06638889,
       65.48277778
      ],
      [
       19.72111111,
       65.25055556
      ],
      [
       19.05222222,
       65.47166667
      ],
      [
       19.45527778,
       65.68527778
      ]
     ]
    ]
   },
   "properties": {
    "lager": "Trafikinformationsområde (TIA)",
    "namn": "ARVIDSJAUR TIA/RMZ b",
    "typ": "TIA",
    "beteckning": "ESNX",
    "plats": "ARVIDSJAUR TIA/RMZ b",
    "hojd": "2700–5000",
    "operator": "",
    "gäller_fr": "2026-06-11",
    "kommentar": "G"
   }
  },
  {
   "type": "Feature",
   "geometry": {
    "type": "Polygon",
    "coordinates": [
     [
      [
       13.74416667,
       60.32027778
      ],
      [
       13.80722222,
       59.745
      ],
      [
       13.39694444,
       59.73305556
      ],
      [
       13.32666667,
       60.30833333
      ],
      [
       13.74416667,
       60.32027778
      ]
     ]
    ]
   },
   "properties": {
    "lager": "Trafikinformationsområde (TIA)",
    "namn": "HAGFORS TIA/RMZ",
    "typ": "TIA",
    "beteckning": "ESOH",
    "plats": "HAGFORS TIA/RMZ",
    "hojd": "1000–5000",
    "operator": "",
    "gäller_fr": "2026-06-11",
    "kommentar": "G During hours when KARLSTAD TMA is established part of TIA/RMZ that protrudes into TMA is controlled airspace."
   }
  },
  {
   "type": "Feature",
   "geometry": {
    "type": "Polygon",
    "coordinates": [
     [
      [
       12.89666667,
       60.44222222
      ],
      [
       13.11444444,
       60.30888889
      ],
      [
       13.19888889,
       60.20583333
      ],
      [
       13.26861111,
       60.12
      ],
      [
       13.30666667,
       59.94361111
      ],
      [
       13.03361111,
       59.88777778
      ],
      [
       12.83444444,
       60.13083333
      ],
      [
       12.62166667,
       60.38583333
      ],
      [
       12.89666667,
       60.44222222
      ]
     ]
    ]
   },
   "properties": {
    "lager": "Trafikinformationsområde (TIA)",
    "namn": "TORSBY TIA/RMZ",
    "typ": "TIA",
    "beteckning": "ESST",
    "plats": "TORSBY TIA/RMZ",
    "hojd": "GND",
    "operator": "",
    "gäller_fr": "2026-06-11",
    "kommentar": "G"
   }
  },
  {
   "type": "Feature",
   "geometry": {
    "type": "Polygon",
    "coordinates": [
     [
      [
       13.80472222,
       62.20472222
      ],
      [
       15.03666667,
       62.20444444
      ],
      [
       15.02944444,
       61.865
      ],
      [
       13.81138889,
       61.86527778
      ],
      [
       13.80472222,
       62.20472222
      ]
     ]
    ]
   },
   "properties": {
    "lager": "Trafikinformationsområde (TIA)",
    "namn": "SVEG TIA/RMZ",
    "typ": "TIA",
    "beteckning": "ESND",
    "plats": "SVEG TIA/RMZ",
    "hojd": "3500–6000",
    "operator": "",
    "gäller_fr": "2026-06-11",
    "kommentar": "G"
   }
  },
  {
   "type": "Feature",
   "geometry": {
    "type": "Polygon",
    "coordinates": [
     [
      [
       18.54444444,
       64.86638889
      ],
      [
       19.36805556,
       64.39472222
      ],
      [
       18.86083333,
       64.23027778
      ],
      [
       18.03388889,
       64.69972222
      ],
      [
       18.54444444,
       64.86638889
      ]
     ]
    ]
   },
   "properties": {
    "lager": "Trafikinformationsområde (TIA)",
    "namn": "LYCKSELE TIA/RMZ",
    "typ": "TIA",
    "beteckning": "ESNL",
    "plats": "LYCKSELE TIA/RMZ",
    "hojd": "2700–5000",
    "operator": "",
    "gäller_fr": "2026-06-11",
    "kommentar": "G"
   }
  },
  {
   "type": "Feature",
   "geometry": {
    "type": "Polygon",
    "coordinates": [
     [
      [
       14.79361111,
       66.13138889
      ],
      [
       15.05611111,
       66.02083333
      ],
      [
       15.69222222,
       65.59194444
      ],
      [
       15.19833333,
       65.49083333
      ],
      [
       14.73694444,
       65.78111111
      ],
      [
       14.58305556,
       65.97222222
      ],
      [
       14.56138889,
       66.08694444
      ],
      [
       14.79361111,
       66.13138889
      ]
     ]
    ]
   },
   "properties": {
    "lager": "Trafikinformationsområde (TIA)",
    "namn": "HEMAVAN TIA/RMZ",
    "typ": "TIA",
    "beteckning": "ESUT",
    "plats": "HEMAVAN TIA/RMZ",
    "hojd": "1000–FL 95",
    "operator": "",
    "gäller_fr": "2026-06-11",
    "kommentar": "G"
   }
  },
  {
   "type": "Feature",
   "geometry": {
    "type": "Polygon",
    "coordinates": [
     [
      [
       16.1975,
       64.80805556
      ],
      [
       17.6375,
       64.67
      ],
      [
       17.46111111,
       64.35416667
      ],
      [
       16.03083333,
       64.4925
      ],
      [
       16.1975,
       64.80805556
      ]
     ]
    ]
   },
   "properties": {
    "lager": "Trafikinformationsområde (TIA)",
    "namn": "VILHELMINA TIA/RMZ",
    "typ": "TIA",
    "beteckning": "ESNV",
    "plats": "VILHELMINA TIA/RMZ",
    "hojd": "3200–5000",
    "operator": "",
    "gäller_fr": "2026-06-11",
    "kommentar": "G"
   }
  }
 ]
}