{
 "type": "FeatureCollection",
 "metadata": {
  "source": "https://dronechart.lfv.se/geoserver/wfs",
  "provider": "LFV / Transportstyrelsen",
  "generated": "2026-07-03T17:06:51.296Z"
 },
 "features": [
  {
   "type": "Feature",
   "geometry": {
    "type": "Point",
    "coordinates": [
     17.09833333,
     61.26138889
    ]
   },
   "properties": {
    "lager": "Flygplats",
    "namn": "",
    "typ": "ARP",
    "beteckning": "ESNY",
    "plats": "SÖDERHAMN",
    "frekvens": "",
    "hojd_msl": "",
    "operator": ""
   }
  },
  {
   "type": "Feature",
   "geometry": {
    "type": "Point",
    "coordinates": [
     15.515,
     60.42222222
    ]
   },
   "properties": {
    "lager": "Flygplats",
    "namn": "",
    "typ": "ARP",
    "beteckning": "ESSD",
    "plats": "BORLÄNGE",
    "frekvens": "",
    "hojd_msl": "",
    "operator": ""
   }
  },
  {
   "type": "Feature",
   "geometry": {
    "type": "Point",
    "coordinates": [
     15.04,
     59.22805556
    ]
   },
   "properties": {
    "lager": "Flygplats",
    "namn": "",
    "typ": "ARP",
    "beteckning": "ESOE",
    "plats": "ÖREBRO",
    "frekvens": "",
    "hojd_msl": "",
    "operator": ""
   }
  },
  {
   "type": "Feature",
   "geometry": {
    "type": "Point",
    "coordinates": [
     13.20694444,
     56.08527778
    ]
   },
   "properties": {
    "lager": "Flygplats",
    "namn": "",
    "typ": "ARP",
    "beteckning": "ESTL",
    "plats": "LJUNGBYHED",
    "frekvens": "",
    "hojd_msl": "",
    "operator": ""
   }
  },
  {
   "type": "Feature",
   "geometry": {
    "type": "Point",
    "coordinates": [
     18.71777778,
     64.5475
    ]
   },
   "properties": {
    "lager": "Flygplats",
    "namn": "",
    "typ": "ARP",
    "beteckning": "ESNL",
    "plats": "LYCKSELE",
    "frekvens": "",
    "hojd_msl": "",
    "operator": ""
   }
  },
  {
   "type": "Feature",
   "geometry": {
    "type": "Point",
    "coordinates": [
     16.90361111,
     58.78861111
    ]
   },
   "properties": {
    "lager": "Flygplats",
    "namn": "",
    "typ": "ARP",
    "beteckning": "ESKN",
    "plats": "STOCKHOLM/Skavsta",
    "frekvens": "",
    "hojd_msl": "",
    "operator": ""
   }
  },
  {
   "type": "Feature",
   "geometry": {
    "type": "Point",
    "coordinates": [
     14.49472222,
     59.34444444
    ]
   },
   "properties": {
    "lager": "Flygplats",
    "namn": "",
    "typ": "ARP",
    "beteckning": "ESKK",
    "plats": "KARLSKOGA",
    "frekvens": "",
    "hojd_msl": "",
    "operator": ""
   }
  },
  {
   "type": "Feature",
   "geometry": {
    "type": "Point",
    "coordinates": [
     18.34611111,
     57.66277778
    ]
   },
   "properties": {
    "lager": "Flygplats",
    "namn": "",
    "typ": "ARP",
    "beteckning": "ESSV",
    "plats": "VISBY",
    "frekvens": "",
    "hojd_msl": "",
    "operator": ""
   }
  },
  {
   "type": "Feature",
   "geometry": {
    "type": "Point",
    "coordinates": [
     15.67972222,
     58.40638889
    ]
   },
   "properties": {
    "lager": "Flygplats",
    "namn": "",
    "typ": "ARP",
    "beteckning": "ESSL",
    "plats": "LINKÖPING/Saab",
    "frekvens": "",
    "hojd_msl": "",
    "operator": ""
   }
  },
  {
   "type": "Feature",
   "geometry": {
    "type": "Point",
    "coordinates": [
     21.07694444,
     64.62472222
    ]
   },
   "properties": {
    "lager": "Flygplats",
    "namn": "",
    "typ": "ARP",
    "beteckning": "ESNS",
    "plats": "SKELLEFTEÅ",
    "frekvens": "",
    "hojd_msl": "",
    "operator": ""
   }
  },
  {
   "type": "Feature",
   "geometry": {
    "type": "Point",
    "coordinates": [
     12.71111111,
     58.42833333
    ]
   },
   "properties": {
    "lager": "Flygplats",
    "namn": "",
    "typ": "ARP",
    "beteckning": "ESIB",
    "plats": "SÅTENÄS",
    "frekvens": "",
    "hojd_msl": "",
    "operator": ""
   }
  },
  {
   "type": "Feature",
   "geometry": {
    "type": "Point",
    "coordinates": [
     12.345,
     58.31805556
    ]
   },
   "properties": {
    "lager": "Flygplats",
    "namn": "",
    "typ": "ARP",
    "beteckning": "ESGT",
    "plats": "GÖTEBORG/Stallbacka",
    "frekvens": "",
    "hojd_msl": "",
    "operator": ""
   }
  },
  {
   "type": "Feature",
   "geometry": {
    "type": "Point",
    "coordinates": [
     20.28,
     63.79305556
    ]
   },
   "properties": {
    "lager": "Flygplats",
    "namn": "",
    "typ": "ARP",
    "beteckning": "ESNU",
    "plats": "UMEÅ",
    "frekvens": "",
    "hojd_msl": "",
    "operator": ""
   }
  },
  {
   "type": "Feature",
   "geometry": {
    "type": "Point",
    "coordinates": [
     17.5925,
     59.90027778
    ]
   },
   "properties": {
    "lager": "Flygplats",
    "namn": "",
    "typ": "ARP",
    "beteckning": "ESCM",
    "plats": "UPPSALA",
    "frekvens": "",
    "hojd_msl": "",
    "operator": ""
   }
  },
  {
   "type": "Feature",
   "geometry": {
    "type": "Point",
    "coordinates": [
     16.70833333,
     59.35222222
    ]
   },
   "properties": {
    "lager": "Flygplats",
    "namn": "",
    "typ": "ARP",
    "beteckning": "ESSU",
    "plats": "ESKILSTUNA",
    "frekvens": "",
    "hojd_msl": "",
    "operator": ""
   }
  },
  {
   "type": "Feature",
   "geometry": {
    "type": "Point",
    "coordinates": [
     18.9925,
     63.40777778
    ]
   },
   "properties": {
    "lager": "Flygplats",
    "namn": "",
    "typ": "ARP",
    "beteckning": "ESNO",
    "plats": "ÖRNSKÖLDSVIK",
    "frekvens": "",
    "hojd_msl": "",
    "operator": ""
   }
  },
  {
   "type": "Feature",
   "geometry": {
    "type": "Point",
    "coordinates": [
     17.145,
     59.74722222
    ]
   },
   "properties": {
    "lager": "Flygplats",
    "namn": "",
    "typ": "ARP",
    "beteckning": "ESVL",
    "plats": "ENKÖPING/Långtora",
    "frekvens": "",
    "hojd_msl": "",
    "operator": ""
   }
  },
  {
   "type": "Feature",
   "geometry": {
    "type": "Point",
    "coordinates": [
     13.3375,
     59.44472222
    ]
   },
   "properties": {
    "lager": "Flygplats",
    "namn": "",
    "typ": "ARP",
    "beteckning": "ESOK",
    "plats": "KARLSTAD",
    "frekvens": "",
    "hojd_msl": "",
    "operator": ""
   }
  },
  {
   "type": "Feature",
   "geometry": {
    "type": "Point",
    "coordinates": [
     17.44277778,
     62.52944444
    ]
   },
   "properties": {
    "lager": "Flygplats",
    "namn": "",
    "typ": "ARP",
    "beteckning": "ESNN",
    "plats": "SUNDSVALL-TIMRÅ",
    "frekvens": "",
    "hojd_msl": "",
    "operator": ""
   }
  },
  {
   "type": "Feature",
   "geometry": {
    "type": "Point",
    "coordinates": [
     13.35333333,
     55.54833333
    ]
   },
   "properties": {
    "lager": "Flygplats",
    "namn": "",
    "typ": "ARP",
    "beteckning": "ESMS",
    "plats": "MALMÖ",
    "frekvens": "",
    "hojd_msl": "",
    "operator": ""
   }
  },
  {
   "type": "Feature",
   "geometry": {
    "type": "Point",
    "coordinates": [
     12.29111111,
     57.66
    ]
   },
   "properties": {
    "lager": "Flygplats",
    "namn": "",
    "typ": "ARP",
    "beteckning": "ESGG",
    "plats": "GÖTEBORG/Landvetter",
    "frekvens": "",
    "hojd_msl": "",
    "operator": ""
   }
  },
  {
   "type": "Feature",
   "geometry": {
    "type": "Point",
    "coordinates": [
     16.24638889,
     58.58611111
    ]
   },
   "properties": {
    "lager": "Flygplats",
    "namn": "",
    "typ": "ARP",
    "beteckning": "ESSP",
    "plats": "NORRKÖPING/Kungsängen",
    "frekvens": "",
    "hojd_msl": "",
    "operator": ""
   }
  },
  {
   "type": "Feature",
   "geometry": {
    "type": "Point",
    "coordinates": [
     15.82333333,
     57.52583333
    ]
   },
   "properties": {
    "lager": "Flygplats",
    "namn": "",
    "typ": "ARP",
    "beteckning": "ESSF",
    "plats": "HULTSFRED-VIMMERBY",
    "frekvens": "",
    "hojd_msl": "",
    "operator": ""
   }
  },
  {
   "type": "Feature",
   "geometry": {
    "type": "Point",
    "coordinates": [
     13.17444444,
     58.46527778
    ]
   },
   "properties": {
    "lager": "Flygplats",
    "namn": "",
    "typ": "ARP",
    "beteckning": "ESGL",
    "plats": "LIDKÖPING",
    "frekvens": "",
    "hojd_msl": "",
    "operator": ""
   }
  },
  {
   "type": "Feature",
   "geometry": {
    "type": "Point",
    "coordinates": [
     15.265,
     56.26666667
    ]
   },
   "properties": {
    "lager": "Flygplats",
    "namn": "",
    "typ": "ARP",
    "beteckning": "ESDF",
    "plats": "RONNEBY",
    "frekvens": "",
    "hojd_msl": "",
    "operator": ""
   }
  },
  {
   "type": "Feature",
   "geometry": {
    "type": "Point",
    "coordinates": [
     20.1475,
     66.49666667
    ]
   },
   "properties": {
    "lager": "Flygplats",
    "namn": "",
    "typ": "ARP",
    "beteckning": "ESNJ",
    "plats": "JOKKMOKK",
    "frekvens": "",
    "hojd_msl": "",
    "operator": ""
   }
  },
  {
   "type": "Feature",
   "geometry": {
    "type": "Point",
    "coordinates": [
     13.97277778,
     58.45611111
    ]
   },
   "properties": {
    "lager": "Flygplats",
    "namn": "",
    "typ": "ARP",
    "beteckning": "ESGR",
    "plats": "SKÖVDE",
    "frekvens": "",
    "hojd_msl": "",
    "operator": ""
   }
  },
  {
   "type": "Feature",
   "geometry": {
    "type": "Point",
    "coordinates": [
     14.72888889,
     56.93027778
    ]
   },
   "properties": {
    "lager": "Flygplats",
    "namn": "",
    "typ": "ARP",
    "beteckning": "ESMX",
    "plats": "VÄXJÖ/Kronoberg",
    "frekvens": "",
    "hojd_msl": "",
    "operator": ""
   }
  },
  {
   "type": "Feature",
   "geometry": {
    "type": "Point",
    "coordinates": [
     14.06916667,
     57.75833333
    ]
   },
   "properties": {
    "lager": "Flygplats",
    "namn": "",
    "typ": "ARP",
    "beteckning": "ESGJ",
    "plats": "JÖNKÖPING",
    "frekvens": "",
    "hojd_msl": "",
    "operator": ""
   }
  },
  {
   "type": "Feature",
   "geometry": {
    "type": "Point",
    "coordinates": [
     16.49833333,
     57.35194444
    ]
   },
   "properties": {
    "lager": "Flygplats",
    "namn": "",
    "typ": "ARP",
    "beteckning": "ESMO",
    "plats": "OSKARSHAMN",
    "frekvens": "",
    "hojd_msl": "",
    "operator": ""
   }
  },
  {
   "type": "Feature",
   "geometry": {
    "type": "Point",
    "coordinates": [
     23.06888889,
     67.24583333
    ]
   },
   "properties": {
    "lager": "Flygplats",
    "namn": "",
    "typ": "ARP",
    "beteckning": "ESUP",
    "plats": "PAJALA",
    "frekvens": "",
    "hojd_msl": "",
    "operator": ""
   }
  },
  {
   "type": "Feature",
   "geometry": {
    "type": "Point",
    "coordinates": [
     12.63944444,
     59.675
    ]
   },
   "properties": {
    "lager": "Flygplats",
    "namn": "",
    "typ": "ARP",
    "beteckning": "ESKV",
    "plats": "ARVIKA",
    "frekvens": "",
    "hojd_msl": "",
    "operator": ""
   }
  },
  {
   "type": "Feature",
   "geometry": {
    "type": "Point",
    "coordinates": [
     13.02527778,
     55.39611111
    ]
   },
   "properties": {
    "lager": "Flygplats",
    "namn": "",
    "typ": "ARP",
    "beteckning": "ESTT",
    "plats": "VELLINGE",
    "frekvens": "",
    "hojd_msl": "",
    "operator": ""
   }
  },
  {
   "type": "Feature",
   "geometry": {
    "type": "Point",
    "coordinates": [
     12.855,
     56.29111111
    ]
   },
   "properties": {
    "lager": "Flygplats",
    "namn": "",
    "typ": "ARP",
    "beteckning": "ESTA",
    "plats": "ÄNGELHOLM",
    "frekvens": "",
    "hojd_msl": "",
    "operator": ""
   }
  },
  {
   "type": "Feature",
   "geometry": {
    "type": "Point",
    "coordinates": [
     11.315,
     58.63027778
    ]
   },
   "properties": {
    "lager": "Flygplats",
    "namn": "",
    "typ": "ARP",
    "beteckning": "ESTF",
    "plats": "FJÄLLBACKA",
    "frekvens": "",
    "hojd_msl": "",
    "operator": ""
   }
  },
  {
   "type": "Feature",
   "geometry": {
    "type": "Point",
    "coordinates": [
     19.03833333,
     57.85
    ]
   },
   "properties": {
    "lager": "Flygplats",
    "namn": "",
    "typ": "ARP",
    "beteckning": "ESVB",
    "plats": "BUNGE",
    "frekvens": "",
    "hojd_msl": "",
    "operator": ""
   }
  },
  {
   "type": "Feature",
   "geometry": {
    "type": "Point",
    "coordinates": [
     14.00138889,
     63.04166667
    ]
   },
   "properties": {
    "lager": "Flygplats",
    "namn": "",
    "typ": "ARP",
    "beteckning": "ESUO",
    "plats": "OVIKEN",
    "frekvens": "",
    "hojd_msl": "",
    "operator": ""
   }
  },
  {
   "type": "Feature",
   "geometry": {
    "type": "Point",
    "coordinates": [
     18.32055556,
     63.39194444
    ]
   },
   "properties": {
    "lager": "Flygplats",
    "namn": "",
    "typ": "ARP",
    "beteckning": "ESUI",
    "plats": "MELLANSEL",
    "frekvens": "",
    "hojd_msl": "",
    "operator": ""
   }
  },
  {
   "type": "Feature",
   "geometry": {
    "type": "Point",
    "coordinates": [
     14.50027778,
     63.19444444
    ]
   },
   "properties": {
    "lager": "Flygplats",
    "namn": "",
    "typ": "ARP",
    "beteckning": "ESNZ",
    "plats": "ÅRE ÖSTERSUND",
    "frekvens": "",
    "hojd_msl": "",
    "operator": ""
   }
  },
  {
   "type": "Feature",
   "geometry": {
    "type": "Point",
    "coordinates": [
     12.78583333,
     58.03916667
    ]
   },
   "properties": {
    "lager": "Flygplats",
    "namn": "",
    "typ": "ARP",
    "beteckning": "ESGO",
    "plats": "VÅRGÅRDA",
    "frekvens": "",
    "hojd_msl": "",
    "operator": ""
   }
  },
  {
   "type": "Feature",
   "geometry": {
    "type": "Point",
    "coordinates": [
     16.605,
     58.43333333
    ]
   },
   "properties": {
    "lager": "Flygplats",
    "namn": "",
    "typ": "ARP",
    "beteckning": "ESVE",
    "plats": "STEGEBORG",
    "frekvens": "",
    "hojd_msl": "",
    "operator": ""
   }
  },
  {
   "type": "Feature",
   "geometry": {
    "type": "Point",
    "coordinates": [
     12.99361111,
     60.15472222
    ]
   },
   "properties": {
    "lager": "Flygplats",
    "namn": "",
    "typ": "ARP",
    "beteckning": "ESST",
    "plats": "TORSBY",
    "frekvens": "",
    "hojd_msl": "",
    "operator": ""
   }
  },
  {
   "type": "Feature",
   "geometry": {
    "type": "Point",
    "coordinates": [
     13.92166667,
     56.95027778
    ]
   },
   "properties": {
    "lager": "Flygplats",
    "namn": "",
    "typ": "ARP",
    "beteckning": "ESMG",
    "plats": "LJUNGBY/Feringe",
    "frekvens": "",
    "hojd_msl": "",
    "operator": ""
   }
  },
  {
   "type": "Feature",
   "geometry": {
    "type": "Point",
    "coordinates": [
     16.83972222,
     64.57861111
    ]
   },
   "properties": {
    "lager": "Flygplats",
    "namn": "",
    "typ": "ARP",
    "beteckning": "ESNV",
    "plats": "VILHELMINA",
    "frekvens": "",
    "hojd_msl": "",
    "operator": ""
   }
  },
  {
   "type": "Feature",
   "geometry": {
    "type": "Point",
    "coordinates": [
     15.09638889,
     60.08833333
    ]
   },
   "properties": {
    "lager": "Flygplats",
    "namn": "",
    "typ": "ARP",
    "beteckning": "ESSG",
    "plats": "LUDVIKA",
    "frekvens": "",
    "hojd_msl": "",
    "operator": ""
   }
  },
  {
   "type": "Feature",
   "geometry": {
    "type": "Point",
    "coordinates": [
     13.58777778,
     58.17
    ]
   },
   "properties": {
    "lager": "Flygplats",
    "namn": "",
    "typ": "ARP",
    "beteckning": "ESGK",
    "plats": "FALKÖPING",
    "frekvens": "",
    "hojd_msl": "",
    "operator": ""
   }
  },
  {
   "type": "Feature",
   "geometry": {
    "type": "Point",
    "coordinates": [
     20.15,
     65.87527778
    ]
   },
   "properties": {
    "lager": "Flygplats",
    "namn": "",
    "typ": "ARP",
    "beteckning": "ESPE",
    "plats": "VIDSEL",
    "frekvens": "",
    "hojd_msl": "",
    "operator": ""
   }
  },
  {
   "type": "Feature",
   "geometry": {
    "type": "Point",
    "coordinates": [
     13.57888889,
     60.02111111
    ]
   },
   "properties": {
    "lager": "Flygplats",
    "namn": "",
    "typ": "ARP",
    "beteckning": "ESOH",
    "plats": "HAGFORS",
    "frekvens": "",
    "hojd_msl": "",
    "operator": ""
   }
  },
  {
   "type": "Feature",
   "geometry": {
    "type": "Point",
    "coordinates": [
     11.97361111,
     58.17722222
    ]
   },
   "properties": {
    "lager": "Flygplats",
    "namn": "",
    "typ": "ARP",
    "beteckning": "ESGA",
    "plats": "UDDEVALLA/Backamo",
    "frekvens": "",
    "hojd_msl": "",
    "operator": ""
   }
  },
  {
   "type": "Feature",
   "geometry": {
    "type": "Point",
    "coordinates": [
     16.65611111,
     56.86305556
    ]
   },
   "properties": {
    "lager": "Flygplats",
    "namn": "",
    "typ": "ARP",
    "beteckning": "ESMB",
    "plats": "BORGLANDA",
    "frekvens": "",
    "hojd_msl": "",
    "operator": ""
   }
  },
  {
   "type": "Feature",
   "geometry": {
    "type": "Point",
    "coordinates": [
     13.91222222,
     59.60833333
    ]
   },
   "properties": {
    "lager": "Flygplats",
    "namn": "",
    "typ": "ARP",
    "beteckning": "ESSM",
    "plats": "BRATTFORSHEDEN",
    "frekvens": "",
    "hojd_msl": "",
    "operator": ""
   }
  },
  {
   "type": "Feature",
   "geometry": {
    "type": "Point",
    "coordinates": [
     14.37722222,
     60.55611111
    ]
   },
   "properties": {
    "lager": "Flygplats",
    "namn": "",
    "typ": "ARP",
    "beteckning": "ESKD",
    "plats": "DALA-JÄRNA",
    "frekvens": "",
    "hojd_msl": "",
    "operator": ""
   }
  },
  {
   "type": "Feature",
   "geometry": {
    "type": "Point",
    "coordinates": [
     15.83333333,
     61.38694444
    ]
   },
   "properties": {
    "lager": "Flygplats",
    "namn": "",
    "typ": "ARP",
    "beteckning": "ESUY",
    "plats": "EDSBYN",
    "frekvens": "",
    "hojd_msl": "",
    "operator": ""
   }
  },
  {
   "type": "Feature",
   "geometry": {
    "type": "Point",
    "coordinates": [
     13.52861111,
     60.15472222
    ]
   },
   "properties": {
    "lager": "Flygplats",
    "namn": "",
    "typ": "ARP",
    "beteckning": "ESKH",
    "plats": "EKSHÄRAD",
    "frekvens": "",
    "hojd_msl": "",
    "operator": ""
   }
  },
  {
   "type": "Feature",
   "geometry": {
    "type": "Point",
    "coordinates": [
     14.94194444,
     57.67
    ]
   },
   "properties": {
    "lager": "Flygplats",
    "namn": "",
    "typ": "ARP",
    "beteckning": "ESMC",
    "plats": "EKSJÖ/Ränneslätt",
    "frekvens": "",
    "hojd_msl": "",
    "operator": ""
   }
  },
  {
   "type": "Feature",
   "geometry": {
    "type": "Point",
    "coordinates": [
     16.44194444,
     59.38388889
    ]
   },
   "properties": {
    "lager": "Flygplats",
    "namn": "",
    "typ": "ARP",
    "beteckning": "ESSC",
    "plats": "ESKILSTUNA/Ekeby",
    "frekvens": "",
    "hojd_msl": "",
    "operator": ""
   }
  },
  {
   "type": "Feature",
   "geometry": {
    "type": "Point",
    "coordinates": [
     13.33111111,
     55.84833333
    ]
   },
   "properties": {
    "lager": "Flygplats",
    "namn": "",
    "typ": "ARP",
    "beteckning": "ESME",
    "plats": "ESLÖV",
    "frekvens": "",
    "hojd_msl": "",
    "operator": ""
   }
  },
  {
   "type": "Feature",
   "geometry": {
    "type": "Point",
    "coordinates": [
     13.47055556,
     56.38777778
    ]
   },
   "properties": {
    "lager": "Flygplats",
    "namn": "",
    "typ": "ARP",
    "beteckning": "ESMF",
    "plats": "FAGERHULT",
    "frekvens": "",
    "hojd_msl": "",
    "operator": ""
   }
  },
  {
   "type": "Feature",
   "geometry": {
    "type": "Point",
    "coordinates": [
     12.38722222,
     56.96861111
    ]
   },
   "properties": {
    "lager": "Flygplats",
    "namn": "",
    "typ": "ARP",
    "beteckning": "ESGF",
    "plats": "FALKENBERG/Morup",
    "frekvens": "",
    "hojd_msl": "",
    "operator": ""
   }
  },
  {
   "type": "Feature",
   "geometry": {
    "type": "Point",
    "coordinates": [
     18.74916667,
     63.21277778
    ]
   },
   "properties": {
    "lager": "Flygplats",
    "namn": "",
    "typ": "ARP",
    "beteckning": "ESNF",
    "plats": "ÅVIKEN/Åviken Fly Camp",
    "frekvens": "",
    "hojd_msl": "",
    "operator": ""
   }
  },
  {
   "type": "Feature",
   "geometry": {
    "type": "Point",
    "coordinates": [
     15.07805556,
     60.55083333
    ]
   },
   "properties": {
    "lager": "Flygplats",
    "namn": "",
    "typ": "ARP",
    "beteckning": "ESVG",
    "plats": "GAGNEF",
    "frekvens": "",
    "hojd_msl": "",
    "operator": ""
   }
  },
  {
   "type": "Feature",
   "geometry": {
    "type": "Point",
    "coordinates": [
     17.97555556,
     65.30527778
    ]
   },
   "properties": {
    "lager": "Flygplats",
    "namn": "",
    "typ": "ARP",
    "beteckning": "ESUG",
    "plats": "GARGNÄS",
    "frekvens": "",
    "hojd_msl": "",
    "operator": ""
   }
  },
  {
   "type": "Feature",
   "geometry": {
    "type": "Point",
    "coordinates": [
     17.42944444,
     60.28611111
    ]
   },
   "properties": {
    "lager": "Flygplats",
    "namn": "",
    "typ": "ARP",
    "beteckning": "ESKG",
    "plats": "GRYTTJOM",
    "frekvens": "",
    "hojd_msl": "",
    "operator": ""
   }
  },
  {
   "type": "Feature",
   "geometry": {
    "type": "Point",
    "coordinates": [
     13.61055556,
     58.57861111
    ]
   },
   "properties": {
    "lager": "Flygplats",
    "namn": "",
    "typ": "ARP",
    "beteckning": "ESGN",
    "plats": "GÖTENE/Brännebrona",
    "frekvens": "",
    "hojd_msl": "",
    "operator": ""
   }
  },
  {
   "type": "Feature",
   "geometry": {
    "type": "Point",
    "coordinates": [
     14.13694444,
     57.29222222
    ]
   },
   "properties": {
    "lager": "Flygplats",
    "namn": "",
    "typ": "ARP",
    "beteckning": "ESMV",
    "plats": "HAGSHULT",
    "frekvens": "",
    "hojd_msl": "",
    "operator": ""
   }
  },
  {
   "type": "Feature",
   "geometry": {
    "type": "Point",
    "coordinates": [
     15.45888889,
     63.73833333
    ]
   },
   "properties": {
    "lager": "Flygplats",
    "namn": "",
    "typ": "ARP",
    "beteckning": "ESNA",
    "plats": "HALLVIKEN",
    "frekvens": "",
    "hojd_msl": "",
    "operator": ""
   }
  },
  {
   "type": "Feature",
   "geometry": {
    "type": "Point",
    "coordinates": [
     13.74722222,
     62.40888889
    ]
   },
   "properties": {
    "lager": "Flygplats",
    "namn": "",
    "typ": "ARP",
    "beteckning": "ESNC",
    "plats": "HEDE/Hedlanda",
    "frekvens": "",
    "hojd_msl": "",
    "operator": ""
   }
  },
  {
   "type": "Feature",
   "geometry": {
    "type": "Point",
    "coordinates": [
     13.10805556,
     58.02944444
    ]
   },
   "properties": {
    "lager": "Flygplats",
    "namn": "",
    "typ": "ARP",
    "beteckning": "ESGH",
    "plats": "HERRLJUNGA",
    "frekvens": "",
    "hojd_msl": "",
    "operator": ""
   }
  },
  {
   "type": "Feature",
   "geometry": {
    "type": "Point",
    "coordinates": [
     14.42361111,
     59.8675
    ]
   },
   "properties": {
    "lager": "Flygplats",
    "namn": "",
    "typ": "ARP",
    "beteckning": "ESVH",
    "plats": "HÄLLEFORS",
    "frekvens": "",
    "hojd_msl": "",
    "operator": ""
   }
  },
  {
   "type": "Feature",
   "geometry": {
    "type": "Point",
    "coordinates": [
     17.98138889,
     62.63361111
    ]
   },
   "properties": {
    "lager": "Flygplats",
    "namn": "",
    "typ": "ARP",
    "beteckning": "ESUH",
    "plats": "HÄRNÖSAND/Myran",
    "frekvens": "",
    "hojd_msl": "",
    "operator": ""
   }
  },
  {
   "type": "Feature",
   "geometry": {
    "type": "Point",
    "coordinates": [
     12.57583333,
     56.18472222
    ]
   },
   "properties": {
    "lager": "Flygplats",
    "namn": "",
    "typ": "ARP",
    "beteckning": "ESMH",
    "plats": "HÖGANÄS",
    "frekvens": "",
    "hojd_msl": "",
    "operator": ""
   }
  },
  {
   "type": "Feature",
   "geometry": {
    "type": "Point",
    "coordinates": [
     14.50722222,
     58.51361111
    ]
   },
   "properties": {
    "lager": "Flygplats",
    "namn": "",
    "typ": "ARP",
    "beteckning": "ESIA",
    "plats": "KARLSBORG",
    "frekvens": "",
    "hojd_msl": "",
    "operator": ""
   }
  },
  {
   "type": "Feature",
   "geometry": {
    "type": "Point",
    "coordinates": [
     16.22027778,
     59.02222222
    ]
   },
   "properties": {
    "lager": "Flygplats",
    "namn": "",
    "typ": "ARP",
    "beteckning": "ESVK",
    "plats": "KATRINEHOLM",
    "frekvens": "",
    "hojd_msl": "",
    "operator": ""
   }
  },
  {
   "type": "Feature",
   "geometry": {
    "type": "Point",
    "coordinates": [
     13.05333333,
     55.995
    ]
   },
   "properties": {
    "lager": "Flygplats",
    "namn": "",
    "typ": "ARP",
    "beteckning": "ESMJ",
    "plats": "KÅGERÖD",
    "frekvens": "",
    "hojd_msl": "",
    "operator": ""
   }
  },
  {
   "type": "Feature",
   "geometry": {
    "type": "Point",
    "coordinates": [
     15.96972222,
     59.5275
    ]
   },
   "properties": {
    "lager": "Flygplats",
    "namn": "",
    "typ": "ARP",
    "beteckning": "ESVQ",
    "plats": "KÖPING",
    "frekvens": "",
    "hojd_msl": "",
    "operator": ""
   }
  },
  {
   "type": "Feature",
   "geometry": {
    "type": "Point",
    "coordinates": [
     12.86944444,
     55.94444444
    ]
   },
   "properties": {
    "lager": "Flygplats",
    "namn": "",
    "typ": "ARP",
    "beteckning": "ESML",
    "plats": "LANDSKRONA",
    "frekvens": "",
    "hojd_msl": "",
    "operator": ""
   }
  },
  {
   "type": "Feature",
   "geometry": {
    "type": "Point",
    "coordinates": [
     16.00416667,
     61.81694444
    ]
   },
   "properties": {
    "lager": "Flygplats",
    "namn": "",
    "typ": "ARP",
    "beteckning": "ESUL",
    "plats": "LJUSDAL",
    "frekvens": "",
    "hojd_msl": "",
    "operator": ""
   }
  },
  {
   "type": "Feature",
   "geometry": {
    "type": "Point",
    "coordinates": [
     13.72666667,
     60.65888889
    ]
   },
   "properties": {
    "lager": "Flygplats",
    "namn": "",
    "typ": "ARP",
    "beteckning": "ESVM",
    "plats": "MALUNG/Skinnlanda",
    "frekvens": "",
    "hojd_msl": "",
    "operator": ""
   }
  },
  {
   "type": "Feature",
   "geometry": {
    "type": "Point",
    "coordinates": [
     16.84638889,
     61.29111111
    ]
   },
   "properties": {
    "lager": "Flygplats",
    "namn": "",
    "typ": "ARP",
    "beteckning": "ESUM",
    "plats": "MOHED",
    "frekvens": "",
    "hojd_msl": "",
    "operator": ""
   }
  },
  {
   "type": "Feature",
   "geometry": {
    "type": "Point",
    "coordinates": [
     13.49055556,
     59.79888889
    ]
   },
   "properties": {
    "lager": "Flygplats",
    "namn": "",
    "typ": "ARP",
    "beteckning": "ESKO",
    "plats": "MUNKFORS",
    "frekvens": "",
    "hojd_msl": "",
    "operator": ""
   }
  },
  {
   "type": "Feature",
   "geometry": {
    "type": "Point",
    "coordinates": [
     14.80833333,
     63.12527778
    ]
   },
   "properties": {
    "lager": "Flygplats",
    "namn": "",
    "typ": "ARP",
    "beteckning": "ESNM",
    "plats": "OPTAND",
    "frekvens": "",
    "hojd_msl": "",
    "operator": ""
   }
  },
  {
   "type": "Feature",
   "geometry": {
    "type": "Point",
    "coordinates": [
     14.71916667,
     61.19222222
    ]
   },
   "properties": {
    "lager": "Flygplats",
    "namn": "",
    "typ": "ARP",
    "beteckning": "ESNR",
    "plats": "ORSA",
    "frekvens": "",
    "hojd_msl": "",
    "operator": ""
   }
  },
  {
   "type": "Feature",
   "geometry": {
    "type": "Point",
    "coordinates": [
     15.08277778,
     65.80611111
    ]
   },
   "properties": {
    "lager": "Flygplats",
    "namn": "",
    "typ": "ARP",
    "beteckning": "ESUT",
    "plats": "HEMAVAN TÄRNABY",
    "frekvens": "",
    "hojd_msl": "",
    "operator": ""
   }
  },
  {
   "type": "Feature",
   "geometry": {
    "type": "Point",
    "coordinates": [
     17.08055556,
     61.76833333
    ]
   },
   "properties": {
    "lager": "Flygplats",
    "namn": "",
    "typ": "ARP",
    "beteckning": "ESNH",
    "plats": "HUDIKSVALL",
    "frekvens": "",
    "hojd_msl": "",
    "operator": ""
   }
  },
  {
   "type": "Feature",
   "geometry": {
    "type": "Point",
    "coordinates": [
     14.42416667,
     62.04777778
    ]
   },
   "properties": {
    "lager": "Flygplats",
    "namn": "",
    "typ": "ARP",
    "beteckning": "ESND",
    "plats": "SVEG",
    "frekvens": "",
    "hojd_msl": "",
    "operator": ""
   }
  },
  {
   "type": "Feature",
   "geometry": {
    "type": "Point",
    "coordinates": [
     12.57805556,
     57.94972222
    ]
   },
   "properties": {
    "lager": "Flygplats",
    "namn": "",
    "typ": "ARP",
    "beteckning": "ESGI",
    "plats": "ALINGSÅS",
    "frekvens": "",
    "hojd_msl": "",
    "operator": ""
   }
  },
  {
   "type": "Feature",
   "geometry": {
    "type": "Point",
    "coordinates": [
     13.60176667,
     57.26503056
    ]
   },
   "properties": {
    "lager": "Flygplats",
    "namn": "",
    "typ": "ARP",
    "beteckning": "ESMP",
    "plats": "ANDERSTORP",
    "frekvens": "",
    "hojd_msl": "",
    "operator": ""
   }
  },
  {
   "type": "Feature",
   "geometry": {
    "type": "Point",
    "coordinates": [
     15.92083333,
     59.38833333
    ]
   },
   "properties": {
    "lager": "Flygplats",
    "namn": "",
    "typ": "ARP",
    "beteckning": "ESQO",
    "plats": "ARBOGA",
    "frekvens": "",
    "hojd_msl": "",
    "operator": ""
   }
  },
  {
   "type": "Feature",
   "geometry": {
    "type": "Point",
    "coordinates": [
     16.3725,
     61.5125
    ]
   },
   "properties": {
    "lager": "Flygplats",
    "namn": "",
    "typ": "ARP",
    "beteckning": "ESUB",
    "plats": "ARBRÅ",
    "frekvens": "",
    "hojd_msl": "",
    "operator": ""
   }
  },
  {
   "type": "Feature",
   "geometry": {
    "type": "Point",
    "coordinates": [
     16.12277778,
     60.18027778
    ]
   },
   "properties": {
    "lager": "Flygplats",
    "namn": "",
    "typ": "ARP",
    "beteckning": "ESVA",
    "plats": "AVESTA",
    "frekvens": "",
    "hojd_msl": "",
    "operator": ""
   }
  },
  {
   "type": "Feature",
   "geometry": {
    "type": "Point",
    "coordinates": [
     16.95138889,
     60.59333333
    ]
   },
   "properties": {
    "lager": "Flygplats",
    "namn": "",
    "typ": "ARP",
    "beteckning": "ESSK",
    "plats": "GÄVLE",
    "frekvens": "",
    "hojd_msl": "",
    "operator": ""
   }
  },
  {
   "type": "Feature",
   "geometry": {
    "type": "Point",
    "coordinates": [
     12.82,
     56.69083333
    ]
   },
   "properties": {
    "lager": "Flygplats",
    "namn": "",
    "typ": "ARP",
    "beteckning": "ESMT",
    "plats": "HALMSTAD",
    "frekvens": "",
    "hojd_msl": "",
    "operator": ""
   }
  },
  {
   "type": "Feature",
   "geometry": {
    "type": "Point",
    "coordinates": [
     17.94222222,
     59.35444444
    ]
   },
   "properties": {
    "lager": "Flygplats",
    "namn": "",
    "typ": "ARP",
    "beteckning": "ESSB",
    "plats": "STOCKHOLM/Bromma",
    "frekvens": "",
    "hojd_msl": "",
    "operator": ""
   }
  },
  {
   "type": "Feature",
   "geometry": {
    "type": "Point",
    "coordinates": [
     16.2875,
     56.68555556
    ]
   },
   "properties": {
    "lager": "Flygplats",
    "namn": "",
    "typ": "ARP",
    "beteckning": "ESMQ",
    "plats": "KALMAR",
    "frekvens": "",
    "hojd_msl": "",
    "operator": ""
   }
  },
  {
   "type": "Feature",
   "geometry": {
    "type": "Point",
    "coordinates": [
     22.12361111,
     65.54333333
    ]
   },
   "properties": {
    "lager": "Flygplats",
    "namn": "",
    "typ": "ARP",
    "beteckning": "ESPA",
    "plats": "LULEÅ/Kallax",
    "frekvens": "",
    "hojd_msl": "",
    "operator": ""
   }
  },
  {
   "type": "Feature",
   "geometry": {
    "type": "Point",
    "coordinates": [
     21.26083333,
     65.39833333
    ]
   },
   "properties": {
    "lager": "Flygplats",
    "namn": "",
    "typ": "ARP",
    "beteckning": "ESNP",
    "plats": "PITEÅ",
    "frekvens": "",
    "hojd_msl": "",
    "operator": ""
   }
  },
  {
   "type": "Feature",
   "geometry": {
    "type": "Point",
    "coordinates": [
     16.48361111,
     63.49027778
    ]
   },
   "properties": {
    "lager": "Flygplats",
    "namn": "",
    "typ": "ARP",
    "beteckning": "ESUR",
    "plats": "RAMSELE",
    "frekvens": "",
    "hojd_msl": "",
    "operator": ""
   }
  },
  {
   "type": "Feature",
   "geometry": {
    "type": "Point",
    "coordinates": [
     13.05305556,
     58.49805556
    ]
   },
   "properties": {
    "lager": "Flygplats",
    "namn": "",
    "typ": "ARP",
    "beteckning": "ESFR",
    "plats": "RÅDA",
    "frekvens": "",
    "hojd_msl": "",
    "operator": ""
   }
  },
  {
   "type": "Feature",
   "geometry": {
    "type": "Point",
    "coordinates": [
     16.86416667,
     57.06833333
    ]
   },
   "properties": {
    "lager": "Flygplats",
    "namn": "",
    "typ": "ARP",
    "beteckning": "ESFS",
    "plats": "SANDVIK",
    "frekvens": "",
    "hojd_msl": "",
    "operator": ""
   }
  },
  {
   "type": "Feature",
   "geometry": {
    "type": "Point",
    "coordinates": [
     14.82722222,
     60.785
    ]
   },
   "properties": {
    "lager": "Flygplats",
    "namn": "",
    "typ": "ARP",
    "beteckning": "ESVS",
    "plats": "SILJANSNÄS",
    "frekvens": "",
    "hojd_msl": "",
    "operator": ""
   }
  },
  {
   "type": "Feature",
   "geometry": {
    "type": "Point",
    "coordinates": [
     13.44,
     57.16861111
    ]
   },
   "properties": {
    "lager": "Flygplats",
    "namn": "",
    "typ": "ARP",
    "beteckning": "ESMY",
    "plats": "SMÅLANDSSTENAR",
    "frekvens": "",
    "hojd_msl": "",
    "operator": ""
   }
  },
  {
   "type": "Feature",
   "geometry": {
    "type": "Point",
    "coordinates": [
     16.98555556,
     63.17111111
    ]
   },
   "properties": {
    "lager": "Flygplats",
    "namn": "",
    "typ": "ARP",
    "beteckning": "ESNB",
    "plats": "SOLLEFTEÅ",
    "frekvens": "",
    "hojd_msl": "",
    "operator": ""
   }
  },
  {
   "type": "Feature",
   "geometry": {
    "type": "Point",
    "coordinates": [
     17.74055556,
     59.345
    ]
   },
   "properties": {
    "lager": "Flygplats",
    "namn": "",
    "typ": "ARP",
    "beteckning": "ESSE",
    "plats": "STOCKHOLM/Skå-Edeby",
    "frekvens": "",
    "hojd_msl": "",
    "operator": ""
   }
  },
  {
   "type": "Feature",
   "geometry": {
    "type": "Point",
    "coordinates": [
     16.58666667,
     60.58777778
    ]
   },
   "properties": {
    "lager": "Flygplats",
    "namn": "",
    "typ": "ARP",
    "beteckning": "ESOL",
    "plats": "STORVIK/Lemstanäs",
    "frekvens": "",
    "hojd_msl": "",
    "operator": ""
   }
  },
  {
   "type": "Feature",
   "geometry": {
    "type": "Point",
    "coordinates": [
     12.83388889,
     61.16472222
    ]
   },
   "properties": {
    "lager": "Flygplats",
    "namn": "",
    "typ": "ARP",
    "beteckning": "ESKS",
    "plats": "SÄLEN/Scandinavian Mountains",
    "frekvens": "",
    "hojd_msl": "",
    "operator": ""
   }
  },
  {
   "type": "Feature",
   "geometry": {
    "type": "Point",
    "coordinates": [
     11.34361111,
     59.01694444
    ]
   },
   "properties": {
    "lager": "Flygplats",
    "namn": "",
    "typ": "ARP",
    "beteckning": "ESGS",
    "plats": "STRÖMSTAD/Näsinge",
    "frekvens": "",
    "hojd_msl": "",
    "operator": ""
   }
  },
  {
   "type": "Feature",
   "geometry": {
    "type": "Point",
    "coordinates": [
     17.53666667,
     59.92277778
    ]
   },
   "properties": {
    "lager": "Flygplats",
    "namn": "",
    "typ": "ARP",
    "beteckning": "ESKC",
    "plats": "SUNDBRO",
    "frekvens": "",
    "hojd_msl": "",
    "operator": ""
   }
  },
  {
   "type": "Feature",
   "geometry": {
    "type": "Point",
    "coordinates": [
     13.11277778,
     59.86027778
    ]
   },
   "properties": {
    "lager": "Flygplats",
    "namn": "",
    "typ": "ARP",
    "beteckning": "ESKU",
    "plats": "SUNNE",
    "frekvens": "",
    "hojd_msl": "",
    "operator": ""
   }
  },
  {
   "type": "Feature",
   "geometry": {
    "type": "Point",
    "coordinates": [
     12.95833333,
     59.09111111
    ]
   },
   "properties": {
    "lager": "Flygplats",
    "namn": "",
    "typ": "ARP",
    "beteckning": "ESGY",
    "plats": "SÄFFLE",
    "frekvens": "",
    "hojd_msl": "",
    "operator": ""
   }
  },
  {
   "type": "Feature",
   "geometry": {
    "type": "Point",
    "coordinates": [
     13.67722222,
     55.59833333
    ]
   },
   "properties": {
    "lager": "Flygplats",
    "namn": "",
    "typ": "ARP",
    "beteckning": "ESMI",
    "plats": "SJÖBO SÖVDE",
    "frekvens": "",
    "hojd_msl": "",
    "operator": ""
   }
  },
  {
   "type": "Feature",
   "geometry": {
    "type": "Point",
    "coordinates": [
     13.99555556,
     58.19194444
    ]
   },
   "properties": {
    "lager": "Flygplats",
    "namn": "",
    "typ": "ARP",
    "beteckning": "ESGD",
    "plats": "TIDAHOLM/Bämmelshed",
    "frekvens": "",
    "hojd_msl": "",
    "operator": ""
   }
  },
  {
   "type": "Feature",
   "geometry": {
    "type": "Point",
    "coordinates": [
     17.42194444,
     60.345
    ]
   },
   "properties": {
    "lager": "Flygplats",
    "namn": "",
    "typ": "ARP",
    "beteckning": "ESKT",
    "plats": "TIERP",
    "frekvens": "",
    "hojd_msl": "",
    "operator": ""
   }
  },
  {
   "type": "Feature",
   "geometry": {
    "type": "Point",
    "coordinates": [
     11.77527778,
     58.36777778
    ]
   },
   "properties": {
    "lager": "Flygplats",
    "namn": "",
    "typ": "ARP",
    "beteckning": "ESGU",
    "plats": "UDDEVALLA/Rörkärr",
    "frekvens": "",
    "hojd_msl": "",
    "operator": ""
   }
  },
  {
   "type": "Feature",
   "geometry": {
    "type": "Point",
    "coordinates": [
     12.22805556,
     57.12472222
    ]
   },
   "properties": {
    "lager": "Flygplats",
    "namn": "",
    "typ": "ARP",
    "beteckning": "ESGV",
    "plats": "VARBERG",
    "frekvens": "",
    "hojd_msl": "",
    "operator": ""
   }
  },
  {
   "type": "Feature",
   "geometry": {
    "type": "Point",
    "coordinates": [
     14.4025,
     58.09861111
    ]
   },
   "properties": {
    "lager": "Flygplats",
    "namn": "",
    "typ": "ARP",
    "beteckning": "ESSI",
    "plats": "VISINGSÖ",
    "frekvens": "",
    "hojd_msl": "",
    "operator": ""
   }
  },
  {
   "type": "Feature",
   "geometry": {
    "type": "Point",
    "coordinates": [
     17.21111111,
     59.10111111
    ]
   },
   "properties": {
    "lager": "Flygplats",
    "namn": "",
    "typ": "ARP",
    "beteckning": "ESSZ",
    "plats": "GNESTA/Vängsö",
    "frekvens": "",
    "hojd_msl": "",
    "operator": ""
   }
  },
  {
   "type": "Feature",
   "geometry": {
    "type": "Point",
    "coordinates": [
     16.52361111,
     57.78
    ]
   },
   "properties": {
    "lager": "Flygplats",
    "namn": "",
    "typ": "ARP",
    "beteckning": "ESSW",
    "plats": "VÄSTERVIK",
    "frekvens": "",
    "hojd_msl": "",
    "operator": ""
   }
  },
  {
   "type": "Feature",
   "geometry": {
    "type": "Point",
    "coordinates": [
     16.50305556,
     59.57583333
    ]
   },
   "properties": {
    "lager": "Flygplats",
    "namn": "",
    "typ": "ARP",
    "beteckning": "ESSX",
    "plats": "VÄSTERÅS/Johannisberg",
    "frekvens": "",
    "hojd_msl": "",
    "operator": ""
   }
  },
  {
   "type": "Feature",
   "geometry": {
    "type": "Point",
    "coordinates": [
     13.6025,
     58.13472222
    ]
   },
   "properties": {
    "lager": "Flygplats",
    "namn": "",
    "typ": "ARP",
    "beteckning": "ESGC",
    "plats": "ÅLLEBERG",
    "frekvens": "",
    "hojd_msl": "",
    "operator": ""
   }
  },
  {
   "type": "Feature",
   "geometry": {
    "type": "Point",
    "coordinates": [
     15.83472222,
     62.56527778
    ]
   },
   "properties": {
    "lager": "Flygplats",
    "namn": "",
    "typ": "ARP",
    "beteckning": "ESUJ",
    "plats": "ÅNGE/Tälje",
    "frekvens": "",
    "hojd_msl": "",
    "operator": ""
   }
  },
  {
   "type": "Feature",
   "geometry": {
    "type": "Point",
    "coordinates": [
     14.16638889,
     56.57055556
    ]
   },
   "properties": {
    "lager": "Flygplats",
    "namn": "",
    "typ": "ARP",
    "beteckning": "ESMU",
    "plats": "ÄLMHULT/Möckeln",
    "frekvens": "",
    "hojd_msl": "",
    "operator": ""
   }
  },
  {
   "type": "Feature",
   "geometry": {
    "type": "Point",
    "coordinates": [
     21.06138889,
     65.64583333
    ]
   },
   "properties": {
    "lager": "Flygplats",
    "namn": "",
    "typ": "ARP",
    "beteckning": "ESUV",
    "plats": "ÄLVSBYN",
    "frekvens": "",
    "hojd_msl": "",
    "operator": ""
   }
  },
  {
   "type": "Feature",
   "geometry": {
    "type": "Point",
    "coordinates": [
     17.05027778,
     57.32861111
    ]
   },
   "properties": {
    "lager": "Flygplats",
    "namn": "",
    "typ": "ARP",
    "beteckning": "ESMZ",
    "plats": "ÖLANDA",
    "frekvens": "",
    "hojd_msl": "",
    "operator": ""
   }
  },
  {
   "type": "Feature",
   "geometry": {
    "type": "Point",
    "coordinates": [
     12.64888889,
     57.44527778
    ]
   },
   "properties": {
    "lager": "Flygplats",
    "namn": "",
    "typ": "ARP",
    "beteckning": "ESGM",
    "plats": "ÖRESTEN",
    "frekvens": "",
    "hojd_msl": "",
    "operator": ""
   }
  },
  {
   "type": "Feature",
   "geometry": {
    "type": "Point",
    "coordinates": [
     12.68944444,
     61.86972222
    ]
   },
   "properties": {
    "lager": "Flygplats",
    "namn": "",
    "typ": "ARP",
    "beteckning": "ESUE",
    "plats": "IDRE",
    "frekvens": "",
    "hojd_msl": "",
    "operator": ""
   }
  },
  {
   "type": "Feature",
   "geometry": {
    "type": "Point",
    "coordinates": [
     19.28194444,
     65.59027778
    ]
   },
   "properties": {
    "lager": "Flygplats",
    "namn": "",
    "typ": "ARP",
    "beteckning": "ESNX",
    "plats": "ARVIDSJAUR",
    "frekvens": "",
    "hojd_msl": "",
    "operator": ""
   }
  },
  {
   "type": "Feature",
   "geometry": {
    "type": "Point",
    "coordinates": [
     20.81222222,
     67.13305556
    ]
   },
   "properties": {
    "lager": "Flygplats",
    "namn": "",
    "typ": "ARP",
    "beteckning": "ESNG",
    "plats": "GÄLLIVARE",
    "frekvens": "",
    "hojd_msl": "",
    "operator": ""
   }
  },
  {
   "type": "Feature",
   "geometry": {
    "type": "Point",
    "coordinates": [
     14.51055556,
     60.95861111
    ]
   },
   "properties": {
    "lager": "Flygplats",
    "namn": "",
    "typ": "ARP",
    "beteckning": "ESKM",
    "plats": "MORA/Siljan",
    "frekvens": "",
    "hojd_msl": "",
    "operator": ""
   }
  },
  {
   "type": "Feature",
   "geometry": {
    "type": "Point",
    "coordinates": [
     15.52194444,
     58.39611111
    ]
   },
   "properties": {
    "lager": "Flygplats",
    "namn": "",
    "typ": "ARP",
    "beteckning": "ESCF",
    "plats": "LINKÖPING/Malmen",
    "frekvens": "",
    "hojd_msl": "",
    "operator": ""
   }
  },
  {
   "type": "Feature",
   "geometry": {
    "type": "Point",
    "coordinates": [
     11.87055556,
     57.77555556
    ]
   },
   "properties": {
    "lager": "Flygplats",
    "namn": "",
    "typ": "ARP",
    "beteckning": "ESGP",
    "plats": "GÖTEBORG/Säve",
    "frekvens": "",
    "hojd_msl": "",
    "operator": ""
   }
  },
  {
   "type": "Feature",
   "geometry": {
    "type": "Point",
    "coordinates": [
     14.08527778,
     55.92055556
    ]
   },
   "properties": {
    "lager": "Flygplats",
    "namn": "",
    "typ": "ARP",
    "beteckning": "ESMK",
    "plats": "KRISTIANSTAD",
    "frekvens": "",
    "hojd_msl": "",
    "operator": ""
   }
  },
  {
   "type": "Feature",
   "geometry": {
    "type": "Point",
    "coordinates": [
     13.87888889,
     56.13361111
    ]
   },
   "properties": {
    "lager": "Flygplats",
    "namn": "",
    "typ": "ARP",
    "beteckning": "ESFA",
    "plats": "HÄSSLEHOLM/Bokeberg",
    "frekvens": "",
    "hojd_msl": "",
    "operator": ""
   }
  },
  {
   "type": "Feature",
   "geometry": {
    "type": "Point",
    "coordinates": [
     12.845,
     57.69583333
    ]
   },
   "properties": {
    "lager": "Flygplats",
    "namn": "",
    "typ": "ARP",
    "beteckning": "ESGE",
    "plats": "BORÅS",
    "frekvens": "",
    "hojd_msl": "",
    "operator": ""
   }
  },
  {
   "type": "Feature",
   "geometry": {
    "type": "Point",
    "coordinates": [
     18.69638889,
     59.73277778
    ]
   },
   "properties": {
    "lager": "Flygplats",
    "namn": "",
    "typ": "ARP",
    "beteckning": "ESSN",
    "plats": "NORRTÄLJE",
    "frekvens": "",
    "hojd_msl": "",
    "operator": ""
   }
  },
  {
   "type": "Feature",
   "geometry": {
    "type": "Point",
    "coordinates": [
     17.76888889,
     63.04861111
    ]
   },
   "properties": {
    "lager": "Flygplats",
    "namn": "",
    "typ": "ARP",
    "beteckning": "ESNK",
    "plats": "KRAMFORS-SOLLEFTEÅ",
    "frekvens": "",
    "hojd_msl": "",
    "operator": ""
   }
  },
  {
   "type": "Feature",
   "geometry": {
    "type": "Point",
    "coordinates": [
     16.63361111,
     59.58944444
    ]
   },
   "properties": {
    "lager": "Flygplats",
    "namn": "",
    "typ": "ARP",
    "beteckning": "ESOW",
    "plats": "STOCKHOLM/Västerås",
    "frekvens": "",
    "hojd_msl": "",
    "operator": ""
   }
  },
  {
   "type": "Feature",
   "geometry": {
    "type": "Point",
    "coordinates": [
     17.91861111,
     59.65194444
    ]
   },
   "properties": {
    "lager": "Flygplats",
    "namn": "",
    "typ": "ARP",
    "beteckning": "ESSA",
    "plats": "STOCKHOLM/Arlanda",
    "frekvens": "",
    "hojd_msl": "",
    "operator": ""
   }
  },
  {
   "type": "Feature",
   "geometry": {
    "type": "Point",
    "coordinates": [
     20.33555556,
     67.82138889
    ]
   },
   "properties": {
    "lager": "Flygplats",
    "namn": "",
    "typ": "ARP",
    "beteckning": "ESNQ",
    "plats": "KIRUNA",
    "frekvens": "",
    "hojd_msl": "",
    "operator": ""
   }
  },
  {
   "type": "Feature",
   "geometry": {
    "type": "Point",
    "coordinates": [
     17.69666667,
     64.96083333
    ]
   },
   "properties": {
    "lager": "Flygplats",
    "namn": "",
    "typ": "ARP",
    "beteckning": "ESUD",
    "plats": "STORUMAN",
    "frekvens": "",
    "hojd_msl": "",
    "operator": ""
   }
  },
  {
   "type": "Feature",
   "geometry": {
    "type": "Point",
    "coordinates": [
     12.26805556,
     58.31916667
    ]
   },
   "properties": {
    "lager": "Heliport",
    "namn": "",
    "typ": "HKP",
    "beteckning": "ESEN",
    "plats": "TROLLHÄTTAN/NÄL sjukhus",
    "frekvens": "",
    "hojd_msl": 95,
    "operator": ""
   }
  },
  {
   "type": "Feature",
   "geometry": {
    "type": "Point",
    "coordinates": [
     21.93583333,
     65.67222222
    ]
   },
   "properties": {
    "lager": "Heliport",
    "namn": "",
    "typ": "HKP",
    "beteckning": "ESES",
    "plats": "LULEÅ/Sunderby sjukhuset",
    "frekvens": "",
    "hojd_msl": 12,
    "operator": ""
   }
  },
  {
   "type": "Feature",
   "geometry": {
    "type": "Point",
    "coordinates": [
     18.68083333,
     64.58527778
    ]
   },
   "properties": {
    "lager": "Heliport",
    "namn": "",
    "typ": "HKP",
    "beteckning": "ESEY",
    "plats": "LYCKSELE/Sjukhuset",
    "frekvens": "",
    "hojd_msl": 226,
    "operator": ""
   }
  },
  {
   "type": "Feature",
   "geometry": {
    "type": "Point",
    "coordinates": [
     18.03194444,
     59.34916667
    ]
   },
   "properties": {
    "lager": "Heliport",
    "namn": "",
    "typ": "HKP",
    "beteckning": "ESHK",
    "plats": "STOCKHOLM/Karolinska Universitetssjukhuset Solna",
    "frekvens": "",
    "hojd_msl": 76,
    "operator": ""
   }
  },
  {
   "type": "Feature",
   "geometry": {
    "type": "Point",
    "coordinates": [
     18.68916667,
     59.75777778
    ]
   },
   "properties": {
    "lager": "Heliport",
    "namn": "",
    "typ": "HKP",
    "beteckning": "ESHY",
    "plats": "NORRTÄLJE/Sjukhuset",
    "frekvens": "",
    "hojd_msl": 19,
    "operator": ""
   }
  },
  {
   "type": "Feature",
   "geometry": {
    "type": "Point",
    "coordinates": [
     18.03777778,
     59.39138889
    ]
   },
   "properties": {
    "lager": "Heliport",
    "namn": "",
    "typ": "HKP",
    "beteckning": "ESHD",
    "plats": "STOCKHOLM/Danderyds sjukhus",
    "frekvens": "",
    "hojd_msl": 66,
    "operator": ""
   }
  },
  {
   "type": "Feature",
   "geometry": {
    "type": "Point",
    "coordinates": [
     13.19888889,
     55.71166667
    ]
   },
   "properties": {
    "lager": "Heliport",
    "namn": "",
    "typ": "HKP",
    "beteckning": "ESEM",
    "plats": "LUND/Skånes universitetssjukhus",
    "frekvens": "",
    "hojd_msl": 107,
    "operator": ""
   }
  },
  {
   "type": "Feature",
   "geometry": {
    "type": "Point",
    "coordinates": [
     12.96416667,
     57.72416667
    ]
   },
   "properties": {
    "lager": "Heliport",
    "namn": "",
    "typ": "HKP",
    "beteckning": "ESEB",
    "plats": "BORÅS/Borås sjukhus",
    "frekvens": "",
    "hojd_msl": 182,
    "operator": ""
   }
  },
  {
   "type": "Feature",
   "geometry": {
    "type": "Point",
    "coordinates": [
     13.47611111,
     59.37611111
    ]
   },
   "properties": {
    "lager": "Heliport",
    "namn": "",
    "typ": "HKP",
    "beteckning": "ESHV",
    "plats": "KARLSTAD/Centralsjukhuset",
    "frekvens": "",
    "hojd_msl": 48,
    "operator": ""
   }
  },
  {
   "type": "Feature",
   "geometry": {
    "type": "Point",
    "coordinates": [
     18.10361111,
     59.34055556
    ]
   },
   "properties": {
    "lager": "Heliport",
    "namn": "",
    "typ": "HKP",
    "beteckning": "ESHT",
    "plats": "STOCKHOLM/Gärdet",
    "frekvens": "",
    "hojd_msl": 12,
    "operator": ""
   }
  },
  {
   "type": "Feature",
   "geometry": {
    "type": "Point",
    "coordinates": [
     15.60888889,
     56.18333333
    ]
   },
   "properties": {
    "lager": "Heliport",
    "namn": "",
    "typ": "HKP",
    "beteckning": "ESHN",
    "plats": "KARLSKRONA/Blekingesjukhuset",
    "frekvens": "",
    "hojd_msl": 27,
    "operator": ""
   }
  },
  {
   "type": "Feature",
   "geometry": {
    "type": "Point",
    "coordinates": [
     13.60176667,
     57.26503056
    ]
   },
   "properties": {
    "lager": "Heliport",
    "namn": "",
    "typ": "HKP",
    "beteckning": "ESMP",
    "plats": "ANDERSTORP",
    "frekvens": "",
    "hojd_msl": 155,
    "operator": ""
   }
  },
  {
   "type": "Feature",
   "geometry": {
    "type": "Point",
    "coordinates": [
     17.93416667,
     59.21972222
    ]
   },
   "properties": {
    "lager": "Heliport",
    "namn": "",
    "typ": "HKP",
    "beteckning": "ESHL",
    "plats": "STOCKHOLM/Huddinge sjukhus",
    "frekvens": "",
    "hojd_msl": 81,
    "operator": ""
   }
  },
  {
   "type": "Feature",
   "geometry": {
    "type": "Point",
    "coordinates": [
     11.96805556,
     57.87722222
    ]
   },
   "properties": {
    "lager": "Heliport",
    "namn": "",
    "typ": "HKP",
    "beteckning": "ESHM",
    "plats": "KUNGÄLV/Kungälvs sjukhus",
    "frekvens": "",
    "hojd_msl": 11,
    "operator": ""
   }
  },
  {
   "type": "Feature",
   "geometry": {
    "type": "Point",
    "coordinates": [
     11.87055556,
     57.77555556
    ]
   },
   "properties": {
    "lager": "Heliport",
    "namn": "",
    "typ": "HKP",
    "beteckning": "ESGP",
    "plats": "GÖTEBORG/Säve",
    "frekvens": "",
    "hojd_msl": 18,
    "operator": ""
   }
  },
  {
   "type": "Feature",
   "geometry": {
    "type": "Point",
    "coordinates": [
     13.84805556,
     58.42527778
    ]
   },
   "properties": {
    "lager": "Heliport",
    "namn": "",
    "typ": "HKP",
    "beteckning": "ESHO",
    "plats": "SKÖVDE/Kärnsjukhuset",
    "frekvens": "",
    "hojd_msl": 149,
    "operator": ""
   }
  },
  {
   "type": "Feature",
   "geometry": {
    "type": "Point",
    "coordinates": [
     18.06611111,
     59.32277778
    ]
   },
   "properties": {
    "lager": "Heliport",
    "namn": "",
    "typ": "HKP",
    "beteckning": "ESHG",
    "plats": "STOCKHOLM/Gamla Stan",
    "frekvens": "",
    "hojd_msl": 1,
    "operator": ""
   }
  },
  {
   "type": "Feature",
   "geometry": {
    "type": "Point",
    "coordinates": [
     18.054749,
     59.308472
    ]
   },
   "properties": {
    "lager": "Heliport",
    "namn": "",
    "typ": "HKP",
    "beteckning": "ESHC",
    "plats": "STOCKHOLM/Södersjukhuset",
    "frekvens": "",
    "hojd_msl": 41,
    "operator": ""
   }
  },
  {
   "type": "Feature",
   "geometry": {
    "type": "Point",
    "coordinates": [
     17.64027778,
     59.84722222
    ]
   },
   "properties": {
    "lager": "Heliport",
    "namn": "",
    "typ": "HKP",
    "beteckning": "ESHU",
    "plats": "UPPSALA/Akademiska sjukhuset",
    "frekvens": "",
    "hojd_msl": 52,
    "operator": ""
   }
  },
  {
   "type": "Feature",
   "geometry": {
    "type": "Point",
    "coordinates": [
     16.58194444,
     59.61583333
    ]
   },
   "properties": {
    "lager": "Heliport",
    "namn": "",
    "typ": "HKP",
    "beteckning": "ESEW",
    "plats": "VÄSTERÅS/Västmanlands sjukhus",
    "frekvens": "",
    "hojd_msl": 28,
    "operator": ""
   }
  },
  {
   "type": "Feature",
   "geometry": {
    "type": "Point",
    "coordinates": [
     18.27166667,
     59.48555556
    ]
   },
   "properties": {
    "lager": "Heliport",
    "namn": "",
    "typ": "HKP",
    "beteckning": "ESHR",
    "plats": "ÅKERSBERGA",
    "frekvens": "",
    "hojd_msl": 2,
    "operator": ""
   }
  },
  {
   "type": "Feature",
   "geometry": {
    "type": "Point",
    "coordinates": [
     20.63194444,
     67.13666667
    ]
   },
   "properties": {
    "lager": "Heliport",
    "namn": "",
    "typ": "HKP",
    "beteckning": "ESEG",
    "plats": "GÄLLIVARE/Vassara",
    "frekvens": "",
    "hojd_msl": 354,
    "operator": ""
   }
  },
  {
   "type": "Feature",
   "geometry": {
    "type": "Point",
    "coordinates": [
     11.95638889,
     57.68333333
    ]
   },
   "properties": {
    "lager": "Heliport",
    "namn": "",
    "typ": "HKP",
    "beteckning": "ESHS",
    "plats": "GÖTEBORG/Sahlgrenska sjukhuset",
    "frekvens": "",
    "hojd_msl": 55,
    "operator": ""
   }
  },
  {
   "type": "Feature",
   "geometry": {
    "type": "Point",
    "coordinates": [
     12.05055556,
     57.71944444
    ]
   },
   "properties": {
    "lager": "Heliport",
    "namn": "",
    "typ": "HKP",
    "beteckning": "ESHB",
    "plats": "GÖTEBORG/Östra sjukhuset",
    "frekvens": "",
    "hojd_msl": 73,
    "operator": ""
   }
  },
  {
   "type": "Feature",
   "geometry": {
    "type": "Point",
    "coordinates": [
     15.22888889,
     59.27472222
    ]
   },
   "properties": {
    "lager": "Heliport",
    "namn": "",
    "typ": "HKP",
    "beteckning": "ESHQ",
    "plats": "ÖREBRO/Universitetssjukhuset",
    "frekvens": "",
    "hojd_msl": 50,
    "operator": ""
   }
  },
  {
   "type": "Feature",
   "geometry": {
    "type": "Point",
    "coordinates": [
     14.19444444,
     57.76472222
    ]
   },
   "properties": {
    "lager": "Heliport",
    "namn": "",
    "typ": "HKP",
    "beteckning": "ESHJ",
    "plats": "JÖNKÖPING/Ryhov sjukhus",
    "frekvens": "",
    "hojd_msl": 106,
    "operator": ""
   }
  },
  {
   "type": "Feature",
   "geometry": {
    "type": "Point",
    "coordinates": [
     18.30083333,
     57.65
    ]
   },
   "properties": {
    "lager": "Heliport",
    "namn": "",
    "typ": "HKP",
    "beteckning": "ESEV",
    "plats": "VISBY/Sjukhuset",
    "frekvens": "",
    "hojd_msl": 8,
    "operator": ""
   }
  },
  {
   "type": "Feature",
   "geometry": {
    "type": "Point",
    "coordinates": [
     17.1,
     61.73055556
    ]
   },
   "properties": {
    "lager": "Heliport",
    "namn": "",
    "typ": "HKP",
    "beteckning": "ESHX",
    "plats": "HUDIKSVALL/Sjukhuset",
    "frekvens": "",
    "hojd_msl": 23,
    "operator": ""
   }
  },
  {
   "type": "Feature",
   "geometry": {
    "type": "Point",
    "coordinates": [
     17.30228226,
     62.40793814
    ]
   },
   "properties": {
    "lager": "Heliport",
    "namn": "",
    "typ": "HKP",
    "beteckning": "ESED",
    "plats": "SUNDSVALL/Länssjukhuset",
    "frekvens": "",
    "hojd_msl": 95,
    "operator": ""
   }
  },
  {
   "type": "Feature",
   "geometry": {
    "type": "Point",
    "coordinates": [
     12.9975,
     60.13666667
    ]
   },
   "properties": {
    "lager": "Heliport",
    "namn": "",
    "typ": "HKP",
    "beteckning": "ESET",
    "plats": "TORSBY/Torsby sjukhus",
    "frekvens": "",
    "hojd_msl": 102,
    "operator": ""
   }
  },
  {
   "type": "Feature",
   "geometry": {
    "type": "Point",
    "coordinates": [
     17.11805556,
     60.68138889
    ]
   },
   "properties": {
    "lager": "Heliport",
    "namn": "",
    "typ": "HKP",
    "beteckning": "ESJA",
    "plats": "GÄVLE/Sjukhuset",
    "frekvens": "",
    "hojd_msl": 21,
    "operator": ""
   }
  },
  {
   "type": "Feature",
   "geometry": {
    "type": "Point",
    "coordinates": [
     20.23666667,
     67.85027778
    ]
   },
   "properties": {
    "lager": "Heliport",
    "namn": "",
    "typ": "HKP",
    "beteckning": "ESEQ",
    "plats": "KIRUNA/Kiruna sjukhus",
    "frekvens": "",
    "hojd_msl": 536,
    "operator": ""
   }
  },
  {
   "type": "Feature",
   "geometry": {
    "type": "Point",
    "coordinates": [
     15.61944444,
     58.40166667
    ]
   },
   "properties": {
    "lager": "Heliport",
    "namn": "",
    "typ": "HKP",
    "beteckning": "ESJL",
    "plats": "LINKÖPING/US Linköping helikopterflygplats",
    "frekvens": "",
    "hojd_msl": 111,
    "operator": ""
   }
  },
  {
   "type": "Feature",
   "geometry": {
    "type": "Point",
    "coordinates": [
     15.64527778,
     60.6075
    ]
   },
   "properties": {
    "lager": "Heliport",
    "namn": "",
    "typ": "HKP",
    "beteckning": "ESEF",
    "plats": "FALUN/Falu lasarett",
    "frekvens": "",
    "hojd_msl": 144,
    "operator": ""
   }
  },
  {
   "type": "Feature",
   "geometry": {
    "type": "Point",
    "coordinates": [
     14.58416667,
     61.01722222
    ]
   },
   "properties": {
    "lager": "Heliport",
    "namn": "",
    "typ": "HKP",
    "beteckning": "ESJM",
    "plats": "MORA/Mora lasarett",
    "frekvens": "",
    "hojd_msl": 197,
    "operator": ""
   }
  },
  {
   "type": "Feature",
   "geometry": {
    "type": "Point",
    "coordinates": [
     16.36111111,
     61.35277778
    ]
   },
   "properties": {
    "lager": "Heliport",
    "namn": "",
    "typ": "HKP",
    "beteckning": "ESJB",
    "plats": "BOLLNÄS/Sjukhuset",
    "frekvens": "",
    "hojd_msl": 71,
    "operator": ""
   }
  },
  {
   "type": "Feature",
   "geometry": {
    "type": "Point",
    "coordinates": [
     12.85086111,
     55.02444444
    ]
   },
   "properties": {
    "lager": "Heliport",
    "namn": "",
    "typ": "HKP",
    "beteckning": "ESEX",
    "plats": "Kriegers Flak A",
    "frekvens": "",
    "hojd_msl": 36,
    "operator": ""
   }
  },
  {
   "type": "Feature",
   "geometry": {
    "type": "Point",
    "coordinates": [
     12.94511111,
     55.04847222
    ]
   },
   "properties": {
    "lager": "Heliport",
    "namn": "",
    "typ": "HKP",
    "beteckning": "ESEZ",
    "plats": "Kriegers Flak B",
    "frekvens": "",
    "hojd_msl": 35,
    "operator": ""
   }
  },
  {
   "type": "Feature",
   "geometry": {
    "type": "Point",
    "coordinates": [
     12.16166667,
     58.7975
    ]
   },
   "properties": {
    "lager": "Heliport",
    "namn": "",
    "typ": "HKP",
    "beteckning": "ESJD",
    "plats": "BÄCKEFORS/Dalslands sjukhus",
    "frekvens": "",
    "hojd_msl": 157,
    "operator": ""
   }
  },
  {
   "type": "Feature",
   "geometry": {
    "type": "Point",
    "coordinates": [
     14.63055556,
     63.19138889
    ]
   },
   "properties": {
    "lager": "Heliport",
    "namn": "",
    "typ": "HKP",
    "beteckning": "ESJH",
    "plats": "GÖVIKEN/Helikopterflygplats",
    "frekvens": "",
    "hojd_msl": 295,
    "operator": ""
   }
  },
  {
   "type": "Feature",
   "geometry": {
    "type": "Point",
    "coordinates": [
     20.94083333,
     64.75555556
    ]
   },
   "properties": {
    "lager": "Heliport",
    "namn": "",
    "typ": "HKP",
    "beteckning": "ESJS",
    "plats": "SKELLEFTEÅ LASARETT",
    "frekvens": "",
    "hojd_msl": 22,
    "operator": ""
   }
  },
  {
   "type": "Feature",
   "geometry": {
    "type": "Point",
    "coordinates": [
     20.68305556,
     67.13111111
    ]
   },
   "properties": {
    "lager": "Heliport",
    "namn": "",
    "typ": "HKP",
    "beteckning": "ESHA",
    "plats": "GÄLLIVARE/Gällivare sjukhus",
    "frekvens": "",
    "hojd_msl": 348,
    "operator": ""
   }
  },
  {
   "type": "Feature",
   "geometry": {
    "type": "Point",
    "coordinates": [
     13.35333333,
     55.54833333
    ]
   },
   "properties": {
    "lager": "Heliport",
    "namn": "",
    "typ": "HKP",
    "beteckning": "ESMS",
    "plats": "MALMÖ",
    "frekvens": "",
    "hojd_msl": 72,
    "operator": ""
   }
  },
  {
   "type": "Feature",
   "geometry": {
    "type": "Point",
    "coordinates": [
     20.29833333,
     63.81722222
    ]
   },
   "properties": {
    "lager": "Heliport",
    "namn": "",
    "typ": "HKP",
    "beteckning": "ESHZ",
    "plats": "UMEÅ/Universitetssjukhuset",
    "frekvens": "",
    "hojd_msl": 71,
    "operator": ""
   }
  }
 ]
}