{
 "type": "FeatureCollection",
 "metadata": {
  "source": "https://dronechart.lfv.se/geoserver/wfs",
  "provider": "LFV / Transportstyrelsen",
  "generated": "2026-07-03T17:06:52.026Z"
 },
 "features": [
  {
   "type": "Feature",
   "geometry": {
    "type": "Polygon",
    "coordinates": [
     [
      [
       18.57916667,
       66.915
      ],
      [
       19.86222222,
       66.59861111
      ],
      [
       20.37888889,
       66.13194444
      ],
      [
       20.33583333,
       66.07944444
      ],
      [
       20.16222222,
       65.86527778
      ],
      [
       19.44583333,
       65.86527778
      ],
      [
       19.31083333,
       65.92305556
      ],
      [
       17.87944444,
       66.51527778
      ],
      [
       18.57916667,
       66.915
      ]
     ]
    ]
   },
   "properties": {
    "lager": "Tillfälligt reserverat (TRA)",
    "namn": "ESTRA64",
    "typ": "TRA",
    "beteckning": "ESAA",
    "plats": "ESTRA64",
    "hojd": "FL 95–FL 660",
    "operator": "",
    "gäller_fr": "2026-06-11",
    "kommentar": "Planerad aktivitet kommer att notifieras i eAUP.\n\nPlanned activities will be notified by eAUP."
   }
  },
  {
   "type": "Feature",
   "geometry": {
    "type": "Polygon",
    "coordinates": [
     [
      [
       23.48055556,
       68.02361111
      ],
      [
       23.48972222,
       68.01444444
      ],
      [
       23.51277778,
       68.00972222
      ],
      [
       23.53472222,
       68.00527778
      ],
      [
       23.53666667,
       67.99583333
      ],
      [
       23.55305556,
       67.98055556
      ],
      [
       23.57638889,
       67.97194444
      ],
      [
       23.60638889,
       67.97166667
      ],
      [
       23.61472222,
       67.96916667
      ],
      [
       23.63555556,
       67.96638889
      ],
      [
       23.65222222,
       67.95944444
      ],
      [
       23.65055556,
       67.95222222
      ],
      [
       23.66444444,
       67.94222222
      ],
      [
       23.65083333,
       67.93194444
      ],
      [
       23.64472222,
       67.92583333
      ],
      [
       23.64527778,
       67.91888889
      ],
      [
       23.63833333,
       67.91444444
      ],
      [
       23.62638889,
       67.91138889
      ],
      [
       23.6075,
       67.90555556
      ],
      [
       23.59333333,
       67.90194444
      ],
      [
       23.58083333,
       67.89305556
      ],
      [
       23.55694444,
       67.89777778
      ],
      [
       23.54555556,
       67.89194444
      ],
      [
       23.52055556,
       67.88583333
      ],
      [
       23.50583333,
       67.87833333
      ],
      [
       23.49611111,
       67.865
      ],
      [
       23.48888889,
       67.84722222
      ],
      [
       23.48194444,
       67.83111111
      ],
      [
       23.47361111,
       67.81777778
      ],
      [
       23.47888889,
       67.805
      ],
      [
       23.49333333,
       67.78916667
      ],
      [
       23.48833333,
       67.76916667
      ],
      [
       23.48972222,
       67.75222222
      ],
      [
       23.47638889,
       67.74
      ],
      [
       23.48638889,
       67.73111111
      ],
      [
       23.47805556,
       67.71777778
      ],
      [
       23.47972222,
       67.70305556
      ],
      [
       23.49277778,
       67.69416667
      ],
      [
       23.49722222,
       67.68361111
      ],
      [
       23.49222222,
       67.66805556
      ],
      [
       23.50944444,
       67.65055556
      ],
      [
       23.53,
       67.63861111
      ],
      [
       23.53888889,
       67.62694444
      ],
      [
       23.55555556,
       67.62194444
      ],
      [
       23.54194444,
       67.60722222
      ],
      [
       23.54444444,
       67.58638889
      ],
      [
       23.51361111,
       67.56527778
      ],
      [
       23.48444444,
       67.56722222
      ],
      [
       23.46388889,
       67.565
      ],
      [
       23.46222222,
       67.55361111
      ],
      [
       23.48388889,
       67.53916667
      ],
      [
       23.45555556,
       67.52527778
      ],
      [
       23.43527778,
       67.51111111
      ],
      [
       23.41944444,
       67.50361111
      ],
      [
       23.40583333,
       67.50027778
      ],
      [
       23.39444444,
       67.48694444
      ],
      [
       23.40305556,
       67.47944444
      ],
      [
       23.40722222,
       67.46972222
      ],
      [
       23.43083333,
       67.46472222
      ],
      [
       23.45583333,
       67.45555556
      ],
      [
       23.49638889,
       67.44638889
      ],
      [
       23.52583333,
       67.45277778
      ],
      [
       23.54944444,
       67.46111111
      ],
      [
       23.70055556,
       67.44611111
      ],
      [
       23.76416667,
       67.42944444
      ],
      [
       23.73194444,
       67.39444444
      ],
      [
       23.73222222,
       67.38027778
      ],
      [
       23.75805556,
       67.34833333
      ],
      [
       23.77277778,
       67.33555556
      ],
      [
       23.75694444,
       67.32388889
      ],
      [
       23.745,
       67.3075
      ],
      [
       23.72638889,
       67.285
      ],
      [
       23.64527778,
       67.27694444
      ],
      [
       23.56888889,
       67.26472222
      ],
      [
       23.56666667,
       67.25166667
      ],
      [
       23.55472222,
       67.23194444
      ],
      [
       23.55638889,
       67.22388889
      ],
      [
       23.5925,
       67.21027778
      ],
      [
       23.58805556,
       67.19194444
      ],
      [
       23.5625,
       67.18305556
      ],
      [
       23.555,
       67.16638889
      ],
      [
       23.60583333,
       67.13388889
      ],
      [
       23.65472222,
       67.10277778
      ],
      [
       23.67472222,
       67.06416667
      ],
      [
       23.7575,
       67.00611111
      ],
      [
       23.81527778,
       66.97916667
      ],
      [
       23.85194444,
       66.9575
      ],
      [
       23.86694444,
       66.91722222
      ],
      [
       23.93527778,
       66.88388889
      ],
      [
       23.955,
       66.86111111
      ],
      [
       23.99555556,
       66.82027778
      ],
      [
       23.98388889,
       66.80027778
      ],
      [
       23.97888889,
       66.78527778
      ],
      [
       23.95305556,
       66.78472222
      ],
      [
       23.91416667,
       66.79444444
      ],
      [
       23.91055556,
       66.77527778
      ],
      [
       23.89055556,
       66.76805556
      ],
      [
       23.87861111,
       66.75222222
      ],
      [
       23.90444444,
       66.72361111
      ],
      [
       23.88694444,
       66.67388889
      ],
      [
       23.86972222,
       66.66
      ],
      [
       23.87166667,
       66.62805556
      ],
      [
       23.88333333,
       66.61
      ],
      [
       23.87666667,
       66.57916667
      ],
      [
       23.86083333,
       66.56694444
      ],
      [
       23.85055556,
       66.55555556
      ],
      [
       23.80805556,
       66.54555556
      ],
      [
       23.79416667,
       66.53861111
      ],
      [
       23.79583333,
       66.51861111
      ],
      [
       23.77166667,
       66.51361111
      ],
      [
       23.75055556,
       66.50444444
      ],
      [
       23.72972222,
       66.50666667
      ],
      [
       23.72583333,
       66.49722222
      ],
      [
       23.71916667,
       66.47666667
      ],
      [
       23.68722222,
       66.47166667
      ],
      [
       23.65166667,
       66.45555556
      ],
      [
       23.64416667,
       66.42527778
      ],
      [
       23.67166667,
       66.39638889
      ],
      [
       23.68888889,
       66.38638889
      ],
      [
       23.67333333,
       66.36666667
      ],
      [
       23.66055556,
       66.35472222
      ],
      [
       23.65944444,
       66.3325
      ],
      [
       23.65861111,
       66.3175
      ],
      [
       23.65,
       66.30888889
      ],
      [
       23.66916667,
       66.27666667
      ],
      [
       23.67888889,
       66.26833333
      ],
      [
       22.47361111,
       66.00611111
      ],
      [
       22.28805556,
       66.315
      ],
      [
       22.25611111,
       66.365
      ],
      [
       21.49055556,
       67.56055556
      ],
      [
       23.48055556,
       68.02361111
      ]
     ]
    ]
   },
   "properties": {
    "lager": "Tillfälligt reserverat (TRA)",
    "namn": "ESTRA80 med ",
    "typ": "TRA",
    "beteckning": "ESAA",
    "plats": "ESTRA80 med ",
    "hojd": "FL 95–FL 660",
    "operator": "",
    "gäller_fr": "2026-06-11",
    "kommentar": "Får endast användas under perioden\n1 FEB-14 NOV.\nPlanerad aktivitet kommer notifieras i eAUP.\n\nOnly for use during the period \n1 FEB-14 NOV.\nPlanned activities will be notified by eAUP."
   }
  },
  {
   "type": "Feature",
   "geometry": {
    "type": "Polygon",
    "coordinates": [
     [
      [
       20.49555556,
       67.33194444
      ],
      [
       21.30166667,
       66.12888889
      ],
      [
       21.57611111,
       65.71944444
      ],
      [
       20.16222222,
       65.86527778
      ],
      [
       20.33583333,
       66.07944444
      ],
      [
       20.37888889,
       66.13194444
      ],
      [
       19.86222222,
       66.59861111
      ],
      [
       18.57916667,
       66.915
      ],
      [
       18.57916667,
       67
      ],
      [
       19,
       67
      ],
      [
       20.49555556,
       67.33194444
      ]
     ]
    ]
   },
   "properties": {
    "lager": "Tillfälligt reserverat (TRA)",
    "namn": "ESTRA71",
    "typ": "TRA",
    "beteckning": "ESAA",
    "plats": "ESTRA71",
    "hojd": "FL 95–FL 660",
    "operator": "",
    "gäller_fr": "2026-06-11",
    "kommentar": "Planerad aktivitet kommer att notifieras i eAUP.\n\nPlanned activities will be notified by eAUP."
   }
  },
  {
   "type": "Feature",
   "geometry": {
    "type": "Polygon",
    "coordinates": [
     [
      [
       20.44583333,
       68.21166667
      ],
      [
       21.49055556,
       67.56055556
      ],
      [
       20.91777778,
       67.39861111
      ],
      [
       20.65805556,
       67.3575
      ],
      [
       20.49555556,
       67.33194444
      ],
      [
       19,
       67
      ],
      [
       19,
       67.81638889
      ],
      [
       20.44583333,
       68.21166667
      ]
     ]
    ]
   },
   "properties": {
    "lager": "Tillfälligt reserverat (TRA)",
    "namn": "ESTRA73",
    "typ": "TRA",
    "beteckning": "ESAA",
    "plats": "ESTRA73",
    "hojd": "FL 95–FL 660",
    "operator": "",
    "gäller_fr": "2026-06-11",
    "kommentar": "Planerad aktivitet kommer att notifieras i eAUP.\n\nPlanned activities will be notified by eAUP."
   }
  },
  {
   "type": "Feature",
   "geometry": {
    "type": "Polygon",
    "coordinates": [
     [
      [
       16.9,
       67
      ],
      [
       18.57916667,
       67
      ],
      [
       18.57916667,
       66.915
      ],
      [
       17.87944444,
       66.51527778
      ],
      [
       19.31083333,
       65.92305556
      ],
      [
       19.44583333,
       65.86527778
      ],
      [
       20.16222222,
       65.86527778
      ],
      [
       21.57611111,
       65.71944444
      ],
      [
       21.02194444,
       65.26416667
      ],
      [
       19.85194444,
       64.51
      ],
      [
       16.99083333,
       66.11805556
      ],
      [
       16.39222222,
       66.43055556
      ],
      [
       16.9,
       67
      ]
     ]
    ]
   },
   "properties": {
    "lager": "Tillfälligt reserverat (TRA)",
    "namn": "ESTRA63",
    "typ": "TRA",
    "beteckning": "ESAA",
    "plats": "ESTRA63",
    "hojd": "FL 95–FL 660",
    "operator": "",
    "gäller_fr": "2026-06-11",
    "kommentar": "Planerad aktivitet kommer att notifieras i eAUP.\n\nPlanned activities will be notified by eAUP."
   }
  },
  {
   "type": "Feature",
   "geometry": {
    "type": "Polygon",
    "coordinates": [
     [
      [
       16.39222222,
       66.43055556
      ],
      [
       16.99083333,
       66.11805556
      ],
      [
       19.85194444,
       64.51
      ],
      [
       19.19916667,
       64.07111111
      ],
      [
       15.51888889,
       65.35583333
      ],
      [
       16.39222222,
       66.43055556
      ]
     ]
    ]
   },
   "properties": {
    "lager": "Tillfälligt reserverat (TRA)",
    "namn": "ESTRA62",
    "typ": "TRA",
    "beteckning": "ESAA",
    "plats": "ESTRA62",
    "hojd": "FL 95–FL 660",
    "operator": "",
    "gäller_fr": "2026-06-11",
    "kommentar": "Planerad aktivitet kommer att notifieras i eAUP.\n\nPlanned activities will be notified by eAUP."
   }
  },
  {
   "type": "Feature",
   "geometry": {
    "type": "Polygon",
    "coordinates": [
     [
      [
       15.51888889,
       65.35583333
      ],
      [
       19.19916667,
       64.07111111
      ],
      [
       18.98861111,
       63.92583333
      ],
      [
       15.0225,
       64.63888889
      ],
      [
       15.51888889,
       65.35583333
      ]
     ]
    ]
   },
   "properties": {
    "lager": "Tillfälligt reserverat (TRA)",
    "namn": "ESTRA61",
    "typ": "TRA",
    "beteckning": "ESAA",
    "plats": "ESTRA61",
    "hojd": "FL 95–FL 660",
    "operator": "",
    "gäller_fr": "2026-06-11",
    "kommentar": "Planerad aktivitet kommer att notifieras i eAUP.\n\nPlanned activities will be notified by eAUP."
   }
  },
  {
   "type": "Feature",
   "geometry": {
    "type": "Polygon",
    "coordinates": [
     [
      [
       21.49055556,
       67.56055556
      ],
      [
       22.25611111,
       66.365
      ],
      [
       21.30166667,
       66.12888889
      ],
      [
       20.49555556,
       67.33194444
      ],
      [
       20.65805556,
       67.3575
      ],
      [
       20.91777778,
       67.39861111
      ],
      [
       21.49055556,
       67.56055556
      ]
     ]
    ]
   },
   "properties": {
    "lager": "Tillfälligt reserverat (TRA)",
    "namn": "ESTRA75",
    "typ": "TRA",
    "beteckning": "ESAA",
    "plats": "ESTRA75",
    "hojd": "FL 95–FL 660",
    "operator": "",
    "gäller_fr": "2026-06-11",
    "kommentar": "Planerad aktivitet kommer att notifieras i eAUP.\n\nPlanned activities will be notified by eAUP."
   }
  },
  {
   "type": "Feature",
   "geometry": {
    "type": "Polygon",
    "coordinates": [
     [
      [
       22.25611111,
       66.365
      ],
      [
       22.28805556,
       66.315
      ],
      [
       22.47361111,
       66.00611111
      ],
      [
       22.16777778,
       65.93861111
      ],
      [
       21.57611111,
       65.71944444
      ],
      [
       21.30166667,
       66.12888889
      ],
      [
       22.25611111,
       66.365
      ]
     ]
    ]
   },
   "properties": {
    "lager": "Tillfälligt reserverat (TRA)",
    "namn": "ESTRA76",
    "typ": "TRA",
    "beteckning": "ESAA",
    "plats": "ESTRA76",
    "hojd": "FL 95–FL 660",
    "operator": "",
    "gäller_fr": "2026-06-11",
    "kommentar": "Planerad aktivitet kommer att notifieras i eAUP.\n\nPlanned activities will be notified by eAUP."
   }
  },
  {
   "type": "Feature",
   "geometry": {
    "type": "Polygon",
    "coordinates": [
     [
      [
       19,
       67.81638889
      ],
      [
       19,
       67
      ],
      [
       18.57916667,
       67
      ],
      [
       16.9,
       67
      ],
      [
       17.15305556,
       67.23333333
      ],
      [
       19,
       67.81638889
      ]
     ]
    ]
   },
   "properties": {
    "lager": "Tillfälligt reserverat (TRA)",
    "namn": "ESTRA74",
    "typ": "TRA",
    "beteckning": "ESAA",
    "plats": "ESTRA74",
    "hojd": "FL 125–FL 660",
    "operator": "",
    "gäller_fr": "2026-06-11",
    "kommentar": "Planerad aktivitet kommer att notifieras i eAUP.\n\nPlanned activities will be notified by eAUP."
   }
  },
  {
   "type": "Feature",
   "geometry": {
    "type": "Polygon",
    "coordinates": [
     [
      [
       23.68944444,
       68.06638889
      ],
      [
       24.45333333,
       67.66194444
      ],
      [
       24.63361111,
       67.38888889
      ],
      [
       24.77833333,
       66.58638889
      ],
      [
       24.68888889,
       66.45888889
      ],
      [
       23.67888889,
       66.26833333
      ],
      [
       22.47361111,
       66.00611111
      ],
      [
       21.49055556,
       67.56055556
      ],
      [
       23.48055556,
       68.02361111
      ],
      [
       23.68944444,
       68.06638889
      ]
     ]
    ]
   },
   "properties": {
    "lager": "Gränsöverskridande (CBA)",
    "namn": "EUCBA10",
    "typ": "CBA",
    "beteckning": "ESAA",
    "plats": "EUCBA10",
    "hojd": "FL 95–FL 660",
    "operator": "",
    "gäller_fr": "2026-06-11",
    "kommentar": "Consists of\nESTRA80\nEFTRA see AIP Finland\n\nOnly for use during the period \n1 FEB-14 NOV."
   }
  }
 ]
}