{
 "type": "FeatureCollection",
 "metadata": {
  "source": "https://dronechart.lfv.se/geoserver/wfs",
  "provider": "LFV / Transportstyrelsen",
  "generated": "2026-07-03T17:06:52.212Z"
 },
 "features": [
  {
   "type": "Feature",
   "geometry": {
    "type": "MultiPolygon",
    "coordinates": [
     [
      [
       [
        23.295278,
        65.548611
       ],
       [
        23.828333,
        65.398611
       ],
       [
        22.328889,
        64.332222
       ],
       [
        21.795556,
        64.465556
       ],
       [
        23.295278,
        65.548611
       ]
      ]
     ]
    ]
   },
   "properties": {
    "lager": "Tillfälligt område",
    "namn": "Brynjan",
    "hojd": "GND",
    "reviderad": "20190820"
   }
  },
  {
   "type": "Feature",
   "geometry": {
    "type": "MultiPolygon",
    "coordinates": [
     [
      [
       [
        17.75,
        56.45
       ],
       [
        18.166667,
        56.183333
       ],
       [
        16.433333,
        55.25
       ],
       [
        16,
        55.5
       ],
       [
        17.75,
        56.45
       ]
      ]
     ]
    ]
   },
   "properties": {
    "lager": "Tillfälligt område",
    "namn": "Falken",
    "hojd": "GND",
    "reviderad": "20190820"
   }
  },
  {
   "type": "Feature",
   "geometry": {
    "type": "MultiPolygon",
    "coordinates": [
     [
      [
       [
        18.656389,
        62.845
       ],
       [
        18.993056,
        62.837778
       ],
       [
        19.351667,
        62.823889
       ],
       [
        19.396111,
        62.777778
       ],
       [
        18.858056,
        62.002778
       ],
       [
        17.919444,
        62.226667
       ],
       [
        17.908611,
        62.241111
       ],
       [
        17.940833,
        62.493611
       ],
       [
        18.308333,
        62.818889
       ],
       [
        18.656389,
        62.845
       ]
      ]
     ]
    ]
   },
   "properties": {
    "lager": "Tillfälligt område",
    "namn": "Niland North",
    "hojd": "GND",
    "reviderad": "20190820"
   }
  },
  {
   "type": "Feature",
   "geometry": {
    "type": "MultiPolygon",
    "coordinates": [
     [
      [
       [
        17.919444,
        62.226667
       ],
       [
        18.858056,
        62.002778
       ],
       [
        18.808333,
        61.928889
       ],
       [
        18.121944,
        61.961389
       ],
       [
        18.055833,
        62.0425
       ],
       [
        17.919444,
        62.226667
       ]
      ]
     ]
    ]
   },
   "properties": {
    "lager": "Tillfälligt område",
    "namn": "Niland South",
    "hojd": "GND",
    "reviderad": "20190820"
   }
  },
  {
   "type": "Feature",
   "geometry": {
    "type": "MultiPolygon",
    "coordinates": [
     [
      [
       [
        18.308333,
        62.818889
       ],
       [
        18.0375,
        62.580556
       ],
       [
        17.9425,
        62.582222
       ],
       [
        17.896111,
        62.63
       ],
       [
        17.9625,
        62.695556
       ],
       [
        18.308333,
        62.818889
       ]
      ]
     ]
    ]
   },
   "properties": {
    "lager": "Tillfälligt område",
    "namn": "Niland West",
    "hojd": "GND",
    "reviderad": "20190820"
   }
  },
  {
   "type": "Feature",
   "geometry": {
    "type": "MultiPolygon",
    "coordinates": [
     [
      [
       [
        17.516667,
        58.233333
       ],
       [
        17.516667,
        57.483333
       ],
       [
        17.263889,
        57.483333
       ],
       [
        17.233333,
        57.833333
       ],
       [
        17.516667,
        58.233333
       ]
      ]
     ]
    ]
   },
   "properties": {
    "lager": "Tillfälligt område",
    "namn": "Urban Center",
    "hojd": "GND",
    "reviderad": "20190820"
   }
  },
  {
   "type": "Feature",
   "geometry": {
    "type": "MultiPolygon",
    "coordinates": [
     [
      [
       [
        17.516667,
        58.233333
       ],
       [
        17.75,
        58.233333
       ],
       [
        17.75,
        57.483333
       ],
       [
        17.516667,
        57.483333
       ],
       [
        17.516667,
        58.233333
       ]
      ]
     ]
    ]
   },
   "properties": {
    "lager": "Tillfälligt område",
    "namn": "Urban East",
    "hojd": "GND",
    "reviderad": "20190820"
   }
  },
  {
   "type": "Feature",
   "geometry": {
    "type": "MultiPolygon",
    "coordinates": [
     [
      [
       [
        17.116667,
        58.233333
       ],
       [
        17.516667,
        58.233333
       ],
       [
        17.233333,
        57.833333
       ],
       [
        16.883333,
        57.833333
       ],
       [
        17.116667,
        58.233333
       ]
      ]
     ]
    ]
   },
   "properties": {
    "lager": "Tillfälligt område",
    "namn": "Urban North",
    "hojd": "GND",
    "reviderad": "20190820"
   }
  },
  {
   "type": "Feature",
   "geometry": {
    "type": "MultiPolygon",
    "coordinates": [
     [
      [
       [
        16.883333,
        57.833333
       ],
       [
        17.233333,
        57.833333
       ],
       [
        17.263889,
        57.483333
       ],
       [
        16.897222,
        57.483333
       ],
       [
        16.883333,
        57.833333
       ]
      ]
     ]
    ]
   },
   "properties": {
    "lager": "Tillfälligt område",
    "namn": "Urban South",
    "hojd": "GND",
    "reviderad": "20190820"
   }
  },
  {
   "type": "Feature",
   "geometry": {
    "type": "MultiPolygon",
    "coordinates": [
     [
      [
       [
        19.396111,
        62.777778
       ],
       [
        18.858056,
        62.002778
       ],
       [
        18.808333,
        61.928889
       ],
       [
        18.121944,
        61.961389
       ],
       [
        17.919444,
        62.226667
       ],
       [
        17.908611,
        62.241111
       ],
       [
        17.940833,
        62.493611
       ],
       [
        18.039011,
        62.58051
       ],
       [
        18.0375,
        62.580556
       ],
       [
        17.9425,
        62.582222
       ],
       [
        17.896111,
        62.63
       ],
       [
        17.9625,
        62.695556
       ],
       [
        18.308333,
        62.818889
       ],
       [
        18.656389,
        62.845
       ],
       [
        19.351667,
        62.823889
       ],
       [
        19.396111,
        62.777778
       ]
      ]
     ]
    ]
   },
   "properties": {
    "lager": "Tillfälligt område",
    "namn": "Niland",
    "hojd": "GND",
    "reviderad": "20190820"
   }
  },
  {
   "type": "Feature",
   "geometry": {
    "type": "MultiPolygon",
    "coordinates": [
     [
      [
       [
        17.75,
        58.233333
       ],
       [
        17.75,
        57.483333
       ],
       [
        17.516667,
        57.483333
       ],
       [
        17.263889,
        57.483333
       ],
       [
        16.897222,
        57.483333
       ],
       [
        16.883333,
        57.833333
       ],
       [
        17.116667,
        58.233333
       ],
       [
        17.516667,
        58.233333
       ],
       [
        17.75,
        58.233333
       ]
      ]
     ]
    ]
   },
   "properties": {
    "lager": "Tillfälligt område",
    "namn": "Urban",
    "hojd": "GND",
    "reviderad": "20190820"
   }
  },
  {
   "type": "Feature",
   "geometry": {
    "type": "MultiPolygon",
    "coordinates": [
     [
      [
       [
        17.121667,
        58.433333
       ],
       [
        17.650833,
        58.369167
       ],
       [
        17.823333,
        58.173056
       ],
       [
        17.7975,
        57.919444
       ],
       [
        17.806389,
        57.7425
       ],
       [
        17.388889,
        57.497778
       ],
       [
        16.514444,
        57.564167
       ],
       [
        16.573333,
        58.023611
       ],
       [
        16.810556,
        58.315278
       ],
       [
        17.121667,
        58.433333
       ]
      ]
     ]
    ]
   },
   "properties": {
    "lager": "Tillfälligt område",
    "namn": "Vastervik",
    "hojd": "GND",
    "reviderad": "20230103"
   }
  },
  {
   "type": "Feature",
   "geometry": {
    "type": "MultiPolygon",
    "coordinates": [
     [
      [
       [
        17.806389,
        57.7425
       ],
       [
        17.821111,
        57.46
       ],
       [
        17.333056,
        57.194444
       ],
       [
        16.669444,
        57.209722
       ],
       [
        16.486944,
        57.314444
       ],
       [
        16.514444,
        57.564167
       ],
       [
        17.388889,
        57.497778
       ],
       [
        17.806389,
        57.7425
       ]
      ]
     ]
    ]
   },
   "properties": {
    "lager": "Tillfälligt område",
    "namn": "Byxelkrok",
    "hojd": "GND",
    "reviderad": "20230103"
   }
  },
  {
   "type": "Feature",
   "geometry": {
    "type": "MultiPolygon",
    "coordinates": [
     [
      [
       [
        17.258889,
        58.484444
       ],
       [
        17.557222,
        58.479444
       ],
       [
        17.650833,
        58.369167
       ],
       [
        17.121667,
        58.433333
       ],
       [
        17.258889,
        58.484444
       ]
      ]
     ]
    ]
   },
   "properties": {
    "lager": "Tillfälligt område",
    "namn": "Arkosund",
    "hojd": "GND",
    "reviderad": "20230103"
   }
  },
  {
   "type": "Feature",
   "geometry": {
    "type": "MultiPolygon",
    "coordinates": [
     [
      [
       [
        18.454722,
        59.196111
       ],
       [
        18.791111,
        59.087222
       ],
       [
        18.612222,
        58.989722
       ],
       [
        18.488056,
        59.016111
       ],
       [
        18.311111,
        59.142222
       ],
       [
        18.454722,
        59.196111
       ]
      ]
     ]
    ]
   },
   "properties": {
    "lager": "Tillfälligt område",
    "namn": "ORNO C",
    "hojd": "GND",
    "reviderad": ""
   }
  },
  {
   "type": "Feature",
   "geometry": {
    "type": "MultiPolygon",
    "coordinates": [
     [
      [
       [
        18.628056,
        59.260833
       ],
       [
        18.981667,
        59.197222
       ],
       [
        18.791111,
        59.087222
       ],
       [
        18.454722,
        59.196111
       ],
       [
        18.628056,
        59.260833
       ]
      ]
     ]
    ]
   },
   "properties": {
    "lager": "Tillfälligt område",
    "namn": "ORNO D",
    "hojd": "GND",
    "reviderad": ""
   }
  },
  {
   "type": "Feature",
   "geometry": {
    "type": "MultiPolygon",
    "coordinates": [
     [
      [
       [
        18.8425,
        59.496944
       ],
       [
        19.1475,
        59.367222
       ],
       [
        18.981667,
        59.197222
       ],
       [
        18.628056,
        59.260833
       ],
       [
        18.583056,
        59.353333
       ],
       [
        18.445833,
        59.355833
       ],
       [
        18.396389,
        59.436111
       ],
       [
        18.417222,
        59.472222
       ],
       [
        18.8425,
        59.496944
       ]
      ]
     ]
    ]
   },
   "properties": {
    "lager": "Tillfälligt område",
    "namn": "ORNO E",
    "hojd": "GND",
    "reviderad": ""
   }
  },
  {
   "type": "Feature",
   "geometry": {
    "type": "MultiPolygon",
    "coordinates": [
     [
      [
       [
        18.736111,
        59.686389
       ],
       [
        19.174722,
        59.602778
       ],
       [
        19.298889,
        59.495278
       ],
       [
        19.1475,
        59.367222
       ],
       [
        18.842222,
        59.496944
       ],
       [
        18.417222,
        59.472222
       ],
       [
        18.464722,
        59.516944
       ],
       [
        18.736111,
        59.686389
       ]
      ]
     ]
    ]
   },
   "properties": {
    "lager": "Tillfälligt område",
    "namn": "ORNO F",
    "hojd": "GND",
    "reviderad": ""
   }
  },
  {
   "type": "Feature",
   "geometry": {
    "type": "MultiPolygon",
    "coordinates": [
     [
      [
       [
        18.797222,
        59.866111
       ],
       [
        19.229722,
        59.843889
       ],
       [
        19.365833,
        59.815556
       ],
       [
        19.549722,
        59.704167
       ],
       [
        19.298889,
        59.495278
       ],
       [
        19.174722,
        59.602778
       ],
       [
        18.736111,
        59.686389
       ],
       [
        18.797222,
        59.866111
       ]
      ]
     ]
    ]
   },
   "properties": {
    "lager": "Tillfälligt område",
    "namn": "ORNO G",
    "hojd": "GND",
    "reviderad": ""
   }
  },
  {
   "type": "Feature",
   "geometry": {
    "type": "MultiPolygon",
    "coordinates": [
     [
      [
       [
        17.913056,
        58.998056
       ],
       [
        18.123333,
        58.916111
       ],
       [
        17.963056,
        58.871667
       ],
       [
        17.871389,
        58.866111
       ],
       [
        17.688056,
        58.916111
       ],
       [
        17.913056,
        58.998056
       ]
      ]
     ]
    ]
   },
   "properties": {
    "lager": "Tillfälligt område",
    "namn": "ORNO A",
    "hojd": "GND",
    "reviderad": ""
   }
  },
  {
   "type": "Feature",
   "geometry": {
    "type": "MultiPolygon",
    "coordinates": [
     [
      [
       [
        18.311111,
        59.142222
       ],
       [
        18.488056,
        59.016111
       ],
       [
        18.123333,
        58.916111
       ],
       [
        17.913056,
        58.998056
       ],
       [
        18.09,
        59.063056
       ],
       [
        18.109722,
        59.068333
       ],
       [
        18.111111,
        59.070556
       ],
       [
        18.1475,
        59.080556
       ],
       [
        18.311111,
        59.142222
       ]
      ]
     ]
    ]
   },
   "properties": {
    "lager": "Tillfälligt område",
    "namn": "ORNO B",
    "hojd": "GND",
    "reviderad": ""
   }
  }
 ]
}