{
 "type": "FeatureCollection",
 "metadata": {
  "source": "https://dronechart.lfv.se/geoserver/wfs",
  "provider": "LFV / Transportstyrelsen",
  "generated": "2026-07-03T17:06:51.515Z"
 },
 "features": [
  {
   "type": "Feature",
   "geometry": {
    "type": "MultiPolygon",
    "coordinates": [
     [
      [
       [
        14.94777778,
        63.3025
       ],
       [
        15.08166667,
        63.26027778
       ],
       [
        15.14194444,
        63.2425
       ],
       [
        14.86527778,
        63.10972222
       ],
       [
        14.84416667,
        63.09944444
       ],
       [
        14.80638889,
        63.09916667
       ],
       [
        14.75305556,
        63.09916667
       ],
       [
        14.74222222,
        63.11361111
       ],
       [
        14.73972222,
        63.11722222
       ],
       [
        14.77333333,
        63.14722222
       ],
       [
        14.77694444,
        63.15055556
       ],
       [
        14.89944444,
        63.26
       ],
       [
        14.91472222,
        63.27361111
       ],
       [
        14.94777778,
        63.3025
       ]
      ]
     ]
    ]
   },
   "properties": {
    "lager": "AIP SUP",
    "namn": "OPTAND",
    "beteckning": "ESD873",
    "hojd": "GND–2300",
    "fran": "2025-07-01T00:00Z",
    "till": "2026-11-30T23:59Z",
    "schema": "01 JUL 2025 - 30 NOV 2026, H24",
    "kommentar": "Tillfälligt farligt område ESD873 Optand är upprättat för UAS\nsom flyger utom synhåll (BVLOS).",
    "lank": "https://aro.lfv.se/content/eaip/AIRAC%20AIP%20AMDT%204-2026_2026_06_11/eSUP/AIP%20SUP%20159-2025_2025_07_01/ES-SUP-sv-SE.html#SUP"
   }
  },
  {
   "type": "Feature",
   "geometry": {
    "type": "MultiPolygon",
    "coordinates": [
     [
      [
       [
        17.25888889,
        58.48444444
       ],
       [
        17.55722222,
        58.47944444
       ],
       [
        17.65083333,
        58.36916667
       ],
       [
        17.12166667,
        58.43333333
       ],
       [
        17.25888889,
        58.48444444
       ]
      ]
     ]
    ]
   },
   "properties": {
    "lager": "AIP SUP",
    "namn": "ARKÖSUND",
    "beteckning": "ESD317",
    "hojd": "FL95–UNL",
    "fran": "2025-09-01T00:00Z",
    "till": "2026-08-31T23:59Z",
    "schema": "01 SEP 2025 - 31 AUG 2026",
    "kommentar": "Under perioden 01 SEP 2025 – 31 AUG 2026 är de tillfälliga farliga områdena ESD317 Arkösund, ESD318 Västervik och ESD319 Byxelkrok upprättade för militär flygverksamhet.",
    "lank": "https://aro.lfv.se/content/eaip/AIRAC%20AIP%20AMDT%204-2026_2026_06_11/eSUP/AIP%20SUP%20182-2025_2025_09_01/ES-SUP-sv-SE.html#SUP"
   }
  },
  {
   "type": "Feature",
   "geometry": {
    "type": "MultiPolygon",
    "coordinates": [
     [
      [
       [
        17.80638889,
        57.7425
       ],
       [
        17.82111111,
        57.46
       ],
       [
        17.33305556,
        57.19444444
       ],
       [
        16.66944444,
        57.20972222
       ],
       [
        16.48694444,
        57.31444444
       ],
       [
        16.51444444,
        57.56416667
       ],
       [
        17.38888889,
        57.49777778
       ],
       [
        17.80638889,
        57.7425
       ]
      ]
     ]
    ]
   },
   "properties": {
    "lager": "AIP SUP",
    "namn": "BYXELKROK",
    "beteckning": "ESD319",
    "hojd": "FL95–UNL",
    "fran": "2025-09-01T00:00Z",
    "till": "2026-08-31T23:59Z",
    "schema": "01 SEP 2025 - 31 AUG 2026",
    "kommentar": "Under perioden 01 SEP 2025 – 31 AUG 2026 är de tillfälliga farliga områdena ESD317 Arkösund, ESD318 Västervik och ESD319 Byxelkrok upprättade för militär flygverksamhet.",
    "lank": "https://aro.lfv.se/content/eaip/AIRAC%20AIP%20AMDT%204-2026_2026_06_11/eSUP/AIP%20SUP%20182-2025_2025_09_01/ES-SUP-sv-SE.html#SUP"
   }
  },
  {
   "type": "Feature",
   "geometry": {
    "type": "MultiPolygon",
    "coordinates": [
     [
      [
       [
        17.12166667,
        58.43333333
       ],
       [
        17.65083333,
        58.36916667
       ],
       [
        17.82333333,
        58.17305556
       ],
       [
        17.7975,
        57.91944444
       ],
       [
        17.80638889,
        57.7425
       ],
       [
        17.38888889,
        57.49777778
       ],
       [
        16.51444444,
        57.56416667
       ],
       [
        16.57333333,
        58.02361111
       ],
       [
        16.81055556,
        58.31527778
       ],
       [
        17.12166667,
        58.43333333
       ]
      ]
     ]
    ]
   },
   "properties": {
    "lager": "AIP SUP",
    "namn": "VÄSTERVIK",
    "beteckning": "ESD318",
    "hojd": "FL95–UNL",
    "fran": "2025-09-01T00:00Z",
    "till": "2026-08-31T23:59Z",
    "schema": "01 SEP 2025 - 31 AUG 2026",
    "kommentar": "Under perioden 01 SEP 2025 – 31 AUG 2026 är de tillfälliga farliga områdena ESD317 Arkösund, ESD318 Västervik och ESD319 Byxelkrok upprättade för militär flygverksamhet.",
    "lank": "https://aro.lfv.se/content/eaip/AIRAC%20AIP%20AMDT%204-2026_2026_06_11/eSUP/AIP%20SUP%20182-2025_2025_09_01/ES-SUP-sv-SE.html#SUP"
   }
  },
  {
   "type": "Feature",
   "geometry": {
    "type": "MultiPolygon",
    "coordinates": [
     [
      [
       [
        12.24833333,
        59.17
       ],
       [
        12.36944444,
        59.06027778
       ],
       [
        12.38305556,
        58.91222222
       ],
       [
        12.17944444,
        58.74638889
       ],
       [
        11.87694444,
        58.81888889
       ],
       [
        11.82861111,
        58.905
       ],
       [
        12.04388889,
        59.16416667
       ],
       [
        12.24833333,
        59.17
       ]
      ]
     ]
    ]
   },
   "properties": {
    "lager": "AIP SUP",
    "namn": "BENGTSFORS",
    "beteckning": "ESD881",
    "hojd": "GND–1300 ft AMSL",
    "fran": "2025-09-01T07:00Z",
    "till": "2026-08-31T16:00Z",
    "schema": "01 SEP 2025 - 31 AUG 2026, daily 0700-1600 (0600-1500)",
    "kommentar": "Tillfälligt farligt område ESD881 Bengtsfors är upprättat för\nUAS som flyger utom synhåll (BVLOS).",
    "lank": "https://aro.lfv.se/content/eaip/AIRAC%20AIP%20AMDT%204-2026_2026_06_11/eSUP/AIP%20SUP%20197-2025_2025_09_01/ES-SUP-en-GB.html#SUP"
   }
  },
  {
   "type": "Feature",
   "geometry": {
    "type": "MultiPolygon",
    "coordinates": [
     [
      [
       [
        16.525,
        57.78888889
       ],
       [
        16.54138889,
        57.77638889
       ],
       [
        16.52638889,
        57.77222222
       ],
       [
        16.51444444,
        57.78333333
       ],
       [
        16.525,
        57.78888889
       ]
      ]
     ]
    ]
   },
   "properties": {
    "lager": "AIP SUP",
    "namn": "HJORTEN",
    "beteckning": "ESR833",
    "hojd": "GND–2100 ft AMSL",
    "fran": "2025-11-10T06:00Z",
    "till": "2027-08-31T21:00Z",
    "schema": "10 NOV 2025 – 31 AUG 2027 MON – FRI 0600 – 2100 (0500 – 2000)",
    "kommentar": "Tillfälliga restriktionsområdena ESR833 Hjorten, ESR834 Almvik och ESR839 Ultö upprättade för flygverksamhet med UAS enligt särskilda tillstånd.",
    "lank": "https://aro.lfv.se/content/eaip/AIRAC%20AIP%20AMDT%204-2026_2026_06_11/eSUP/AIP%20SUP%20284-2025_2025_11_27/ES-SUP-en-GB.html#SUP"
   }
  },
  {
   "type": "Feature",
   "geometry": {
    "type": "MultiPolygon",
    "coordinates": [
     [
      [
       [
        16.38194444,
        57.94555556
       ],
       [
        16.70194444,
        57.79138889
       ],
       [
        16.59083333,
        57.70472222
       ],
       [
        16.26527778,
        57.86166667
       ],
       [
        16.38194444,
        57.94555556
       ]
      ]
     ]
    ]
   },
   "properties": {
    "lager": "AIP SUP",
    "namn": "ALMVIK",
    "beteckning": "ESR834",
    "hojd": "GND–2100 ft AMSL",
    "fran": "2025-11-10T06:00Z",
    "till": "2027-08-31T21:00Z",
    "schema": "10 NOV 2025 – 31 AUG 2027 MON – FRI 0600 – 2100 (0500 – 2000)",
    "kommentar": "Tillfälliga restriktionsområdena ESR833 Hjorten, ESR834 Almvik och ESR839 Ultö upprättade för flygverksamhet med UAS enligt särskilda tillstånd.",
    "lank": "https://aro.lfv.se/content/eaip/AIRAC%20AIP%20AMDT%204-2026_2026_06_11/eSUP/AIP%20SUP%20284-2025_2025_11_27/ES-SUP-en-GB.html#SUP"
   }
  },
  {
   "type": "Feature",
   "geometry": {
    "type": "MultiPolygon",
    "coordinates": [
     [
      [
       [
        16.70194444,
        57.79138889
       ],
       [
        16.96277778,
        57.66444444
       ],
       [
        16.73222222,
        57.49083333
       ],
       [
        16.47166667,
        57.6175
       ],
       [
        16.70194444,
        57.79138889
       ]
      ]
     ]
    ]
   },
   "properties": {
    "lager": "AIP SUP",
    "namn": "ULTÖ",
    "beteckning": "ESR839",
    "hojd": "GND–2100 ft AMSL",
    "fran": "2025-11-10T06:00Z",
    "till": "2027-08-31T21:00Z",
    "schema": "10 NOV 2025 – 31 AUG 2027 MON – FRI 0600 – 2100 (0500 – 2000)",
    "kommentar": "Tillfälliga restriktionsområdena ESR833 Hjorten, ESR834 Almvik och ESR839 Ultö upprättade för flygverksamhet med UAS enligt särskilda tillstånd.",
    "lank": "https://aro.lfv.se/content/eaip/AIRAC%20AIP%20AMDT%204-2026_2026_06_11/eSUP/AIP%20SUP%20284-2025_2025_11_27/ES-SUP-en-GB.html#SUP"
   }
  },
  {
   "type": "Feature",
   "geometry": {
    "type": "MultiPolygon",
    "coordinates": [
     [
      [
       [
        17.73138889,
        59.245
       ],
       [
        17.78361111,
        59.24472222
       ],
       [
        17.8325,
        59.22444444
       ],
       [
        17.77638889,
        59.21277778
       ],
       [
        17.765,
        59.21527778
       ],
       [
        17.73722222,
        59.20916667
       ],
       [
        17.68222222,
        59.20527778
       ],
       [
        17.65916667,
        59.22305556
       ],
       [
        17.64666667,
        59.22944444
       ],
       [
        17.65388889,
        59.23527778
       ],
       [
        17.66583333,
        59.2325
       ],
       [
        17.68666667,
        59.23138889
       ],
       [
        17.70666667,
        59.23416667
       ],
       [
        17.72166667,
        59.24
       ],
       [
        17.73138889,
        59.245
       ]
      ]
     ]
    ]
   },
   "properties": {
    "lager": "AIP SUP",
    "namn": "SALEM",
    "beteckning": "ESD822",
    "hojd": "GND–700 ft AMSL",
    "fran": "2025-12-10T09:00Z",
    "till": "2026-08-31T17:00Z",
    "schema": "10 DEC 2025 – 31 AUG 2026, MON – FRI 0900 – 1700 (0800 – 1600)",
    "kommentar": "Tillfälligt farligt område ESD822 Salem är upprättat för UAS som flyger utom synhåll (BVLOS) enligt särskilda tillstånd.",
    "lank": "https://aro.lfv.se/content/eaip/AIRAC%20AIP%20AMDT%204-2026_2026_06_11/eSUP/AIP%20SUP%20280-2025_2025_12_10/ES-SUP-en-GB.html#SUP"
   }
  },
  {
   "type": "Feature",
   "geometry": {
    "type": "MultiPolygon",
    "coordinates": [
     [
      [
       [
        11.975,
        57.67916667
       ],
       [
        12.09722222,
        57.67083333
       ],
       [
        12.08111111,
        57.56833333
       ],
       [
        11.88194444,
        57.56027778
       ],
       [
        11.84861111,
        57.62805556
       ],
       [
        11.915,
        57.62638889
       ],
       [
        11.975,
        57.67916667
       ]
      ]
     ]
    ]
   },
   "properties": {
    "lager": "AIP SUP",
    "namn": "MÖLNDAL UAS",
    "beteckning": "ESD865",
    "hojd": "GND–800 ft AMSL",
    "fran": "2026-01-01T07:00Z",
    "till": "2026-12-31T21:30Z",
    "schema": "01 JAN 2026 - 31 DEC 2026, DAILY 0700 - 2130 (0600 - 2030)",
    "kommentar": "Tillfälligt farligt område ESD865 Mölndal UAS är upprättat för UAS som flyger utom synhåll (BVLOS).\nInformation om verksamhetens status i området kan inhämtas från Everdrone AB TEL 076 686 04 14, alternativt TEL 031 799 29 14.",
    "lank": "https://aro.lfv.se/content/eaip/AIRAC%20AIP%20AMDT%204-2026_2026_06_11/eSUP/AIP%20SUP%20301-2025_2026_01_01/ES-SUP-en-GB.html#SUP"
   }
  },
  {
   "type": "Feature",
   "geometry": {
    "type": "MultiPolygon",
    "coordinates": [
     [
      [
       [
        23.56833333,
        67.15805556
       ],
       [
        23.60583333,
        67.13388889
       ],
       [
        23.65472222,
        67.10277778
       ],
       [
        23.67472222,
        67.06416667
       ],
       [
        23.7575,
        67.00611111
       ],
       [
        23.81527778,
        66.97916667
       ],
       [
        23.85194444,
        66.9575
       ],
       [
        23.86694444,
        66.91722222
       ],
       [
        23.87361111,
        66.91416667
       ],
       [
        19.66222222,
        65.08611111
       ],
       [
        12.26666667,
        62.1575
       ],
       [
        12.29944444,
        62.2675
       ],
       [
        12.26222222,
        62.31972222
       ],
       [
        12.17166667,
        62.44833333
       ],
       [
        19.27972222,
        65.27694444
       ],
       [
        23.56833333,
        67.15805556
       ]
      ]
     ]
    ]
   },
   "properties": {
    "lager": "AIP SUP",
    "namn": "ICARUS",
    "beteckning": "ESD311",
    "hojd": "FL520–FL660",
    "fran": "2026-01-01T00:00Z",
    "till": "2026-12-31T23:59Z",
    "schema": "01 JAN 2026 0000 - 31 DEC 2026 2400",
    "kommentar": "Det tillfälliga farliga området ESD311 Icarus upprättas för militär flygverksamhet.\nInformation om status på området kan ges av Stockholm ACC.",
    "lank": "https://aro.lfv.se/content/eaip/AIRAC%20AIP%20AMDT%204-2026_2026_06_11/eSUP/AIP%20SUP%20300-2025_2026_01_01/ES-SUP-en-GB.html#SUP"
   }
  },
  {
   "type": "Feature",
   "geometry": {
    "type": "MultiPolygon",
    "coordinates": [
     [
      [
       [
        20.26527778,
        59.41027778
       ],
       [
        20.5975,
        59.22666667
       ],
       [
        12.21277778,
        56.41722222
       ],
       [
        12.03472222,
        56.64638889
       ],
       [
        20.26527778,
        59.41027778
       ]
      ]
     ]
    ]
   },
   "properties": {
    "lager": "AIP SUP",
    "namn": "ARGUS",
    "beteckning": "ESD309",
    "hojd": "FL520–FL660",
    "fran": "2026-01-01T00:00Z",
    "till": "2026-12-31T23:59Z",
    "schema": "01 JAN 2026 0000 - 31 DEC 2026 2400",
    "kommentar": "Det tillfälliga farliga området ESD309 Argus upprättas för militär flygverksamhet.\nInformation om status på området kan ges av Malmö ACC.",
    "lank": "https://aro.lfv.se/content/eaip/AIRAC%20AIP%20AMDT%204-2026_2026_06_11/eSUP/AIP%20SUP%20299-2025_2026_01_01/ES-SUP-en-GB.html#SUP"
   }
  },
  {
   "type": "Feature",
   "geometry": {
    "type": "MultiPolygon",
    "coordinates": [
     [
      [
       [
        15.815,
        60.67416667
       ],
       [
        15.81583333,
        60.57861111
       ],
       [
        15.66916667,
        60.58
       ],
       [
        15.66333333,
        60.6075
       ],
       [
        15.66333333,
        60.61611111
       ],
       [
        15.63444444,
        60.62722222
       ],
       [
        15.635,
        60.67388889
       ],
       [
        15.815,
        60.67416667
       ]
      ]
     ]
    ]
   },
   "properties": {
    "lager": "AIP SUP",
    "namn": "LUGNET",
    "beteckning": "ESR505",
    "hojd": "GND–2500 ft AMSL",
    "fran": "2026-01-01T06:00Z",
    "till": "2026-12-31T19:00Z",
    "schema": "01 JAN 2026 – 31 DEC 2026\nMON-THU 0600 - 1900 (0500 - 1800)\nFRI 0600 - 1300 (0500 - 1200)",
    "kommentar": "Tillfälligt restriktionsområde ESR505 LUGNET upprättat för militär flygverksamhet.",
    "lank": "https://aro.lfv.se/content/eaip/AIRAC%20AIP%20AMDT%204-2026_2026_06_11/eSUP/AIP%20SUP%20305-2025_2026_01_01/ES-SUP-en-GB.html#SUP"
   }
  },
  {
   "type": "Feature",
   "geometry": {
    "type": "MultiPolygon",
    "coordinates": [
     [
      [
       [
        11.99333333,
        58.40305556
       ],
       [
        12.04027778,
        58.32833333
       ],
       [
        11.98666667,
        58.29083333
       ],
       [
        11.85027778,
        58.28666667
       ],
       [
        11.79388889,
        58.34888889
       ],
       [
        11.81555556,
        58.36055556
       ],
       [
        11.85333333,
        58.37472222
       ],
       [
        11.99333333,
        58.40305556
       ]
      ]
     ]
    ]
   },
   "properties": {
    "lager": "AIP SUP",
    "namn": "UDDEVALLA UAS",
    "beteckning": "ESD824",
    "hojd": "GND–800 ft AMSL",
    "fran": "2026-02-09T07:00Z",
    "till": "2026-12-31T21:30Z",
    "schema": "09 FEB  - 31 DEC,  daily 0700-2130 (0600-2030)",
    "kommentar": "Tillfälliga farliga områdena ESD823 Borås UAS, ESD824 Uddevalla UAS samt ESD825 Skövde UAS är upprättat för UAS som flyger utom synhåll (BVLOS) med särskilda villkor.",
    "lank": "https://aro.lfv.se/content/eaip/AIRAC%20AIP%20AMDT%204-2026_2026_06_11/eSUP/AIP%20SUP%2019-2026_2026_02_09/ES-SUP-en-GB.html#SUP"
   }
  },
  {
   "type": "Feature",
   "geometry": {
    "type": "MultiPolygon",
    "coordinates": [
     [
      [
       [
        13.86611111,
        58.44888889
       ],
       [
        13.92833333,
        58.43916667
       ],
       [
        13.905,
        58.39722222
       ],
       [
        13.965,
        58.38777778
       ],
       [
        13.81638889,
        58.30833333
       ],
       [
        13.77472222,
        58.39333333
       ],
       [
        13.82222222,
        58.41861111
       ],
       [
        13.85361111,
        58.41527778
       ],
       [
        13.86611111,
        58.42138889
       ],
       [
        13.86611111,
        58.44888889
       ]
      ]
     ]
    ]
   },
   "properties": {
    "lager": "AIP SUP",
    "namn": "SKÖVDE UAS",
    "beteckning": "ESD825",
    "hojd": "GND–1100 ft AMSL",
    "fran": "2026-02-09T07:00Z",
    "till": "2026-12-31T21:30Z",
    "schema": "09 FEB  - 31 DEC,  daily 0700-2130 (0600-2030)",
    "kommentar": "Tillfälliga farliga områdena ESD823 Borås UAS, ESD824 Uddevalla UAS samt ESD825 Skövde UAS är upprättat för UAS som flyger utom synhåll (BVLOS) med särskilda villkor.",
    "lank": "https://aro.lfv.se/content/eaip/AIRAC%20AIP%20AMDT%204-2026_2026_06_11/eSUP/AIP%20SUP%2019-2026_2026_02_09/ES-SUP-en-GB.html#SUP"
   }
  },
  {
   "type": "Feature",
   "geometry": {
    "type": "MultiPolygon",
    "coordinates": [
     [
      [
       [
        12.97805556,
        57.77666667
       ],
       [
        13.06555556,
        57.74416667
       ],
       [
        13.03888889,
        57.66111111
       ],
       [
        12.88916667,
        57.6725
       ],
       [
        12.89361111,
        57.68444444
       ],
       [
        12.9725,
        57.72027778
       ],
       [
        12.97333333,
        57.7225
       ],
       [
        12.97333333,
        57.725
       ],
       [
        12.97222222,
        57.72694444
       ],
       [
        12.96833333,
        57.72861111
       ],
       [
        12.96472222,
        57.72916667
       ],
       [
        12.96,
        57.72861111
       ],
       [
        12.95694444,
        57.72722222
       ],
       [
        12.955,
        57.72472222
       ],
       [
        12.95555556,
        57.72305556
       ],
       [
        12.94,
        57.71666667
       ],
       [
        12.9275,
        57.71916667
       ],
       [
        12.90444444,
        57.71583333
       ],
       [
        12.92277778,
        57.76777778
       ],
       [
        12.97805556,
        57.77666667
       ]
      ]
     ]
    ]
   },
   "properties": {
    "lager": "AIP SUP",
    "namn": "BORÅS UAS",
    "beteckning": "ESD823",
    "hojd": "GND–1300 ft AMSL",
    "fran": "2026-02-09T07:00Z",
    "till": "2026-12-31T21:30Z",
    "schema": "09 FEB  - 31 DEC,  daily 0700-2130 (0600-2030)",
    "kommentar": "Tillfälliga farliga områdena ESD823 Borås UAS, ESD824 Uddevalla UAS samt ESD825 Skövde UAS är upprättat för UAS som flyger utom synhåll (BVLOS) med särskilda villkor.",
    "lank": "https://aro.lfv.se/content/eaip/AIRAC%20AIP%20AMDT%204-2026_2026_06_11/eSUP/AIP%20SUP%2019-2026_2026_02_09/ES-SUP-en-GB.html#SUP"
   }
  },
  {
   "type": "Feature",
   "geometry": {
    "type": "MultiPolygon",
    "coordinates": [
     [
      [
       [
        22.13269782,
        65.5325
       ],
       [
        22.13268215,
        65.53236792
       ],
       [
        22.13263531,
        65.53223712
       ],
       [
        22.13255773,
        65.53210885
       ],
       [
        22.13245017,
        65.53198434
       ],
       [
        22.13231366,
        65.53186481
       ],
       [
        22.13214953,
        65.53175138
       ],
       [
        22.13195934,
        65.53164517
       ],
       [
        22.13174493,
        65.53154719
       ],
       [
        22.13150836,
        65.53145839
       ],
       [
        22.13125192,
        65.53137962
       ],
       [
        22.13097807,
        65.53131163
       ],
       [
        22.13068946,
        65.5312551
       ],
       [
        22.13038885,
        65.53121055
       ],
       [
        22.13007915,
        65.53117842
       ],
       [
        22.12976333,
        65.53115902
       ],
       [
        22.12944444,
        65.53115253
       ],
       [
        22.12912556,
        65.53115902
       ],
       [
        22.12880974,
        65.53117842
       ],
       [
        22.12850004,
        65.53121055
       ],
       [
        22.12819943,
        65.5312551
       ],
       [
        22.12791081,
        65.53131163
       ],
       [
        22.12763697,
        65.53137962
       ],
       [
        22.12738053,
        65.53145839
       ],
       [
        22.12714396,
        65.53154719
       ],
       [
        22.12692955,
        65.53164517
       ],
       [
        22.12673936,
        65.53175138
       ],
       [
        22.12657522,
        65.53186481
       ],
       [
        22.12643872,
        65.53198434
       ],
       [
        22.12633116,
        65.53210885
       ],
       [
        22.12625358,
        65.53223712
       ],
       [
        22.12620674,
        65.53236792
       ],
       [
        22.12619107,
        65.5325
       ],
       [
        22.12620674,
        65.53263208
       ],
       [
        22.12625358,
        65.53276288
       ],
       [
        22.12633116,
        65.53289115
       ],
       [
        22.12643872,
        65.53301566
       ],
       [
        22.12657522,
        65.53313519
       ],
       [
        22.12673936,
        65.53324862
       ],
       [
        22.12692955,
        65.53335483
       ],
       [
        22.12714396,
        65.53345281
       ],
       [
        22.12738053,
        65.53354161
       ],
       [
        22.12763697,
        65.53362038
       ],
       [
        22.12791081,
        65.53368837
       ],
       [
        22.12819943,
        65.5337449
       ],
       [
        22.12850004,
        65.53378945
       ],
       [
        22.12880974,
        65.53382158
       ],
       [
        22.12912556,
        65.53384098
       ],
       [
        22.12944444,
        65.53384747
       ],
       [
        22.12976333,
        65.53384098
       ],
       [
        22.13007915,
        65.53382158
       ],
       [
        22.13038885,
        65.53378945
       ],
       [
        22.13068946,
        65.5337449
       ],
       [
        22.13097807,
        65.53368837
       ],
       [
        22.13125192,
        65.53362038
       ],
       [
        22.13150836,
        65.53354161
       ],
       [
        22.13174493,
        65.53345281
       ],
       [
        22.13195934,
        65.53335483
       ],
       [
        22.13214953,
        65.53324862
       ],
       [
        22.13231366,
        65.53313519
       ],
       [
        22.13245017,
        65.53301566
       ],
       [
        22.13255773,
        65.53289115
       ],
       [
        22.13263531,
        65.53276288
       ],
       [
        22.13268215,
        65.53263208
       ],
       [
        22.13269782,
        65.5325
       ]
      ]
     ]
    ]
   },
   "properties": {
    "lager": "AIP SUP",
    "namn": "LULU",
    "beteckning": "ESR450",
    "hojd": "SFC–1000 ft AMSL",
    "fran": "2026-03-23T00:00Z",
    "till": "2026-12-31T23:59Z",
    "schema": "23 MAR – 31 DEC H24",
    "kommentar": "Det tillfälliga restriktionsområdet ESR450 Lulu upprättas för militär flygverksamhet.\nInom området gäller förbud mot all luftfart som inte ingår i verksamheten.",
    "lank": "https://aro.lfv.se/content/eaip/AIRAC%20AIP%20AMDT%204-2026_2026_06_11/eSUP/AIP%20SUP%2053-2026_2026_03_23/ES-SUP-en-GB.html#SUP"
   }
  },
  {
   "type": "Feature",
   "geometry": {
    "type": "MultiPolygon",
    "coordinates": [
     [
      [
       [
        14.68416667,
        64.12083333
       ],
       [
        14.66222222,
        64.08444444
       ],
       [
        14.69,
        63.99833333
       ],
       [
        14.71777778,
        63.97083333
       ],
       [
        14.77083333,
        63.9275
       ],
       [
        14.765,
        63.89527778
       ],
       [
        14.71777778,
        63.89527778
       ],
       [
        14.72222222,
        63.92333333
       ],
       [
        14.67694444,
        63.96694444
       ],
       [
        14.64527778,
        63.99555556
       ],
       [
        14.61916667,
        64.08138889
       ],
       [
        14.6375,
        64.11861111
       ],
       [
        14.68416667,
        64.12083333
       ]
      ]
     ]
    ]
   },
   "properties": {
    "lager": "AIP SUP",
    "namn": "ALMDALEN",
    "beteckning": "ESD840",
    "hojd": "GND–3400 ft AMSL",
    "fran": "2026-03-23T07:00Z",
    "till": "2026-10-30T07:00Z",
    "schema": "23 MAR – 30 OCT, MON – FRI 0700 – 1600 (0600 – 1500)",
    "kommentar": "Tillfälliga farliga områdena ESD840 Almdalen UAS, ESD841 Gäddede UAS, ESD842 Laxviken UAS, ESD843 Munsvattnet UAS, ESD817 Krokom Nord UAS och ESD818 Krokom Syd UAS upprättas för UAS som flyger utom synhåll (BVLOS).",
    "lank": "https://aro.lfv.se/content/eaip/AIRAC%20AIP%20AMDT%204-2026_2026_06_11/eSUP/AIP%20SUP%2054-2026_2026_03_23/ES-SUP-en-GB.html#SUP"
   }
  },
  {
   "type": "Feature",
   "geometry": {
    "type": "MultiPolygon",
    "coordinates": [
     [
      [
       [
        14.12583333,
        64.51333333
       ],
       [
        14.16944444,
        64.51111111
       ],
       [
        14.20416667,
        64.49555556
       ],
       [
        14.23027778,
        64.44444444
       ],
       [
        14.37861111,
        64.37972222
       ],
       [
        14.33944444,
        64.37083333
       ],
       [
        14.17083333,
        64.43611111
       ],
       [
        14.15277778,
        64.4775
       ],
       [
        14.11777778,
        64.49722222
       ],
       [
        14.12583333,
        64.51333333
       ]
      ]
     ]
    ]
   },
   "properties": {
    "lager": "AIP SUP",
    "namn": "GÄDDEDE",
    "beteckning": "ESD841",
    "hojd": "GND–2100 ft AMSL",
    "fran": "2026-03-23T07:00Z",
    "till": "2026-10-30T07:00Z",
    "schema": "23 MAR – 30 OCT, MON – FRI 0700 – 1600 (0600 – 1500)",
    "kommentar": "Tillfälliga farliga områdena ESD840 Almdalen UAS, ESD841 Gäddede UAS, ESD842 Laxviken UAS, ESD843 Munsvattnet UAS, ESD817 Krokom Nord UAS och ESD818 Krokom Syd UAS upprättas för UAS som flyger utom synhåll (BVLOS).",
    "lank": "https://aro.lfv.se/content/eaip/AIRAC%20AIP%20AMDT%204-2026_2026_06_11/eSUP/AIP%20SUP%2054-2026_2026_03_23/ES-SUP-en-GB.html#SUP"
   }
  },
  {
   "type": "Feature",
   "geometry": {
    "type": "MultiPolygon",
    "coordinates": [
     [
      [
       [
        14.765,
        63.89527778
       ],
       [
        14.74916667,
        63.80527778
       ],
       [
        14.67666667,
        63.67166667
       ],
       [
        14.67388889,
        63.67666667
       ],
       [
        14.64138889,
        63.68722222
       ],
       [
        14.70416667,
        63.80722222
       ],
       [
        14.71777778,
        63.89527778
       ],
       [
        14.765,
        63.89527778
       ]
      ]
     ]
    ]
   },
   "properties": {
    "lager": "AIP SUP",
    "namn": "LAXVIKEN",
    "beteckning": "ESD842",
    "hojd": "GND–2000 ft AMSL",
    "fran": "2026-03-23T07:00Z",
    "till": "2026-10-30T07:00Z",
    "schema": "23 MAR – 30 OCT, MON – FRI 0700 – 1600 (0600 – 1500)",
    "kommentar": "Tillfälliga farliga områdena ESD840 Almdalen UAS, ESD841 Gäddede UAS, ESD842 Laxviken UAS, ESD843 Munsvattnet UAS, ESD817 Krokom Nord UAS och ESD818 Krokom Syd UAS upprättas för UAS som flyger utom synhåll (BVLOS).",
    "lank": "https://aro.lfv.se/content/eaip/AIRAC%20AIP%20AMDT%204-2026_2026_06_11/eSUP/AIP%20SUP%2054-2026_2026_03_23/ES-SUP-en-GB.html#SUP"
   }
  },
  {
   "type": "Feature",
   "geometry": {
    "type": "MultiPolygon",
    "coordinates": [
     [
      [
       [
        14.37861111,
        64.37972222
       ],
       [
        14.39944444,
        64.35833333
       ],
       [
        14.39861111,
        64.32111111
       ],
       [
        14.42777778,
        64.28666667
       ],
       [
        14.57972222,
        64.24388889
       ],
       [
        14.60666667,
        64.21277778
       ],
       [
        14.68416667,
        64.12083333
       ],
       [
        14.6375,
        64.11861111
       ],
       [
        14.56277778,
        64.21138889
       ],
       [
        14.54305556,
        64.2325
       ],
       [
        14.39,
        64.27388889
       ],
       [
        14.35472222,
        64.31527778
       ],
       [
        14.355,
        64.35416667
       ],
       [
        14.33944444,
        64.37083333
       ],
       [
        14.37861111,
        64.37972222
       ]
      ]
     ]
    ]
   },
   "properties": {
    "lager": "AIP SUP",
    "namn": "MUNSVATTNET",
    "beteckning": "ESD843",
    "hojd": "GND–3100 ft AMSL",
    "fran": "2026-03-23T07:00Z",
    "till": "2026-10-30T07:00Z",
    "schema": "23 MAR – 30 OCT, MON – FRI 0700 – 1600 (0600 – 1500)",
    "kommentar": "Tillfälliga farliga områdena ESD840 Almdalen UAS, ESD841 Gäddede UAS, ESD842 Laxviken UAS, ESD843 Munsvattnet UAS, ESD817 Krokom Nord UAS och ESD818 Krokom Syd UAS upprättas för UAS som flyger utom synhåll (BVLOS).",
    "lank": "https://aro.lfv.se/content/eaip/AIRAC%20AIP%20AMDT%204-2026_2026_06_11/eSUP/AIP%20SUP%2054-2026_2026_03_23/ES-SUP-en-GB.html#SUP"
   }
  },
  {
   "type": "Feature",
   "geometry": {
    "type": "MultiPolygon",
    "coordinates": [
     [
      [
       [
        14.55611111,
        63.47222222
       ],
       [
        14.59222222,
        63.46583333
       ],
       [
        14.53361111,
        63.3225
       ],
       [
        14.47666667,
        63.31083333
       ],
       [
        14.42416667,
        63.32583333
       ],
       [
        14.45694444,
        63.34527778
       ],
       [
        14.50055556,
        63.34638889
       ],
       [
        14.53555556,
        63.42083333
       ],
       [
        14.55611111,
        63.47222222
       ]
      ]
     ]
    ]
   },
   "properties": {
    "lager": "AIP SUP",
    "namn": "KROKOM SYD",
    "beteckning": "ESD818",
    "hojd": "GND–1900 ft AMSL",
    "fran": "2026-05-15T07:00Z",
    "till": "2026-10-30T16:00Z",
    "schema": "15 MAY – 30 OCT, MON – FRI 0700 – 1600 (0600 – 1500)",
    "kommentar": "Tillfälliga farliga områdena ESD840 Almdalen UAS, ESD841 Gäddede UAS, ESD842 Laxviken UAS, ESD843 Munsvattnet UAS, ESD817 Krokom Nord UAS och ESD818 Krokom Syd UAS upprättas för UAS som flyger utom synhåll (BVLOS).",
    "lank": "https://aro.lfv.se/content/eaip/AIRAC%20AIP%20AMDT%204-2026_2026_06_11/eSUP/AIP%20SUP%2054-2026_2026_03_23/ES-SUP-en-GB.html#SUP"
   }
  },
  {
   "type": "Feature",
   "geometry": {
    "type": "MultiPolygon",
    "coordinates": [
     [
      [
       [
        14.64138889,
        63.68722222
       ],
       [
        14.67388889,
        63.67666667
       ],
       [
        14.67666667,
        63.67166667
       ],
       [
        14.59222222,
        63.46583333
       ],
       [
        14.55611111,
        63.47222222
       ],
       [
        14.63027778,
        63.65666667
       ],
       [
        14.60361111,
        63.66527778
       ],
       [
        14.59111111,
        63.67888889
       ],
       [
        14.61416667,
        63.68333333
       ],
       [
        14.64138889,
        63.68722222
       ]
      ]
     ]
    ]
   },
   "properties": {
    "lager": "AIP SUP",
    "namn": "KROKOM NORD",
    "beteckning": "ESD817",
    "hojd": "GND–1900 ft AMSL",
    "fran": "2026-05-15T07:00Z",
    "till": "2026-10-30T16:00Z",
    "schema": "15 MAY – 30 OCT, MON – FRI 0700 – 1600 (0600 – 1500)",
    "kommentar": "Tillfälliga farliga områdena ESD840 Almdalen UAS, ESD841 Gäddede UAS, ESD842 Laxviken UAS, ESD843 Munsvattnet UAS, ESD817 Krokom Nord UAS och ESD818 Krokom Syd UAS upprättas för UAS som flyger utom synhåll (BVLOS).",
    "lank": "https://aro.lfv.se/content/eaip/AIRAC%20AIP%20AMDT%204-2026_2026_06_11/eSUP/AIP%20SUP%2054-2026_2026_03_23/ES-SUP-en-GB.html#SUP"
   }
  },
  {
   "type": "Feature",
   "geometry": {
    "type": "MultiPolygon",
    "coordinates": [
     [
      [
       [
        17.696667,
        59.557778
       ],
       [
        17.78,
        59.507778
       ],
       [
        17.723333,
        59.480833
       ],
       [
        17.633056,
        59.530833
       ],
       [
        17.696667,
        59.557778
       ]
      ]
     ]
    ]
   },
   "properties": {
    "lager": "AIP SUP",
    "namn": "BRUNNA",
    "beteckning": "ESR534",
    "hojd": "GND–1200 ft AMSL",
    "fran": "2026-03-30T06:00Z",
    "till": "2026-12-31T18:30Z",
    "schema": "30 MAR – 27 APR, MON – FRI 0600 – 1730\n28 APR 0600 – 01 MAY 2200\n04 MAY – 23 OCT, MON – FRI 0600 – 1730\n26 OCT – 25 DEC, MON – FRI 0700 – 1830\n28 – 31 DEC 0700 – 1830",
    "kommentar": "Det tillfälliga restriktionsområdet ESR534 Brunna upprättas för militär flygverksamhet.\nInom området gäller förbud mot all luftfart som inte ingår i verksamheten.",
    "lank": "https://aro.lfv.se/content/eaip/AIRAC%20AIP%20AMDT%204-2026_2026_06_11/eSUP/AIP%20SUP%2083-2026_2026_04_16/ES-SUP-en-GB.html#SUP"
   }
  },
  {
   "type": "Feature",
   "geometry": {
    "type": "MultiPolygon",
    "coordinates": [
     [
      [
       [
        21.88361111,
        65.99
       ],
       [
        21.2075,
        65.62694444
       ],
       [
        21.24555556,
        65.89861111
       ],
       [
        21.49555556,
        65.94861111
       ],
       [
        21.88361111,
        65.99
       ]
      ]
     ]
    ]
   },
   "properties": {
    "lager": "AIP SUP",
    "namn": "LOCK",
    "beteckning": "ESR392",
    "hojd": "FL095–FL155",
    "fran": "2026-06-04T11:00Z",
    "till": "2026-06-18T14:30Z",
    "schema": "04 JUN               1100 - 1400     \n05 JUN               0700 - 1000\n08 - 12 JUN        0700 - 0900, 1130 - 1430\n14 - 18 JUN        0700 - 0900, 1130 - 1430",
    "kommentar": "Under perioden 04 – 18 JUN 2026 genomförs den militära NATO-flygövningen Ramstein Flag 2026 (RAFL26) i norra delen av Sweden FIR.",
    "lank": "https://aro.lfv.se/content/eaip/AIRAC%20AIP%20AMDT%204-2026_2026_06_11/eSUP/AIRAC%20AIP%20SUP%2084-2026_2026_05_14/ES-SUP-sv-SE.html#SUP"
   }
  },
  {
   "type": "Feature",
   "geometry": {
    "type": "MultiPolygon",
    "coordinates": [
     [
      [
       [
        15.50722222,
        63.31083333
       ],
       [
        16.13777778,
        63.25916667
       ],
       [
        15.96138889,
        62.87388889
       ],
       [
        15.17083333,
        62.93416667
       ],
       [
        15.50722222,
        63.31083333
       ]
      ]
     ]
    ]
   },
   "properties": {
    "lager": "AIP SUP",
    "namn": "KOVIKEN",
    "beteckning": "ESD812",
    "hojd": "SFC–2200 ft AMSL",
    "fran": "2026-04-27T00:00Z",
    "till": "2026-12-31T23:59Z",
    "schema": "27 APR – 31 DEC 2026, H24",
    "kommentar": "Tillfälliga farliga områdenupprättade för UAS som flyger utom synhåll (BVLOS). \nInformation om verksamhetens status i området kan inhämtas på TEL +358 50 345 4683 (primär), +358 50 465 9165 (sekundär) eller operations@kelluu.com.",
    "lank": "https://aro.lfv.se/content/eaip/AIRAC%20AIP%20AMDT%204-2026_2026_06_11/eSUP/AIP%20SUP%20101-2026_2026_05_14/ES-SUP-sv-SE.html#SUP"
   }
  },
  {
   "type": "Feature",
   "geometry": {
    "type": "MultiPolygon",
    "coordinates": [
     [
      [
       [
        17.68444444,
        62.95777778
       ],
       [
        17.80138889,
        62.82055556
       ],
       [
        17.71444444,
        62.70944444
       ],
       [
        17.62972222,
        62.5575
       ],
       [
        17.42694444,
        62.69916667
       ],
       [
        17.24805556,
        62.8525
       ],
       [
        17.68444444,
        62.95777778
       ]
      ]
     ]
    ]
   },
   "properties": {
    "lager": "AIP SUP",
    "namn": "VIKSJÖ",
    "beteckning": "ESD807",
    "hojd": "SFC–2000 ft AMSL",
    "fran": "2026-04-27T00:00Z",
    "till": "2026-12-31T23:59Z",
    "schema": "27 APR – 31 DEC 2026, H24",
    "kommentar": "Tillfälliga farliga områdenupprättade för UAS som flyger utom synhåll (BVLOS). \nInformation om verksamhetens status i området kan inhämtas på TEL +358 50 345 4683 (primär), +358 50 465 9165 (sekundär) eller operations@kelluu.com.",
    "lank": "https://aro.lfv.se/content/eaip/AIRAC%20AIP%20AMDT%204-2026_2026_06_11/eSUP/AIP%20SUP%20101-2026_2026_05_14/ES-SUP-sv-SE.html#SUP"
   }
  },
  {
   "type": "Feature",
   "geometry": {
    "type": "MultiPolygon",
    "coordinates": [
     [
      [
       [
        15.96138889,
        62.87388889
       ],
       [
        16.69333333,
        62.83444444
       ],
       [
        16.64305556,
        62.45861111
       ],
       [
        15.78722222,
        62.50055556
       ],
       [
        15.96138889,
        62.87388889
       ]
      ]
     ]
    ]
   },
   "properties": {
    "lager": "AIP SUP",
    "namn": "ÖRSVIKEN",
    "beteckning": "ESD808",
    "hojd": "SFC–2200 ft AMSL",
    "fran": "2026-04-27T00:00Z",
    "till": "2026-12-31T23:59Z",
    "schema": "27 APR – 31 DEC 2026, H24",
    "kommentar": "Tillfälliga farliga områdenupprättade för UAS som flyger utom synhåll (BVLOS). \nInformation om verksamhetens status i området kan inhämtas på TEL +358 50 345 4683 (primär), +358 50 465 9165 (sekundär) eller operations@kelluu.com.",
    "lank": "https://aro.lfv.se/content/eaip/AIRAC%20AIP%20AMDT%204-2026_2026_06_11/eSUP/AIP%20SUP%20101-2026_2026_05_14/ES-SUP-sv-SE.html#SUP"
   }
  },
  {
   "type": "Feature",
   "geometry": {
    "type": "MultiPolygon",
    "coordinates": [
     [
      [
       [
        15.17083333,
        62.93416667
       ],
       [
        15.96138889,
        62.87388889
       ],
       [
        15.78722222,
        62.50055556
       ],
       [
        14.82916667,
        62.54722222
       ],
       [
        15.17083333,
        62.93416667
       ]
      ]
     ]
    ]
   },
   "properties": {
    "lager": "AIP SUP",
    "namn": "BRÄCKE",
    "beteckning": "ESD809",
    "hojd": "SFC–2200 ft AMSL",
    "fran": "2026-04-27T00:00Z",
    "till": "2026-12-31T23:59Z",
    "schema": "27 APR – 31 DEC 2026, H24",
    "kommentar": "Tillfälliga farliga områdenupprättade för UAS som flyger utom synhåll (BVLOS). \nInformation om verksamhetens status i området kan inhämtas på TEL +358 50 345 4683 (primär), +358 50 465 9165 (sekundär) eller operations@kelluu.com.",
    "lank": "https://aro.lfv.se/content/eaip/AIRAC%20AIP%20AMDT%204-2026_2026_06_11/eSUP/AIP%20SUP%20101-2026_2026_05_14/ES-SUP-sv-SE.html#SUP"
   }
  },
  {
   "type": "Feature",
   "geometry": {
    "type": "MultiPolygon",
    "coordinates": [
     [
      [
       [
        16.72055556,
        63.21138889
       ],
       [
        16.97888889,
        63.19027778
       ],
       [
        17.23722222,
        63.16888889
       ],
       [
        17.22972222,
        63.09888889
       ],
       [
        17.22527778,
        63.04583333
       ],
       [
        17.41583333,
        63.04916667
       ],
       [
        17.59527778,
        63.0625
       ],
       [
        17.68444444,
        62.95777778
       ],
       [
        17.46638889,
        62.905
       ],
       [
        17.24805556,
        62.8525
       ],
       [
        16.97083333,
        62.84361111
       ],
       [
        16.69333333,
        62.83444444
       ],
       [
        16.70694444,
        63.02305556
       ],
       [
        16.72055556,
        63.21138889
       ]
      ]
     ]
    ]
   },
   "properties": {
    "lager": "AIP SUP",
    "namn": "GRANINGE",
    "beteckning": "ESD844",
    "hojd": "SFC–2000 ft AMSL",
    "fran": "2026-04-27T00:00Z",
    "till": "2026-12-31T23:59Z",
    "schema": "27 APR – 31 DEC 2026, H24",
    "kommentar": "Tillfälliga farliga områdenupprättade för UAS som flyger utom synhåll (BVLOS). \nInformation om verksamhetens status i området kan inhämtas på TEL +358 50 345 4683 (primär), +358 50 465 9165 (sekundär) eller operations@kelluu.com.",
    "lank": "https://aro.lfv.se/content/eaip/AIRAC%20AIP%20AMDT%204-2026_2026_06_11/eSUP/AIP%20SUP%20101-2026_2026_05_14/ES-SUP-sv-SE.html#SUP"
   }
  },
  {
   "type": "Feature",
   "geometry": {
    "type": "MultiPolygon",
    "coordinates": [
     [
      [
       [
        16.13777778,
        63.25916667
       ],
       [
        16.72055556,
        63.21138889
       ],
       [
        16.69333333,
        62.83444444
       ],
       [
        15.96138889,
        62.87388889
       ],
       [
        16.13777778,
        63.25916667
       ]
      ]
     ]
    ]
   },
   "properties": {
    "lager": "AIP SUP",
    "namn": "RAGUNDA",
    "beteckning": "ESD811",
    "hojd": "SFC–2000 ft AMSL",
    "fran": "2026-04-27T00:00Z",
    "till": "2026-12-31T23:59Z",
    "schema": "27 APR – 31 DEC 2026, H24",
    "kommentar": "Tillfälliga farliga områdenupprättade för UAS som flyger utom synhåll (BVLOS). \nInformation om verksamhetens status i området kan inhämtas på TEL +358 50 345 4683 (primär), +358 50 465 9165 (sekundär) eller operations@kelluu.com.",
    "lank": "https://aro.lfv.se/content/eaip/AIRAC%20AIP%20AMDT%204-2026_2026_06_11/eSUP/AIP%20SUP%20101-2026_2026_05_14/ES-SUP-sv-SE.html#SUP"
   }
  },
  {
   "type": "Feature",
   "geometry": {
    "type": "MultiPolygon",
    "coordinates": [
     [
      [
       [
        17.24805556,
        62.8525
       ],
       [
        17.42694444,
        62.69916667
       ],
       [
        17.22972222,
        62.66861111
       ],
       [
        17.24666667,
        62.50888889
       ],
       [
        17.44861111,
        62.30055556
       ],
       [
        16.64305556,
        62.45861111
       ],
       [
        16.69333333,
        62.83444444
       ],
       [
        17.24805556,
        62.8525
       ]
      ]
     ]
    ]
   },
   "properties": {
    "lager": "AIP SUP",
    "namn": "SULÅ",
    "beteckning": "ESD806",
    "hojd": "SFC–2000 ft AMSL",
    "fran": "2026-04-27T00:00Z",
    "till": "2026-12-31T23:59Z",
    "schema": "27 APR – 31 DEC 2026, H24",
    "kommentar": "Tillfälliga farliga områdenupprättade för UAS som flyger utom synhåll (BVLOS). \nInformation om verksamhetens status i området kan inhämtas på TEL +358 50 345 4683 (primär), +358 50 465 9165 (sekundär) eller operations@kelluu.com.",
    "lank": "https://aro.lfv.se/content/eaip/AIRAC%20AIP%20AMDT%204-2026_2026_06_11/eSUP/AIP%20SUP%20101-2026_2026_05_14/ES-SUP-sv-SE.html#SUP"
   }
  },
  {
   "type": "Feature",
   "geometry": {
    "type": "MultiPolygon",
    "coordinates": [
     [
      [
       [
        20.94861111,
        64.74583333
       ],
       [
        20.96666667,
        64.72972222
       ],
       [
        20.97305556,
        64.71083333
       ],
       [
        20.75527778,
        64.685
       ],
       [
        20.695,
        64.70388889
       ],
       [
        20.76861111,
        64.74027778
       ],
       [
        20.94861111,
        64.74583333
       ]
      ]
     ]
    ]
   },
   "properties": {
    "lager": "AIP SUP",
    "namn": "SKELLEFTEÅ VIKEN UAS",
    "beteckning": "ESD821",
    "hojd": "GND–1500 ft AMSL",
    "fran": "2026-06-08T07:00Z",
    "till": "2027-05-31T16:00Z",
    "schema": "08 JUN 2026 – 31 MAY 2027 MON – THU 0700 – 1600 (0600 – 1500)",
    "kommentar": "Tillfälligt farligt område ESD821 Skellefteå Viken UAS är upprättat för UAS som flyger utom synhåll (BVLOS) med särskilda villkor.",
    "lank": "https://aro.lfv.se/content/eaip/AIRAC%20AIP%20AMDT%204-2026_2026_06_11/eSUP/AIP%20SUP%20111-2026_2026_06_08/ES-SUP-en-GB.html#SUP"
   }
  },
  {
   "type": "Feature",
   "geometry": {
    "type": "MultiPolygon",
    "coordinates": [
     [
      [
       [
        17.08888889,
        65.30666667
       ],
       [
        17.1925,
        65.28722222
       ],
       [
        17.18666667,
        65.23527778
       ],
       [
        17.02722222,
        65.16416667
       ],
       [
        16.78333333,
        65.2375
       ],
       [
        16.92277778,
        65.2975
       ],
       [
        17.08888889,
        65.30666667
       ]
      ]
     ]
    ]
   },
   "properties": {
    "lager": "AIP SUP",
    "namn": "STORUMAN RENBERG",
    "beteckning": "ESD852",
    "hojd": "SFC–2300 ft AMSL",
    "fran": "2026-06-22T00:00Z",
    "till": "2026-09-22T23:59Z",
    "schema": "22 JUN – 22 SEP 2026, H24",
    "kommentar": "Tillfälliga farliga områden ESD850 Moskosel Suddesjaur, ESD851 Arvidsjaur Revensberg, ESD852 Storuman Renberg och ESD853 Sorsele Ardnasjavrrie upprättas för UAS som flyger utom synhåll (BVLOS) enligt särskilt tillstånd.",
    "lank": "https://aro.lfv.se/content/eaip/AIRAC%20AIP%20AMDT%204-2026_2026_06_11/eSUP/AIP%20SUP%20112-2026_2026_06_22/ES-SUP-sv-SE.html#SUP"
   }
  },
  {
   "type": "Feature",
   "geometry": {
    "type": "MultiPolygon",
    "coordinates": [
     [
      [
       [
        17.85305556,
        65.72611111
       ],
       [
        17.97611111,
        65.69388889
       ],
       [
        18.01194444,
        65.65277778
       ],
       [
        17.82666667,
        65.54472222
       ],
       [
        17.64166667,
        65.59638889
       ],
       [
        17.85305556,
        65.72611111
       ]
      ]
     ]
    ]
   },
   "properties": {
    "lager": "AIP SUP",
    "namn": "SORSELE ARDNASJAVRRIE",
    "beteckning": "ESD853",
    "hojd": "SFC–2200 ft AMSL",
    "fran": "2026-06-22T00:00Z",
    "till": "2026-09-22T23:59Z",
    "schema": "22 JUN – 22 SEP 2026, H24",
    "kommentar": "Tillfälliga farliga områden ESD850 Moskosel Suddesjaur, ESD851 Arvidsjaur Revensberg, ESD852 Storuman Renberg och ESD853 Sorsele Ardnasjavrrie upprättas för UAS som flyger utom synhåll (BVLOS) enligt särskilt tillstånd.",
    "lank": "https://aro.lfv.se/content/eaip/AIRAC%20AIP%20AMDT%204-2026_2026_06_11/eSUP/AIP%20SUP%20112-2026_2026_06_22/ES-SUP-sv-SE.html#SUP"
   }
  },
  {
   "type": "Feature",
   "geometry": {
    "type": "MultiPolygon",
    "coordinates": [
     [
      [
       [
        18.91361111,
        65.985
       ],
       [
        19.21222222,
        65.93777778
       ],
       [
        19.135,
        65.81305556
       ],
       [
        18.90305556,
        65.81888889
       ],
       [
        18.78138889,
        65.86944444
       ],
       [
        18.91361111,
        65.985
       ]
      ]
     ]
    ]
   },
   "properties": {
    "lager": "AIP SUP",
    "namn": "MOSKOSEL SUDDEJAUR",
    "beteckning": "ESD850",
    "hojd": "SFC–2200 ft AMSL",
    "fran": "2026-06-22T00:00Z",
    "till": "2026-09-22T23:59Z",
    "schema": "22 JUN – 22 SEP 2026, H24",
    "kommentar": "Tillfälliga farliga områden ESD850 Moskosel Suddesjaur, ESD851 Arvidsjaur Revensberg, ESD852 Storuman Renberg och ESD853 Sorsele Ardnasjavrrie upprättas för UAS som flyger utom synhåll (BVLOS) enligt särskilt tillstånd.",
    "lank": "https://aro.lfv.se/content/eaip/AIRAC%20AIP%20AMDT%204-2026_2026_06_11/eSUP/AIP%20SUP%20112-2026_2026_06_22/ES-SUP-sv-SE.html#SUP"
   }
  },
  {
   "type": "Feature",
   "geometry": {
    "type": "MultiPolygon",
    "coordinates": [
     [
      [
       [
        18.78666667,
        65.76888889
       ],
       [
        19.09833333,
        65.66055556
       ],
       [
        19.08972222,
        65.61083333
       ],
       [
        19.04472222,
        65.60166667
       ],
       [
        19.03,
        65.58277778
       ],
       [
        18.95361111,
        65.58472222
       ],
       [
        18.6625,
        65.70861111
       ],
       [
        18.67861111,
        65.76194444
       ],
       [
        18.78666667,
        65.76888889
       ]
      ]
     ]
    ]
   },
   "properties": {
    "lager": "AIP SUP",
    "namn": "ARVIDSJAUR REVENSBERG",
    "beteckning": "ESD851",
    "hojd": "SFC–2300 ft AMSL",
    "fran": "2026-06-22T00:00Z",
    "till": "2026-09-22T23:59Z",
    "schema": "22 JUN – 22 SEP 2026, H24",
    "kommentar": "Tillfälliga farliga områden ESD850 Moskosel Suddesjaur, ESD851 Arvidsjaur Revensberg, ESD852 Storuman Renberg och ESD853 Sorsele Ardnasjavrrie upprättas för UAS som flyger utom synhåll (BVLOS) enligt särskilt tillstånd.",
    "lank": "https://aro.lfv.se/content/eaip/AIRAC%20AIP%20AMDT%204-2026_2026_06_11/eSUP/AIP%20SUP%20112-2026_2026_06_22/ES-SUP-sv-SE.html#SUP"
   }
  },
  {
   "type": "Feature",
   "geometry": {
    "type": "MultiPolygon",
    "coordinates": [
     [
      [
       [
        17.75,
        56.45
       ],
       [
        18.16666667,
        56.18333333
       ],
       [
        16.43333333,
        55.25
       ],
       [
        16,
        55.5
       ],
       [
        17.75,
        56.45
       ]
      ]
     ]
    ]
   },
   "properties": {
    "lager": "AIP SUP",
    "namn": "FALKEN",
    "beteckning": "ESD770",
    "hojd": "SFC–FL155",
    "fran": "2026-06-22T07:00Z",
    "till": "2026-06-25T14:00Z",
    "schema": "22 JUN 0700 – 25 JUN 1400",
    "kommentar": "Tillfälligt farligt område ESD770 Falken upprättas för militär verksamhet inklusive flygverksamhet.\nInformation om status på ESD770 Falken kan lämnas av Malmö ACC.",
    "lank": "https://aro.lfv.se/content/eaip/AIRAC%20AIP%20AMDT%204-2026_2026_06_11/eSUP/AIP%20SUP%20113-2026_2026_06_22/ES-SUP-sv-SE.html#SUP"
   }
  }
 ]
}