{
  "type": "FeatureCollection",
  "name": "laserdata-grid-example",
  "crs": { "type": "name", "properties": { "name": "EPSG:3006" } },
  "features": [
    {
      "type": "Feature",
      "properties": { "cell_id": "10C012", "filesize": 184320000 },
      "geometry": {
        "type": "Polygon",
        "coordinates": [[[600000,6600000],[602500,6600000],[602500,6602500],[600000,6602500],[600000,6600000]]]
      }
    },
    {
      "type": "Feature",
      "properties": { "cell_id": "10C013", "filesize": 192012345 },
      "geometry": {
        "type": "Polygon",
        "coordinates": [[[602500,6600000],[605000,6600000],[605000,6602500],[602500,6602500],[602500,6600000]]]
      }
    },
    {
      "type": "Feature",
      "properties": { "cell_id": "10C014", "filesize": 178900000 },
      "geometry": {
        "type": "Polygon",
        "coordinates": [[[600000,6602500],[602500,6602500],[602500,6605000],[600000,6605000],[600000,6602500]]]
      }
    },
    {
      "type": "Feature",
      "properties": { "cell_id": "10C015", "filesize": 201450000 },
      "geometry": {
        "type": "Polygon",
        "coordinates": [[[602500,6602500],[605000,6602500],[605000,6605000],[602500,6605000],[602500,6602500]]]
      }
    }
  ]
}
