{"type":"FeatureCollection","features":[{"type":"Feature","geometry":{"type":"Polygon","coordinates":[[[18.22355,60.39408],[18.22957,60.38129],[18.24081,60.38342],[18.24166,60.38258],[18.24344,60.3831],[18.24476,60.3824],[18.24514,60.3812],[18.24579,60.38035],[18.24759,60.38039],[18.24893,60.37905],[18.25206,60.37957],[18.25339,60.37889],[18.2651,60.37657],[18.26388,60.37322],[18.26104,60.37291],[18.2586,60.36949],[18.25611,60.36966],[18.25663,60.36755],[18.25533,60.36691],[18.24541,60.36774],[18.24551,60.3681],[18.24189,60.36841],[18.24176,60.36878],[18.23773,60.36846],[18.23672,60.36624],[18.23583,60.36539],[18.21414,60.35972],[18.15728,60.38193],[18.15012,60.38561],[18.14988,60.38564],[18.14684,60.38769],[18.14602,60.38876],[18.1456,60.3897],[18.14424,60.3898],[18.14063,60.39082],[18.14049,60.39093],[18.13934,60.39109],[18.13652,60.39245],[18.13585,60.39246],[18.1331,60.39414],[18.15202,60.40675],[18.15262,60.41568],[18.15448,60.41932],[18.15798,60.42174],[18.16492,60.43014],[18.17438,60.44036],[18.17498,60.44119],[18.17352,60.44441],[18.18141,60.4492],[18.254,60.41701],[18.24108,60.41035],[18.24011,60.39738],[18.22355,60.39408]]]},"properties":{"namn":"Område för slutförvar i Östhammars kommun","beskrivning":"Område för slutförvar av använt kärnbränsle och kärnavfall i Östhannars kommun","kommun":"Östhammar","referens":"Länsstyrelsen i Uppsala län, Miljöenheten","lank":""}},{"type":"Feature","geometry":{"type":"Polygon","coordinates":[[[16.58829,57.44229],[16.60095,57.43976],[16.60098,57.43981],[16.61479,57.4376],[16.62015,57.43706],[16.62197,57.4359],[16.62832,57.43656],[16.62948,57.43738],[16.63046,57.4375],[16.63103,57.43785],[16.63165,57.43782],[16.63307,57.43756],[16.63341,57.4376],[16.6339,57.43783],[16.63507,57.43813],[16.63542,57.43857],[16.63566,57.43873],[16.63593,57.43877],[16.63697,57.43885],[16.64123,57.43881],[16.64228,57.43676],[16.64337,57.43578],[16.64325,57.43481],[16.64406,57.4331],[16.65003,57.42993],[16.65327,57.4307],[16.65396,57.42963],[16.65509,57.42892],[16.65884,57.42817],[16.66018,57.42824],[16.66275,57.42869],[16.66799,57.42888],[16.66894,57.42387],[16.66982,57.42371],[16.67075,57.42377],[16.67186,57.42459],[16.67246,57.42543],[16.67345,57.42593],[16.67389,57.42642],[16.6841,57.42986],[16.6976,57.42966],[16.70414,57.42729],[16.67849,57.4083],[16.67493,57.40731],[16.6688,57.40213],[16.66418,57.40107],[16.6623,57.40238],[16.65955,57.40181],[16.65797,57.40433],[16.66011,57.40458],[16.66125,57.40643],[16.65831,57.40713],[16.6586,57.40792],[16.65759,57.40908],[16.64574,57.40823],[16.64528,57.40877],[16.63466,57.41079],[16.63563,57.41341],[16.63383,57.41263],[16.62851,57.41069],[16.62727,57.40978],[16.62657,57.40984],[16.62577,57.40977],[16.62504,57.41181],[16.62436,57.41183],[16.62405,57.41167],[16.62361,57.41159],[16.6231,57.41158],[16.62233,57.4118],[16.62133,57.41173],[16.61875,57.41127],[16.61709,57.41122],[16.61673,57.41115],[16.61591,57.41122],[16.61494,57.41101],[16.61483,57.41088],[16.61515,57.41074],[16.61517,57.41056],[16.61494,57.41053],[16.61444,57.41063],[16.61385,57.41],[16.61249,57.40966],[16.61195,57.40986],[16.60993,57.40991],[16.6084,57.40976],[16.60713,57.4098],[16.60653,57.40945],[16.60599,57.40935],[16.60556,57.40961],[16.60512,57.40966],[16.60468,57.40968],[16.60332,57.40951],[16.60294,57.40978],[16.60185,57.40935],[16.60101,57.40945],[16.60045,57.40938],[16.60017,57.40954],[16.59996,57.40955],[16.59908,57.40941],[16.59937,57.41002],[16.59911,57.41028],[16.59886,57.41031],[16.59884,57.41056],[16.59851,57.41076],[16.59845,57.41108],[16.59819,57.4113],[16.59795,57.41133],[16.59734,57.41115],[16.59666,57.41105],[16.59632,57.41121],[16.59566,57.41134],[16.59415,57.41133],[16.59344,57.41171],[16.59324,57.41136],[16.59276,57.41104],[16.59184,57.41076],[16.59148,57.41047],[16.59027,57.41039],[16.58986,57.41077],[16.58875,57.41139],[16.58804,57.4115],[16.58662,57.41147],[16.58584,57.41168],[16.58567,57.41184],[16.58547,57.41186],[16.5853,57.41177],[16.5854,57.41168],[16.58528,57.41149],[16.58486,57.41138],[16.58426,57.41146],[16.58358,57.41145],[16.58308,57.41158],[16.5832,57.41195],[16.58391,57.41242],[16.58398,57.41314],[16.58379,57.41368],[16.58495,57.41482],[16.5847,57.41532],[16.58417,57.41547],[16.5843,57.41572],[16.58422,57.41596],[16.58352,57.41604],[16.58343,57.41565],[16.5833,57.41565],[16.58293,57.41573],[16.58288,57.41585],[16.58308,57.41598],[16.58265,57.41617],[16.58119,57.4163],[16.5807,57.41614],[16.57907,57.41643],[16.57834,57.41709],[16.57794,57.4182],[16.57527,57.41876],[16.57597,57.42001],[16.57572,57.42052],[16.57657,57.42071],[16.57658,57.42082],[16.57705,57.42121],[16.5771,57.42151],[16.57687,57.4217],[16.57681,57.42198],[16.57747,57.42279],[16.57513,57.42369],[16.5765,57.42426],[16.57465,57.42611],[16.57393,57.42595],[16.57368,57.42603],[16.57292,57.42601],[16.57278,57.42608],[16.57643,57.42701],[16.58033,57.42783],[16.58045,57.4278],[16.5811,57.43212],[16.57911,57.43527],[16.583,57.43751],[16.58596,57.43974],[16.58623,57.4427],[16.58829,57.44229]]]},"properties":{"namn":"Simpevarpsområdet","beskrivning":"Riksintresse f”r slutf”rvaring av anv„nt k„rnbr„nsle och k„rnavfall.","kommun":"","referens":"SKIïs beslutade omr†de f”r riksintresse 2004-12-02","lank":""}}]}