{
 "type": "FeatureCollection",
 "features": [
  {
   "type": "Feature",
   "geometry": {
    "type": "Point",
    "coordinates": [
     14.0283,
     57.8455
    ]
   },
   "properties": {
    "station_id": "75029",
    "namn": "Bankeryd",
    "aktiv": true,
    "hojd_m": null,
    "parameter": "Vatteninnehåll",
    "enhet": "mm",
    "parameter_id": "9",
    "senaste_varde": 1.44,
    "senaste_datum": "2015-02-08",
    "antal_matningar": 1,
    "forsta_datum": "2015-02-08",
    "sista_datum": "2015-02-08"
   }
  },
  {
   "type": "Feature",
   "geometry": {
    "type": "Point",
    "coordinates": [
     0.0,
     0.0
    ]
   },
   "properties": {
    "station_id": "75002",
    "namn": "Bensbyn",
    "aktiv": true,
    "hojd_m": null,
    "parameter": "Vatteninnehåll",
    "enhet": "mm",
    "parameter_id": "9",
    "senaste_varde": null,
    "senaste_datum": null,
    "antal_matningar": 0,
    "forsta_datum": null,
    "sista_datum": null
   }
  },
  {
   "type": "Feature",
   "geometry": {
    "type": "Point",
    "coordinates": [
     15.4274,
     60.492
    ]
   },
   "properties": {
    "station_id": "75009",
    "namn": "Borlänge",
    "aktiv": true,
    "hojd_m": null,
    "parameter": "Vatteninnehåll",
    "enhet": "mm",
    "parameter_id": "9",
    "senaste_varde": 24.0,
    "senaste_datum": "2014-03-19",
    "antal_matningar": 3,
    "forsta_datum": "2014-01-19",
    "sista_datum": "2014-03-19"
   }
  },
  {
   "type": "Feature",
   "geometry": {
    "type": "Point",
    "coordinates": [
     14.1958,
     57.6905
    ]
   },
   "properties": {
    "station_id": "75008",
    "namn": "Flahult",
    "aktiv": true,
    "hojd_m": null,
    "parameter": "Vatteninnehåll",
    "enhet": "mm",
    "parameter_id": "9",
    "senaste_varde": null,
    "senaste_datum": null,
    "antal_matningar": 0,
    "forsta_datum": null,
    "sista_datum": null
   }
  },
  {
   "type": "Feature",
   "geometry": {
    "type": "Point",
    "coordinates": [
     0.0,
     0.0
    ]
   },
   "properties": {
    "station_id": "75005",
    "namn": "Gotland",
    "aktiv": true,
    "hojd_m": null,
    "parameter": "Vatteninnehåll",
    "enhet": "mm",
    "parameter_id": "9",
    "senaste_varde": null,
    "senaste_datum": null,
    "antal_matningar": 0,
    "forsta_datum": null,
    "sista_datum": null
   }
  },
  {
   "type": "Feature",
   "geometry": {
    "type": "Point",
    "coordinates": [
     13.6319,
     57.4669
    ]
   },
   "properties": {
    "station_id": "75012",
    "namn": "Hestra",
    "aktiv": true,
    "hojd_m": null,
    "parameter": "Vatteninnehåll",
    "enhet": "mm",
    "parameter_id": "9",
    "senaste_varde": 26.0,
    "senaste_datum": "2024-01-19",
    "antal_matningar": 11,
    "forsta_datum": "2016-01-11",
    "sista_datum": "2024-01-19"
   }
  },
  {
   "type": "Feature",
   "geometry": {
    "type": "Point",
    "coordinates": [
     17.0827,
     61.7153
    ]
   },
   "properties": {
    "station_id": "75023",
    "namn": "Hudiksvall",
    "aktiv": true,
    "hojd_m": null,
    "parameter": "Vatteninnehåll",
    "enhet": "mm",
    "parameter_id": "9",
    "senaste_varde": 100.0,
    "senaste_datum": "2026-03-01",
    "antal_matningar": 48,
    "forsta_datum": "2013-12-08",
    "sista_datum": "2026-03-01"
   }
  },
  {
   "type": "Feature",
   "geometry": {
    "type": "Point",
    "coordinates": [
     17.5228,
     62.4923
    ]
   },
   "properties": {
    "station_id": "75024",
    "namn": "Härnösand",
    "aktiv": true,
    "hojd_m": null,
    "parameter": "Vatteninnehåll",
    "enhet": "mm",
    "parameter_id": "9",
    "senaste_varde": 26.0,
    "senaste_datum": "2026-03-22",
    "antal_matningar": 143,
    "forsta_datum": "2014-01-20",
    "sista_datum": "2026-03-22"
   }
  },
  {
   "type": "Feature",
   "geometry": {
    "type": "Point",
    "coordinates": [
     13.7488,
     63.0785
    ]
   },
   "properties": {
    "station_id": "75026",
    "namn": "Höglekardalen",
    "aktiv": true,
    "hojd_m": null,
    "parameter": "Vatteninnehåll",
    "enhet": "mm",
    "parameter_id": "9",
    "senaste_varde": 147.0,
    "senaste_datum": "2015-04-12",
    "antal_matningar": 17,
    "forsta_datum": "2014-01-12",
    "sista_datum": "2015-04-12"
   }
  },
  {
   "type": "Feature",
   "geometry": {
    "type": "Point",
    "coordinates": [
     18.1641,
     68.4174
    ]
   },
   "properties": {
    "station_id": "75028",
    "namn": "Katterjåkk",
    "aktiv": true,
    "hojd_m": null,
    "parameter": "Vatteninnehåll",
    "enhet": "mm",
    "parameter_id": "9",
    "senaste_varde": 339.0,
    "senaste_datum": "2026-04-13",
    "antal_matningar": 237,
    "forsta_datum": "2013-11-10",
    "sista_datum": "2026-04-13"
   }
  },
  {
   "type": "Feature",
   "geometry": {
    "type": "Point",
    "coordinates": [
     12.0649,
     57.6095
    ]
   },
   "properties": {
    "station_id": "75011",
    "namn": "Kållered",
    "aktiv": true,
    "hojd_m": null,
    "parameter": "Vatteninnehåll",
    "enhet": "mm",
    "parameter_id": "9",
    "senaste_varde": 22.0,
    "senaste_datum": "2019-01-30",
    "antal_matningar": 11,
    "forsta_datum": "2016-01-18",
    "sista_datum": "2019-01-30"
   }
  },
  {
   "type": "Feature",
   "geometry": {
    "type": "Point",
    "coordinates": [
     15.0167,
     60.7256
    ]
   },
   "properties": {
    "station_id": "75030",
    "namn": "Leksand",
    "aktiv": true,
    "hojd_m": null,
    "parameter": "Vatteninnehåll",
    "enhet": "mm",
    "parameter_id": "9",
    "senaste_varde": 36.0,
    "senaste_datum": "2025-01-06",
    "antal_matningar": 30,
    "forsta_datum": "2015-01-11",
    "sista_datum": "2025-01-06"
   }
  },
  {
   "type": "Feature",
   "geometry": {
    "type": "Point",
    "coordinates": [
     13.229,
     55.693
    ]
   },
   "properties": {
    "station_id": "75010",
    "namn": "Lund",
    "aktiv": true,
    "hojd_m": null,
    "parameter": "Vatteninnehåll",
    "enhet": "mm",
    "parameter_id": "9",
    "senaste_varde": 0.0,
    "senaste_datum": "2026-01-03",
    "antal_matningar": 3,
    "forsta_datum": "2021-12-01",
    "sista_datum": "2026-01-03"
   }
  },
  {
   "type": "Feature",
   "geometry": {
    "type": "Point",
    "coordinates": [
     13.7058,
     60.6717
    ]
   },
   "properties": {
    "station_id": "75020",
    "namn": "Malung",
    "aktiv": true,
    "hojd_m": null,
    "parameter": "Vatteninnehåll",
    "enhet": "mm",
    "parameter_id": "9",
    "senaste_varde": 75.0,
    "senaste_datum": "2016-03-14",
    "antal_matningar": 19,
    "forsta_datum": "2014-01-12",
    "sista_datum": "2016-03-14"
   }
  },
  {
   "type": "Feature",
   "geometry": {
    "type": "Point",
    "coordinates": [
     16.1474,
     58.5827
    ]
   },
   "properties": {
    "station_id": "75015",
    "namn": "Norrköping",
    "aktiv": true,
    "hojd_m": null,
    "parameter": "Vatteninnehåll",
    "enhet": "mm",
    "parameter_id": "9",
    "senaste_varde": 17.0,
    "senaste_datum": "2018-02-02",
    "antal_matningar": 7,
    "forsta_datum": "2013-12-08",
    "sista_datum": "2018-02-02"
   }
  },
  {
   "type": "Feature",
   "geometry": {
    "type": "Point",
    "coordinates": [
     16.4149,
     57.2674
    ]
   },
   "properties": {
    "station_id": "75013",
    "namn": "Oskarshamn",
    "aktiv": true,
    "hojd_m": null,
    "parameter": "Vatteninnehåll",
    "enhet": "mm",
    "parameter_id": "9",
    "senaste_varde": 52.0,
    "senaste_datum": "2018-03-18",
    "antal_matningar": 4,
    "forsta_datum": "2017-03-07",
    "sista_datum": "2021-02-15"
   }
  },
  {
   "type": "Feature",
   "geometry": {
    "type": "Point",
    "coordinates": [
     21.4776,
     65.2636
    ]
   },
   "properties": {
    "station_id": "75027",
    "namn": "Piteå",
    "aktiv": true,
    "hojd_m": null,
    "parameter": "Vatteninnehåll",
    "enhet": "mm",
    "parameter_id": "9",
    "senaste_varde": 51.0,
    "senaste_datum": "2025-01-30",
    "antal_matningar": 29,
    "forsta_datum": "2014-02-21",
    "sista_datum": "2025-01-30"
   }
  },
  {
   "type": "Feature",
   "geometry": {
    "type": "Point",
    "coordinates": [
     16.4029,
     59.0578
    ]
   },
   "properties": {
    "station_id": "75033",
    "namn": "Sköldinge",
    "aktiv": true,
    "hojd_m": null,
    "parameter": "Vatteninnehåll",
    "enhet": "mm",
    "parameter_id": "9",
    "senaste_varde": 46.0,
    "senaste_datum": "2024-01-15",
    "antal_matningar": 12,
    "forsta_datum": "2015-01-25",
    "sista_datum": "2024-01-15"
   }
  },
  {
   "type": "Feature",
   "geometry": {
    "type": "Point",
    "coordinates": [
     18.0544,
     59.3415
    ]
   },
   "properties": {
    "station_id": "75018",
    "namn": "Stockholm",
    "aktiv": true,
    "hojd_m": null,
    "parameter": "Vatteninnehåll",
    "enhet": "mm",
    "parameter_id": "9",
    "senaste_varde": 30.0,
    "senaste_datum": "2024-01-17",
    "antal_matningar": 10,
    "forsta_datum": "2015-02-03",
    "sista_datum": "2024-01-17"
   }
  },
  {
   "type": "Feature",
   "geometry": {
    "type": "Point",
    "coordinates": [
     0.0,
     0.0
    ]
   },
   "properties": {
    "station_id": "75004",
    "namn": "Stora Myra",
    "aktiv": true,
    "hojd_m": null,
    "parameter": "Vatteninnehåll",
    "enhet": "mm",
    "parameter_id": "9",
    "senaste_varde": null,
    "senaste_datum": null,
    "antal_matningar": 0,
    "forsta_datum": null,
    "sista_datum": null
   }
  },
  {
   "type": "Feature",
   "geometry": {
    "type": "Point",
    "coordinates": [
     12.1218,
     63.2826
    ]
   },
   "properties": {
    "station_id": "75025",
    "namn": "Storlien-Storvallen",
    "aktiv": true,
    "hojd_m": null,
    "parameter": "Vatteninnehåll",
    "enhet": "mm",
    "parameter_id": "9",
    "senaste_varde": 100.0,
    "senaste_datum": "2026-04-15",
    "antal_matningar": 162,
    "forsta_datum": "2013-02-02",
    "sista_datum": "2026-04-15"
   }
  },
  {
   "type": "Feature",
   "geometry": {
    "type": "Point",
    "coordinates": [
     0.0,
     0.0
    ]
   },
   "properties": {
    "station_id": "75006",
    "namn": "Storömosse",
    "aktiv": true,
    "hojd_m": null,
    "parameter": "Vatteninnehåll",
    "enhet": "mm",
    "parameter_id": "9",
    "senaste_varde": null,
    "senaste_datum": null,
    "antal_matningar": 0,
    "forsta_datum": null,
    "sista_datum": null
   }
  },
  {
   "type": "Feature",
   "geometry": {
    "type": "Point",
    "coordinates": [
     17.282,
     62.397
    ]
   },
   "properties": {
    "station_id": "75032",
    "namn": "Sundsvall",
    "aktiv": true,
    "hojd_m": null,
    "parameter": "Vatteninnehåll",
    "enhet": "mm",
    "parameter_id": "9",
    "senaste_varde": null,
    "senaste_datum": null,
    "antal_matningar": 0,
    "forsta_datum": null,
    "sista_datum": null
   }
  },
  {
   "type": "Feature",
   "geometry": {
    "type": "Point",
    "coordinates": [
     13.1828,
     61.6908
    ]
   },
   "properties": {
    "station_id": "75022",
    "namn": "Särna",
    "aktiv": true,
    "hojd_m": null,
    "parameter": "Vatteninnehåll",
    "enhet": "mm",
    "parameter_id": "9",
    "senaste_varde": 70.0,
    "senaste_datum": "2021-04-12",
    "antal_matningar": 90,
    "forsta_datum": "2013-12-09",
    "sista_datum": "2021-04-12"
   }
  },
  {
   "type": "Feature",
   "geometry": {
    "type": "Point",
    "coordinates": [
     0.0,
     0.0
    ]
   },
   "properties": {
    "station_id": "75001",
    "namn": "Tarfala",
    "aktiv": true,
    "hojd_m": null,
    "parameter": "Vatteninnehåll",
    "enhet": "mm",
    "parameter_id": "9",
    "senaste_varde": null,
    "senaste_datum": null,
    "antal_matningar": 0,
    "forsta_datum": null,
    "sista_datum": null
   }
  },
  {
   "type": "Feature",
   "geometry": {
    "type": "Point",
    "coordinates": [
     0.0,
     0.0
    ]
   },
   "properties": {
    "station_id": "75003",
    "namn": "Torpshammar",
    "aktiv": true,
    "hojd_m": null,
    "parameter": "Vatteninnehåll",
    "enhet": "mm",
    "parameter_id": "9",
    "senaste_varde": null,
    "senaste_datum": null,
    "antal_matningar": 0,
    "forsta_datum": null,
    "sista_datum": null
   }
  },
  {
   "type": "Feature",
   "geometry": {
    "type": "Point",
    "coordinates": [
     17.8989,
     59.518
    ]
   },
   "properties": {
    "station_id": "75019",
    "namn": "Upplands Väsby",
    "aktiv": true,
    "hojd_m": null,
    "parameter": "Vatteninnehåll",
    "enhet": "mm",
    "parameter_id": "9",
    "senaste_varde": null,
    "senaste_datum": null,
    "antal_matningar": 0,
    "forsta_datum": null,
    "sista_datum": null
   }
  },
  {
   "type": "Feature",
   "geometry": {
    "type": "Point",
    "coordinates": [
     16.3709,
     59.0185
    ]
   },
   "properties": {
    "station_id": "75031",
    "namn": "Valla",
    "aktiv": true,
    "hojd_m": null,
    "parameter": "Vatteninnehåll",
    "enhet": "mm",
    "parameter_id": "9",
    "senaste_varde": 29.0,
    "senaste_datum": "2014-02-02",
    "antal_matningar": 1,
    "forsta_datum": "2014-02-02",
    "sista_datum": "2014-02-02"
   }
  },
  {
   "type": "Feature",
   "geometry": {
    "type": "Point",
    "coordinates": [
     17.7206,
     60.0284
    ]
   },
   "properties": {
    "station_id": "75021",
    "namn": "Vattholma",
    "aktiv": true,
    "hojd_m": null,
    "parameter": "Vatteninnehåll",
    "enhet": "mm",
    "parameter_id": "9",
    "senaste_varde": 30.0,
    "senaste_datum": "2025-01-12",
    "antal_matningar": 31,
    "forsta_datum": "2015-01-11",
    "sista_datum": "2025-01-12"
   }
  },
  {
   "type": "Feature",
   "geometry": {
    "type": "Point",
    "coordinates": [
     0.0,
     0.0
    ]
   },
   "properties": {
    "station_id": "75007",
    "namn": "Vindeln",
    "aktiv": true,
    "hojd_m": null,
    "parameter": "Vatteninnehåll",
    "enhet": "mm",
    "parameter_id": "9",
    "senaste_varde": null,
    "senaste_datum": null,
    "antal_matningar": 0,
    "forsta_datum": null,
    "sista_datum": null
   }
  },
  {
   "type": "Feature",
   "geometry": {
    "type": "Point",
    "coordinates": [
     18.3494,
     57.6477
    ]
   },
   "properties": {
    "station_id": "75014",
    "namn": "Visby",
    "aktiv": true,
    "hojd_m": null,
    "parameter": "Vatteninnehåll",
    "enhet": "mm",
    "parameter_id": "9",
    "senaste_varde": 82.0,
    "senaste_datum": "2026-02-22",
    "antal_matningar": 13,
    "forsta_datum": "2014-01-27",
    "sista_datum": "2026-02-22"
   }
  },
  {
   "type": "Feature",
   "geometry": {
    "type": "Point",
    "coordinates": [
     13.8534,
     59.3675
    ]
   },
   "properties": {
    "station_id": "75016",
    "namn": "Väse",
    "aktiv": true,
    "hojd_m": null,
    "parameter": "Vatteninnehåll",
    "enhet": "mm",
    "parameter_id": "9",
    "senaste_varde": 26.0,
    "senaste_datum": "2025-01-12",
    "antal_matningar": 18,
    "forsta_datum": "2014-01-19",
    "sista_datum": "2025-01-12"
   }
  },
  {
   "type": "Feature",
   "geometry": {
    "type": "Point",
    "coordinates": [
     16.6,
     59.5972
    ]
   },
   "properties": {
    "station_id": "75017",
    "namn": "Västerås",
    "aktiv": true,
    "hojd_m": null,
    "parameter": "Vatteninnehåll",
    "enhet": "mm",
    "parameter_id": "9",
    "senaste_varde": 48.0,
    "senaste_datum": "2015-02-01",
    "antal_matningar": 1,
    "forsta_datum": "2015-02-01",
    "sista_datum": "2015-02-01"
   }
  }
 ]
}