{
 "type": "FeatureCollection",
 "features": [
  {
   "type": "Feature",
   "geometry": {
    "type": "Point",
    "coordinates": [
     16.0386,
     56.9798
    ]
   },
   "properties": {
    "station_id": "70024",
    "namn": "ALLGUNNEN ALSTERÅN",
    "aktiv": false,
    "hojd_m": null,
    "parameter": "Istjocklek",
    "enhet": "cm",
    "parameter_id": "7",
    "senaste_varde": 0.0,
    "senaste_datum": "1988-04-08",
    "antal_matningar": 325,
    "forsta_datum": null,
    "sista_datum": "1988-04-08"
   }
  },
  {
   "type": "Feature",
   "geometry": {
    "type": "Point",
    "coordinates": [
     14.5854,
     57.2421
    ]
   },
   "properties": {
    "station_id": "70031",
    "namn": "ALLGUNNEN LAGAN",
    "aktiv": true,
    "hojd_m": null,
    "parameter": "Istjocklek",
    "enhet": "cm",
    "parameter_id": "7",
    "senaste_varde": 0.0,
    "senaste_datum": "2012-03-25",
    "antal_matningar": 615,
    "forsta_datum": null,
    "sista_datum": "2012-03-25"
   }
  },
  {
   "type": "Feature",
   "geometry": {
    "type": "Point",
    "coordinates": [
     20.4968,
     64.3511
    ]
   },
   "properties": {
    "station_id": "70446",
    "namn": "BYGDETRÄSKET",
    "aktiv": true,
    "hojd_m": null,
    "parameter": "Istjocklek",
    "enhet": "cm",
    "parameter_id": "7",
    "senaste_varde": 47.0,
    "senaste_datum": "2012-04-29",
    "antal_matningar": 1304,
    "forsta_datum": null,
    "sista_datum": "2012-05-06"
   }
  },
  {
   "type": "Feature",
   "geometry": {
    "type": "Point",
    "coordinates": [
     16.8504,
     59.0732
    ]
   },
   "properties": {
    "station_id": "70098",
    "namn": "BÅVEN DELEN VID SPARREHOLM",
    "aktiv": true,
    "hojd_m": null,
    "parameter": "Istjocklek",
    "enhet": "cm",
    "parameter_id": "7",
    "senaste_varde": 0.0,
    "senaste_datum": "2012-03-25",
    "antal_matningar": 827,
    "forsta_datum": null,
    "sista_datum": "2012-03-25"
   }
  },
  {
   "type": "Feature",
   "geometry": {
    "type": "Point",
    "coordinates": [
     13.3011,
     55.4957
    ]
   },
   "properties": {
    "station_id": "70001",
    "namn": "BÖRRINGESJÖN",
    "aktiv": false,
    "hojd_m": null,
    "parameter": "Istjocklek",
    "enhet": "cm",
    "parameter_id": "7",
    "senaste_varde": 7.0,
    "senaste_datum": "2012-01-28",
    "antal_matningar": 419,
    "forsta_datum": null,
    "sista_datum": "2012-01-28"
   }
  },
  {
   "type": "Feature",
   "geometry": {
    "type": "Point",
    "coordinates": [
     11.9185,
     58.4968
    ]
   },
   "properties": {
    "station_id": "70087",
    "namn": "ELLENÖSJÖN",
    "aktiv": false,
    "hojd_m": null,
    "parameter": "Istjocklek",
    "enhet": "cm",
    "parameter_id": "7",
    "senaste_varde": 0.0,
    "senaste_datum": "2012-04-01",
    "antal_matningar": 633,
    "forsta_datum": null,
    "sista_datum": "2012-04-01"
   }
  },
  {
   "type": "Feature",
   "geometry": {
    "type": "Point",
    "coordinates": [
     14.1325,
     62.6315
    ]
   },
   "properties": {
    "station_id": "70772",
    "namn": "Fotingen",
    "aktiv": false,
    "hojd_m": null,
    "parameter": "Istjocklek",
    "enhet": "cm",
    "parameter_id": "7",
    "senaste_varde": 43.0,
    "senaste_datum": "1996-12-29",
    "antal_matningar": 990,
    "forsta_datum": null,
    "sista_datum": "1996-12-29"
   }
  },
  {
   "type": "Feature",
   "geometry": {
    "type": "Point",
    "coordinates": [
     16.0833,
     58.5941
    ]
   },
   "properties": {
    "station_id": "70089",
    "namn": "GLAN",
    "aktiv": false,
    "hojd_m": null,
    "parameter": "Istjocklek",
    "enhet": "cm",
    "parameter_id": "7",
    "senaste_varde": 0.0,
    "senaste_datum": "1981-04-10",
    "antal_matningar": 395,
    "forsta_datum": null,
    "sista_datum": "1981-04-10"
   }
  },
  {
   "type": "Feature",
   "geometry": {
    "type": "Point",
    "coordinates": [
     15.5186,
     65.6016
    ]
   },
   "properties": {
    "station_id": "70512",
    "namn": "GÖUTA",
    "aktiv": true,
    "hojd_m": null,
    "parameter": "Istjocklek",
    "enhet": "cm",
    "parameter_id": "7",
    "senaste_varde": 0.0,
    "senaste_datum": "2012-05-26",
    "antal_matningar": 1476,
    "forsta_datum": null,
    "sista_datum": "2012-05-26"
   }
  },
  {
   "type": "Feature",
   "geometry": {
    "type": "Point",
    "coordinates": [
     12.918,
     57.4122
    ]
   },
   "properties": {
    "station_id": "70035",
    "namn": "HOLSJÖN",
    "aktiv": false,
    "hojd_m": null,
    "parameter": "Istjocklek",
    "enhet": "cm",
    "parameter_id": "7",
    "senaste_varde": 0.0,
    "senaste_datum": "2012-03-19",
    "antal_matningar": 583,
    "forsta_datum": null,
    "sista_datum": "2012-03-19"
   }
  },
  {
   "type": "Feature",
   "geometry": {
    "type": "Point",
    "coordinates": [
     14.4611,
     56.0713
    ]
   },
   "properties": {
    "station_id": "70005",
    "namn": "IVÖSJÖN",
    "aktiv": false,
    "hojd_m": null,
    "parameter": "Istjocklek",
    "enhet": "cm",
    "parameter_id": "7",
    "senaste_varde": 0.0,
    "senaste_datum": "2012-02-28",
    "antal_matningar": 375,
    "forsta_datum": null,
    "sista_datum": "2012-02-28"
   }
  },
  {
   "type": "Feature",
   "geometry": {
    "type": "Point",
    "coordinates": [
     0.0,
     0.0
    ]
   },
   "properties": {
    "station_id": "70777",
    "namn": "Karunki Lauri W-As",
    "aktiv": false,
    "hojd_m": null,
    "parameter": "Istjocklek",
    "enhet": "cm",
    "parameter_id": "7",
    "senaste_varde": 57.0,
    "senaste_datum": "1980-02-29",
    "antal_matningar": 92,
    "forsta_datum": null,
    "sista_datum": "1980-02-29"
   }
  },
  {
   "type": "Feature",
   "geometry": {
    "type": "Point",
    "coordinates": [
     0.0,
     0.0
    ]
   },
   "properties": {
    "station_id": "70781",
    "namn": "Kilpisjärvi",
    "aktiv": false,
    "hojd_m": null,
    "parameter": "Istjocklek",
    "enhet": "cm",
    "parameter_id": "7",
    "senaste_varde": 70.0,
    "senaste_datum": "2009-05-20",
    "antal_matningar": 705,
    "forsta_datum": null,
    "sista_datum": "2009-05-20"
   }
  },
  {
   "type": "Feature",
   "geometry": {
    "type": "Point",
    "coordinates": [
     14.1325,
     62.6315
    ]
   },
   "properties": {
    "station_id": "70773",
    "namn": "Klövsjön",
    "aktiv": false,
    "hojd_m": null,
    "parameter": "Istjocklek",
    "enhet": "cm",
    "parameter_id": "7",
    "senaste_varde": 0.0,
    "senaste_datum": "2012-05-03",
    "antal_matningar": 306,
    "forsta_datum": "2001-01-04",
    "sista_datum": "2012-05-03"
   }
  },
  {
   "type": "Feature",
   "geometry": {
    "type": "Point",
    "coordinates": [
     0.0,
     0.0
    ]
   },
   "properties": {
    "station_id": "70780",
    "namn": "Kutuniva W 67:7",
    "aktiv": false,
    "hojd_m": null,
    "parameter": "Istjocklek",
    "enhet": "cm",
    "parameter_id": "7",
    "senaste_varde": 60.0,
    "senaste_datum": "1999-04-30",
    "antal_matningar": 574,
    "forsta_datum": null,
    "sista_datum": "1999-04-30"
   }
  },
  {
   "type": "Feature",
   "geometry": {
    "type": "Point",
    "coordinates": [
     0.0,
     0.0
    ]
   },
   "properties": {
    "station_id": "70778",
    "namn": "Matkakosk W 67:21a",
    "aktiv": false,
    "hojd_m": null,
    "parameter": "Istjocklek",
    "enhet": "cm",
    "parameter_id": "7",
    "senaste_varde": 72.0,
    "senaste_datum": "1995-04-20",
    "antal_matningar": 115,
    "forsta_datum": "1970-01-15",
    "sista_datum": "1995-04-20"
   }
  },
  {
   "type": "Feature",
   "geometry": {
    "type": "Point",
    "coordinates": [
     17.4418,
     59.4422
    ]
   },
   "properties": {
    "station_id": "70771",
    "namn": "MÄLAREN Norra Björkfjärden",
    "aktiv": true,
    "hojd_m": null,
    "parameter": "Istjocklek",
    "enhet": "cm",
    "parameter_id": "7",
    "senaste_varde": 26.0,
    "senaste_datum": "2018-03-28",
    "antal_matningar": 17,
    "forsta_datum": "2013-01-22",
    "sista_datum": "2018-03-28"
   }
  },
  {
   "type": "Feature",
   "geometry": {
    "type": "Point",
    "coordinates": [
     14.1219,
     56.6649
    ]
   },
   "properties": {
    "station_id": "70013",
    "namn": "MÖCKELN",
    "aktiv": false,
    "hojd_m": null,
    "parameter": "Istjocklek",
    "enhet": "cm",
    "parameter_id": "7",
    "senaste_varde": 0.0,
    "senaste_datum": "2010-12-19",
    "antal_matningar": 861,
    "forsta_datum": null,
    "sista_datum": "2010-12-19"
   }
  },
  {
   "type": "Feature",
   "geometry": {
    "type": "Point",
    "coordinates": [
     11.5364,
     58.8771
    ]
   },
   "properties": {
    "station_id": "70097",
    "namn": "NORRA BULLARESJÖN",
    "aktiv": true,
    "hojd_m": null,
    "parameter": "Istjocklek",
    "enhet": "cm",
    "parameter_id": "7",
    "senaste_varde": 0.0,
    "senaste_datum": "2012-04-01",
    "antal_matningar": 727,
    "forsta_datum": null,
    "sista_datum": "2012-04-01"
   }
  },
  {
   "type": "Feature",
   "geometry": {
    "type": "Point",
    "coordinates": [
     15.1401,
     57.1104
    ]
   },
   "properties": {
    "station_id": "70744",
    "namn": "NORRSJÖN",
    "aktiv": false,
    "hojd_m": null,
    "parameter": "Istjocklek",
    "enhet": "cm",
    "parameter_id": "7",
    "senaste_varde": 0.0,
    "senaste_datum": "2012-03-20",
    "antal_matningar": 566,
    "forsta_datum": null,
    "sista_datum": "2012-03-20"
   }
  },
  {
   "type": "Feature",
   "geometry": {
    "type": "Point",
    "coordinates": [
     14.8524,
     57.5668
    ]
   },
   "properties": {
    "station_id": "70042",
    "namn": "NÖMMEN",
    "aktiv": true,
    "hojd_m": null,
    "parameter": "Istjocklek",
    "enhet": "cm",
    "parameter_id": "7",
    "senaste_varde": 0.0,
    "senaste_datum": "2012-03-25",
    "antal_matningar": 906,
    "forsta_datum": null,
    "sista_datum": "2012-03-25"
   }
  },
  {
   "type": "Feature",
   "geometry": {
    "type": "Point",
    "coordinates": [
     13.998,
     56.348
    ]
   },
   "properties": {
    "station_id": "70008",
    "namn": "OSBYSJÖN",
    "aktiv": false,
    "hojd_m": null,
    "parameter": "Istjocklek",
    "enhet": "cm",
    "parameter_id": "7",
    "senaste_varde": 0.0,
    "senaste_datum": "2012-03-17",
    "antal_matningar": 574,
    "forsta_datum": null,
    "sista_datum": "2012-03-17"
   }
  },
  {
   "type": "Feature",
   "geometry": {
    "type": "Point",
    "coordinates": [
     0.0,
     0.0
    ]
   },
   "properties": {
    "station_id": "70782",
    "namn": "Palojoensuu",
    "aktiv": false,
    "hojd_m": null,
    "parameter": "Istjocklek",
    "enhet": "cm",
    "parameter_id": "7",
    "senaste_varde": 72.0,
    "senaste_datum": "1992-04-30",
    "antal_matningar": 37,
    "forsta_datum": "1990-11-10",
    "sista_datum": "1992-04-30"
   }
  },
  {
   "type": "Feature",
   "geometry": {
    "type": "Point",
    "coordinates": [
     0.0,
     0.0
    ]
   },
   "properties": {
    "station_id": "70783",
    "namn": "Palojoensuu W 67:5d",
    "aktiv": false,
    "hojd_m": null,
    "parameter": "Istjocklek",
    "enhet": "cm",
    "parameter_id": "7",
    "senaste_varde": 73.0,
    "senaste_datum": "1990-04-20",
    "antal_matningar": 214,
    "forsta_datum": "1977-11-15",
    "sista_datum": "1990-04-20"
   }
  },
  {
   "type": "Feature",
   "geometry": {
    "type": "Point",
    "coordinates": [
     0.0,
     0.0
    ]
   },
   "properties": {
    "station_id": "70784",
    "namn": "Pello",
    "aktiv": false,
    "hojd_m": null,
    "parameter": "Istjocklek",
    "enhet": "cm",
    "parameter_id": "7",
    "senaste_varde": 74.0,
    "senaste_datum": "2009-04-20",
    "antal_matningar": 658,
    "forsta_datum": null,
    "sista_datum": "2009-04-20"
   }
  },
  {
   "type": "Feature",
   "geometry": {
    "type": "Point",
    "coordinates": [
     14.1822,
     57.7707
    ]
   },
   "properties": {
    "station_id": "70052",
    "namn": "ROCKSJÖN",
    "aktiv": false,
    "hojd_m": null,
    "parameter": "Istjocklek",
    "enhet": "cm",
    "parameter_id": "7",
    "senaste_varde": 0.0,
    "senaste_datum": "2012-03-18",
    "antal_matningar": 443,
    "forsta_datum": null,
    "sista_datum": "2012-03-18"
   }
  },
  {
   "type": "Feature",
   "geometry": {
    "type": "Point",
    "coordinates": [
     15.1724,
     56.7374
    ]
   },
   "properties": {
    "station_id": "70014",
    "namn": "ROTTNEN",
    "aktiv": false,
    "hojd_m": null,
    "parameter": "Istjocklek",
    "enhet": "cm",
    "parameter_id": "7",
    "senaste_varde": 0.0,
    "senaste_datum": "2012-03-18",
    "antal_matningar": 585,
    "forsta_datum": null,
    "sista_datum": "2012-03-18"
   }
  },
  {
   "type": "Feature",
   "geometry": {
    "type": "Point",
    "coordinates": [
     15.5895,
     60.4682
    ]
   },
   "properties": {
    "station_id": "70202",
    "namn": "RUNN",
    "aktiv": false,
    "hojd_m": null,
    "parameter": "Istjocklek",
    "enhet": "cm",
    "parameter_id": "7",
    "senaste_varde": 0.0,
    "senaste_datum": "2012-04-21",
    "antal_matningar": 1296,
    "forsta_datum": null,
    "sista_datum": "2012-04-21"
   }
  },
  {
   "type": "Feature",
   "geometry": {
    "type": "Point",
    "coordinates": [
     11.8437,
     59.3254
    ]
   },
   "properties": {
    "station_id": "70131",
    "namn": "STORA LE",
    "aktiv": false,
    "hojd_m": null,
    "parameter": "Istjocklek",
    "enhet": "cm",
    "parameter_id": "7",
    "senaste_varde": 32.0,
    "senaste_datum": "2011-03-27",
    "antal_matningar": 366,
    "forsta_datum": null,
    "sista_datum": "2011-03-27"
   }
  },
  {
   "type": "Feature",
   "geometry": {
    "type": "Point",
    "coordinates": [
     16.8639,
     62.3751
    ]
   },
   "properties": {
    "station_id": "70292",
    "namn": "STÖDESJÖN",
    "aktiv": true,
    "hojd_m": null,
    "parameter": "Istjocklek",
    "enhet": "cm",
    "parameter_id": "7",
    "senaste_varde": 0.0,
    "senaste_datum": "2012-04-27",
    "antal_matningar": 548,
    "forsta_datum": "1986-01-11",
    "sista_datum": "2012-04-27"
   }
  },
  {
   "type": "Feature",
   "geometry": {
    "type": "Point",
    "coordinates": [
     12.2403,
     57.4888
    ]
   },
   "properties": {
    "station_id": "70039",
    "namn": "SUNDSJÖN",
    "aktiv": false,
    "hojd_m": null,
    "parameter": "Istjocklek",
    "enhet": "cm",
    "parameter_id": "7",
    "senaste_varde": 0.0,
    "senaste_datum": "1988-03-10",
    "antal_matningar": 428,
    "forsta_datum": null,
    "sista_datum": "1988-03-10"
   }
  },
  {
   "type": "Feature",
   "geometry": {
    "type": "Point",
    "coordinates": [
     14.9982,
     60.7287
    ]
   },
   "properties": {
    "station_id": "70774",
    "namn": "Siljan",
    "aktiv": false,
    "hojd_m": null,
    "parameter": "Istjocklek",
    "enhet": "cm",
    "parameter_id": "7",
    "senaste_varde": 23.0,
    "senaste_datum": "2012-03-18",
    "antal_matningar": 1005,
    "forsta_datum": null,
    "sista_datum": "2012-03-25"
   }
  },
  {
   "type": "Feature",
   "geometry": {
    "type": "Point",
    "coordinates": [
     15.6104,
     63.8303
    ]
   },
   "properties": {
    "station_id": "70775",
    "namn": "Ströms vattudal",
    "aktiv": false,
    "hojd_m": null,
    "parameter": "Istjocklek",
    "enhet": "cm",
    "parameter_id": "7",
    "senaste_varde": 0.0,
    "senaste_datum": "2012-05-02",
    "antal_matningar": 448,
    "forsta_datum": "1987-04-25",
    "sista_datum": "2012-05-02"
   }
  },
  {
   "type": "Feature",
   "geometry": {
    "type": "Point",
    "coordinates": [
     19.9886,
     68.194
    ]
   },
   "properties": {
    "station_id": "70595",
    "namn": "TORNETRÄSK",
    "aktiv": true,
    "hojd_m": null,
    "parameter": "Istjocklek",
    "enhet": "cm",
    "parameter_id": "7",
    "senaste_varde": 0.0,
    "senaste_datum": "2012-06-07",
    "antal_matningar": 1282,
    "forsta_datum": null,
    "sista_datum": "2012-06-07"
   }
  },
  {
   "type": "Feature",
   "geometry": {
    "type": "Point",
    "coordinates": [
     0.0,
     0.0
    ]
   },
   "properties": {
    "station_id": "70779",
    "namn": "Tornio",
    "aktiv": false,
    "hojd_m": null,
    "parameter": "Istjocklek",
    "enhet": "cm",
    "parameter_id": "7",
    "senaste_varde": 89.0,
    "senaste_datum": "2009-04-20",
    "antal_matningar": 466,
    "forsta_datum": null,
    "sista_datum": "2009-04-20"
   }
  },
  {
   "type": "Feature",
   "geometry": {
    "type": "Point",
    "coordinates": [
     13.9844,
     56.9789
    ]
   },
   "properties": {
    "station_id": "70025",
    "namn": "VIDÖSTERN",
    "aktiv": true,
    "hojd_m": null,
    "parameter": "Istjocklek",
    "enhet": "cm",
    "parameter_id": "7",
    "senaste_varde": 18.0,
    "senaste_datum": "2012-03-10",
    "antal_matningar": 569,
    "forsta_datum": null,
    "sista_datum": "2012-03-18"
   }
  },
  {
   "type": "Feature",
   "geometry": {
    "type": "Point",
    "coordinates": [
     13.6062,
     57.4032
    ]
   },
   "properties": {
    "station_id": "70034",
    "namn": "VIKARESJÖN",
    "aktiv": false,
    "hojd_m": null,
    "parameter": "Istjocklek",
    "enhet": "cm",
    "parameter_id": "7",
    "senaste_varde": 0.0,
    "senaste_datum": "2012-03-13",
    "antal_matningar": 387,
    "forsta_datum": null,
    "sista_datum": "2012-03-13"
   }
  },
  {
   "type": "Feature",
   "geometry": {
    "type": "Point",
    "coordinates": [
     0.0,
     0.0
    ]
   },
   "properties": {
    "station_id": "70785",
    "namn": "Vuennonkoski",
    "aktiv": false,
    "hojd_m": null,
    "parameter": "Istjocklek",
    "enhet": "cm",
    "parameter_id": "7",
    "senaste_varde": 64.0,
    "senaste_datum": "2009-04-20",
    "antal_matningar": 379,
    "forsta_datum": null,
    "sista_datum": "2009-04-20"
   }
  },
  {
   "type": "Feature",
   "geometry": {
    "type": "Point",
    "coordinates": [
     12.4789,
     58.4807
    ]
   },
   "properties": {
    "station_id": "70770",
    "namn": "VÄNERN Vänersborgsviken",
    "aktiv": true,
    "hojd_m": null,
    "parameter": "Istjocklek",
    "enhet": "cm",
    "parameter_id": "7",
    "senaste_varde": 3.0,
    "senaste_datum": "2024-01-07",
    "antal_matningar": 359,
    "forsta_datum": null,
    "sista_datum": "2024-01-07"
   }
  },
  {
   "type": "Feature",
   "geometry": {
    "type": "Point",
    "coordinates": [
     13.4422,
     55.9117
    ]
   },
   "properties": {
    "station_id": "70004",
    "namn": "VÄSTRA RINGSJÖN",
    "aktiv": false,
    "hojd_m": null,
    "parameter": "Istjocklek",
    "enhet": "cm",
    "parameter_id": "7",
    "senaste_varde": 0.0,
    "senaste_datum": "2011-03-24",
    "antal_matningar": 622,
    "forsta_datum": null,
    "sista_datum": "2011-03-24"
   }
  },
  {
   "type": "Feature",
   "geometry": {
    "type": "Point",
    "coordinates": [
     15.0412,
     58.5332
    ]
   },
   "properties": {
    "station_id": "70776",
    "namn": "Vättern",
    "aktiv": false,
    "hojd_m": null,
    "parameter": "Istjocklek",
    "enhet": "cm",
    "parameter_id": "7",
    "senaste_varde": 0.0,
    "senaste_datum": "2012-04-08",
    "antal_matningar": 207,
    "forsta_datum": null,
    "sista_datum": "2012-04-08"
   }
  },
  {
   "type": "Feature",
   "geometry": {
    "type": "Point",
    "coordinates": [
     16.1469,
     57.6504
    ]
   },
   "properties": {
    "station_id": "70044",
    "namn": "YXERN",
    "aktiv": true,
    "hojd_m": null,
    "parameter": "Istjocklek",
    "enhet": "cm",
    "parameter_id": "7",
    "senaste_varde": 0.0,
    "senaste_datum": "2012-03-22",
    "antal_matningar": 799,
    "forsta_datum": null,
    "sista_datum": "2012-03-22"
   }
  },
  {
   "type": "Feature",
   "geometry": {
    "type": "Point",
    "coordinates": [
     13.2738,
     57.6711
    ]
   },
   "properties": {
    "station_id": "70759",
    "namn": "ÅSUNDEN YTTRE SÖDRA DELEN",
    "aktiv": false,
    "hojd_m": null,
    "parameter": "Istjocklek",
    "enhet": "cm",
    "parameter_id": "7",
    "senaste_varde": 23.0,
    "senaste_datum": "2012-03-09",
    "antal_matningar": 465,
    "forsta_datum": null,
    "sista_datum": "2012-03-23"
   }
  },
  {
   "type": "Feature",
   "geometry": {
    "type": "Point",
    "coordinates": [
     12.5387,
     59.1255
    ]
   },
   "properties": {
    "station_id": "70111",
    "namn": "ÖMMELN",
    "aktiv": false,
    "hojd_m": null,
    "parameter": "Istjocklek",
    "enhet": "cm",
    "parameter_id": "7",
    "senaste_varde": 0.0,
    "senaste_datum": "2012-03-28",
    "antal_matningar": 590,
    "forsta_datum": null,
    "sista_datum": "2012-03-28"
   }
  },
  {
   "type": "Feature",
   "geometry": {
    "type": "Point",
    "coordinates": [
     13.1452,
     59.8702
    ]
   },
   "properties": {
    "station_id": "70168",
    "namn": "ÖVRE FRYKEN",
    "aktiv": false,
    "hojd_m": null,
    "parameter": "Istjocklek",
    "enhet": "cm",
    "parameter_id": "7",
    "senaste_varde": 0.0,
    "senaste_datum": "2012-04-08",
    "antal_matningar": 848,
    "forsta_datum": null,
    "sista_datum": "2012-04-08"
   }
  }
 ]
}